{"type":"FeatureCollection","generator":"overpass-ide","copyright":"The data included in this document is from www.openstreetmap.org. The data is made available under ODbL.","timestamp":"2022-08-27T16:14:09Z","features":[{"type":"Feature","properties":{"@id":"way/85320790","highway":"residential","lit":"yes","name":"黃埔街 Whampoa Street","name:en":"Whampoa Street","name:zh":"黃埔街","sidewalk":"both","surface":"asphalt"},"geometry":{"type":"LineString","coordinates":[[114.1848737,22.3064708],[114.1844332,22.3058847]]},"id":"way/85320790"},{"type":"Feature","properties":{"@id":"way/151396666","highway":"residential","lit":"yes","name":"黃埔街 Whampoa Street","name:en":"Whampoa Street","name:zh":"黃埔街","oneway":"yes","sidewalk":"left","surface":"asphalt"},"geometry":{"type":"LineString","coordinates":[[114.1853471,22.3071007],[114.1848737,22.3064708]]},"id":"way/151396666"},{"type":"Feature","properties":{"@id":"way/28069332","highway":"residential","name":"汕頭街 Swatow Street","name:en":"Swatow Street","name:zh":"汕頭街","surface":"concrete"},"geometry":{"type":"LineString","coordinates":[[114.1719332,22.2763997],[114.1719436,22.276318],[114.1719381,22.2762922],[114.1716702,22.2757363],[114.1715129,22.2754281]]},"id":"way/28069332"},{"type":"Feature","properties":{"@id":"way/30075004","highway":"residential","name":"九江街 Kiu Kiang Street","name:en":"Kiu Kiang Street","name:zh":"九江街","oneway":"yes","surface":"concrete"},"geometry":{"type":"LineString","coordinates":[[114.1573622,22.3294386],[114.1573048,22.3294161],[114.1569483,22.3290147]]},"id":"way/30075004"},{"type":"Feature","properties":{"@id":"way/30151133","highway":"residential","lanes":1,"name":"深圳街 Shamchun Street","name:en":"Shamchun Street","name:zh":"深圳街","oneway":"yes","surface":"concrete"},"geometry":{"type":"LineString","coordinates":[[114.166776,22.3188372],[114.1667986,22.3187388],[114.1668151,22.3186669],[114.1669084,22.3182637]]},"id":"way/30151133"},{"type":"Feature","properties":{"@id":"way/30151148","abutters":"retail","designation":"小販認可區 Hawker permitted place","designation:en":"Hawker permitted place","designation:wikidata":"Q10263158","designation:zh":"小販認可區","highway":"pedestrian","lanes":1,"lanes:marked":1,"lanes:unmarked":2,"marketplace":"separate","motor_vehicle":"yes","name":"深圳街 Shamchun Street","name:en":"Shamchun Street","name:zh":"深圳街","oneway":"no","passing_places":"yes","sidewalk":"both","surface":"concrete:plates"},"geometry":{"type":"LineString","coordinates":[[114.1666975,22.3191998],[114.1667058,22.3191649]]},"id":"way/30151148"},{"type":"Feature","properties":{"@id":"way/30151290","highway":"residential","lanes":1,"name":"長沙街 Changsha Street","name:en":"Changsha Street","name:zh":"長沙街","oneway":"yes","surface":"concrete"},"geometry":{"type":"LineString","coordinates":[[114.1693881,22.3159607],[114.1698882,22.3160496],[114.1699739,22.3160653]]},"id":"way/30151290"},{"type":"Feature","properties":{"@id":"way/30151446","highway":"residential","lanes":2,"lit":"yes","name":"九江街 Kiu Kiang Street","name:en":"Kiu Kiang Street","name:zh":"九江街","oneway":"yes","sidewalk":"both","surface":"concrete"},"geometry":{"type":"LineString","coordinates":[[114.161683,22.3342988],[114.162066,22.3347529]]},"id":"way/30151446"},{"type":"Feature","properties":{"@id":"way/37663945","bicycle":"no","foot":"no","highway":"primary","lanes":2,"name":"廣東道 Canton Road","name:en":"Canton Road","name:zh":"廣東道","oneway":"yes","surface":"asphalt"},"geometry":{"type":"LineString","coordinates":[[114.1681065,22.301113],[114.1680443,22.3014399],[114.1679559,22.3017739]]},"id":"way/37663945"},{"type":"Feature","properties":{"@id":"way/37664045","highway":"secondary","lanes":4,"lanes:backward":3,"lanes:forward":1,"name":"蕪湖街 Wuhu Street","name:en":"Wuhu Street","name:zh":"蕪湖街","surface":"asphalt"},"geometry":{"type":"LineString","coordinates":[[114.1871608,22.3065229],[114.1867008,22.3068202]]},"id":"way/37664045"},{"type":"Feature","properties":{"@id":"way/40744449","highway":"primary","lanes":4,"name":"廣東道 Canton Road","name:en":"Canton Road","name:zh":"廣東道","oneway":"yes","surface":"asphalt"},"geometry":{"type":"LineString","coordinates":[[114.1679723,22.3037146],[114.1681041,22.3031775],[114.1681395,22.303033]]},"id":"way/40744449"},{"type":"Feature","properties":{"@id":"way/85200998","highway":"residential","name":"四川街 Sze Chuen Street","name:en":"Sze Chuen Street","name:zh":"四川街","surface":"asphalt"},"geometry":{"type":"LineString","coordinates":[[114.1886998,22.3164011],[114.1882799,22.316587]]},"id":"way/85200998"},{"type":"Feature","properties":{"@id":"way/85201014","highway":"unclassified","name":"貴州街 Kwei Chow Street","name:en":"Kwei Chow Street","name:zh":"貴州街","oneway":"yes","sidewalk":"both"},"geometry":{"type":"LineString","coordinates":[[114.1926092,22.3166592],[114.1928661,22.3164474],[114.1930157,22.3163241],[114.1930486,22.3162955],[114.1930693,22.3162534],[114.1930653,22.3162105],[114.1930506,22.3161615]]},"id":"way/85201014"},{"type":"Feature","properties":{"@id":"way/85201044","highway":"tertiary","name":"浙江街 Chi Kiang Street","name:en":"Chi Kiang Street","name:zh":"浙江街"},"geometry":{"type":"LineString","coordinates":[[114.1869798,22.3154851],[114.1864221,22.3154891]]},"id":"way/85201044"},{"type":"Feature","properties":{"@id":"way/85201052","highway":"residential","name":"四川街 Sze Chuen Street","name:en":"Sze Chuen Street","name:zh":"四川街","oneway":"yes","surface":"asphalt"},"geometry":{"type":"LineString","coordinates":[[114.1882799,22.316587],[114.1882138,22.3166163],[114.1880676,22.316681]]},"id":"way/85201052"},{"type":"Feature","properties":{"@id":"way/85320687","highway":"residential","lanes":2,"name":"江西街 Kiang Hsi Street","name:en":"Kiang Hsi Street","name:zh":"江西街","oneway":"yes","surface":"asphalt"},"geometry":{"type":"LineString","coordinates":[[114.186841,22.3144632],[114.1873017,22.3143702],[114.1873738,22.3143558]]},"id":"way/85320687"},{"type":"Feature","properties":{"@id":"way/85320728","highway":"residential","lanes":1,"name":"山西街 Shansi Street","name:en":"Shansi Street","name:zh":"山西街","oneway":"yes","surface":"asphalt"},"geometry":{"type":"LineString","coordinates":[[114.1864679,22.3135261],[114.1868788,22.313308]]},"id":"way/85320728"},{"type":"Feature","properties":{"@id":"way/85988268","highway":"residential","lanes":2,"name":"桂林街 Kweilin Street","name:en":"Kweilin Street","name:zh":"桂林街","not:psv":"no","oneway":"yes","surface":"concrete"},"geometry":{"type":"LineString","coordinates":[[114.1587839,22.3275985],[114.1589527,22.3277844],[114.1591683,22.3280228]]},"id":"way/85988268"},{"type":"Feature","properties":{"@id":"way/85988275","highway":"pedestrian","name":"桂林街 Kweilin Street","name:en":"Kweilin Street","name:zh":"桂林街","sidewalk":"no"},"geometry":{"type":"LineString","coordinates":[[114.1614963,22.3306444],[114.1615125,22.3306715],[114.1615898,22.3307677],[114.1616093,22.3308332],[114.1616586,22.3308882],[114.1617727,22.3310155],[114.1618067,22.3310522]]},"id":"way/85988275"},{"type":"Feature","properties":{"@id":"way/88514669","highway":"steps","name":"汕頭街 Swatow Street","name:en":"Swatow Street","name:zh":"汕頭街"},"geometry":{"type":"LineString","coordinates":[[114.1715129,22.2754281],[114.1714243,22.2752422]]},"id":"way/88514669"},{"type":"Feature","properties":{"@id":"way/95489060","highway":"tertiary","lanes":2,"name":"山東街 Shantung Street","name:en":"Shantung Street","name:zh":"山東街","oneway":"yes","surface":"concrete"},"geometry":{"type":"LineString","coordinates":[[114.1697992,22.3175012],[114.1698663,22.3175139],[114.1698939,22.3175191],[114.1702528,22.317587],[114.1702989,22.3175962],[114.170358,22.3176083],[114.1704442,22.3176241],[114.1707924,22.317685],[114.1709017,22.3177051]]},"id":"way/95489060"},{"type":"Feature","properties":{"@id":"way/99517984","highway":"tertiary","lanes":2,"name":"山東街 Shantung Street","name:en":"Shantung Street","name:zh":"山東街","oneway":"yes","surface":"concrete"},"geometry":{"type":"LineString","coordinates":[[114.1696741,22.3175182],[114.1696129,22.3175085],[114.1695845,22.317504],[114.1691434,22.3174282],[114.1690734,22.3174155]]},"id":"way/99517984"},{"type":"Feature","properties":{"@id":"way/100126234","highway":"residential","lanes":2,"name":"北京道 Peking Road","name:en":"Peking Road","name:zh":"北京道","oneway":"yes","surface":"concrete"},"geometry":{"type":"LineString","coordinates":[[114.1692388,22.2961483],[114.1695728,22.2961889],[114.1700748,22.2962499],[114.1701112,22.2962543],[114.1702053,22.2962681]]},"id":"way/100126234"},{"type":"Feature","properties":{"@id":"way/100220087","highway":"residential","lanes":2,"name":"北京道 Peking Road","name:en":"Peking Road","name:zh":"北京道","oneway":"yes","surface":"concrete","wikidata":"Q7161055"},"geometry":{"type":"LineString","coordinates":[[114.1721995,22.296485],[114.1721306,22.2964785],[114.1716404,22.2964293],[114.1712719,22.2963912],[114.1712415,22.2963725],[114.1712246,22.2963569]]},"id":"way/100220087"},{"type":"Feature","properties":{"@id":"way/100507099","abutters":"retail","designation":"小販認可區 Hawker permitted place","designation:en":"Hawker permitted place","designation:wikidata":"Q10263158","designation:zh":"小販認可區","highway":"pedestrian","kerb:both":"raised","lanes":2,"marketplace":"yes","motor_vehicle":"permissive","name":"廣東道 Canton Road","name:en":"Canton Road","name:zh":"廣東道","oneway":"yes","sidewalk":"both","surface":"concrete"},"geometry":{"type":"LineString","coordinates":[[114.167181,22.3190553],[114.1671788,22.3190679],[114.1670114,22.3198717],[114.1669158,22.3203437]]},"id":"way/100507099"},{"type":"Feature","properties":{"@id":"way/101176341","highway":"unclassified","name":"廣東道 Canton Road","name:en":"Canton Road","name:zh":"廣東道"},"geometry":{"type":"LineString","coordinates":[[114.1668762,22.3204991],[114.1666323,22.3216322]]},"id":"way/101176341"},{"type":"Feature","properties":{"@id":"way/101176344","carriageway":"single","highway":"unclassified","name":"廣東道 Canton Road","name:en":"Canton Road","name:zh":"廣東道","oneway":"yes","sidewalk":"both"},"geometry":{"type":"LineString","coordinates":[[114.1684974,22.3126662],[114.1684796,22.3127555],[114.1683196,22.3135053]]},"id":"way/101176344"},{"type":"Feature","properties":{"@id":"way/101176348","highway":"unclassified","name":"廣東道 Canton Road","name:en":"Canton Road","name:zh":"廣東道","oneway":"yes","surface":"concrete"},"geometry":{"type":"LineString","coordinates":[[114.1666323,22.3216322],[114.1664288,22.3226105],[114.166228,22.3235753]]},"id":"way/101176348"},{"type":"Feature","properties":{"@id":"way/101193750","bus":"yes","highway":"secondary","lanes":2,"name":"南昌街 Nam Cheong Street","name:en":"Nam Cheong Street","name:zh":"南昌街","oneway":"yes","surface":"concrete","vehicle":"no"},"geometry":{"type":"LineString","coordinates":[[114.1653027,22.3314553],[114.1652866,22.3314],[114.1652658,22.3313697],[114.1652114,22.3312955]]},"id":"way/101193750"},{"type":"Feature","properties":{"@id":"way/101193759","highway":"secondary","lanes":3,"name":"南昌街 Nam Cheong Street","name:en":"Nam Cheong Street","name:zh":"南昌街","oneway":"yes","surface":"concrete"},"geometry":{"type":"LineString","coordinates":[[114.1608954,22.3267034],[114.1609699,22.3267807],[114.161118,22.3269421],[114.1612938,22.3271335],[114.1616257,22.3274993],[114.1616436,22.3275193],[114.1617101,22.3275934]]},"id":"way/101193759"},{"type":"Feature","properties":{"@id":"way/101476147","highway":"service","name":"廣東道 Canton Road","name:en":"Canton Road","name:zh":"廣東道","oneway":"yes","surface":"concrete"},"geometry":{"type":"LineString","coordinates":[[114.1687887,22.311095],[114.1687829,22.3111273],[114.1687798,22.3111447],[114.1686605,22.3117357]]},"id":"way/101476147"},{"type":"Feature","properties":{"@id":"way/101476154","highway":"secondary","name":"甘肅街 Kansu Street","name:en":"Kansu Street","name:zh":"甘肅街","oneway":"yes"},"geometry":{"type":"LineString","coordinates":[[114.1678921,22.3091933],[114.1678157,22.3091781],[114.1677466,22.3091733],[114.1677193,22.3091734],[114.1676623,22.3091699]]},"id":"way/101476154"},{"type":"Feature","properties":{"@id":"way/101547585","bicycle":"dismount","bicycle:conditional":"yes @ (sidewalk AND dismount); no @ (carriageway)","bridge":"yes","change":"no","foot":"use_sidepath","foot:conditional":"yes @ (sidewalk); no @ (carriageway)","highway":"tertiary","lanes":2,"layer":1,"name":"南昌街 Nam Cheong Street","name:en":"Nam Cheong Street","name:zh":"南昌街","sidewalk:left":"no","sidewalk:right":"separate","surface":"asphalt"},"geometry":{"type":"LineString","coordinates":[[114.1649537,22.3421645],[114.1649834,22.3417201]]},"id":"way/101547585"},{"type":"Feature","properties":{"@id":"way/102149730","highway":"secondary","lanes":2,"name":"上海街 Shanghai Street","name:en":"Shanghai Street","name:zh":"上海街","oneway":"yes","surface":"concrete"},"geometry":{"type":"LineString","coordinates":[[114.167289,22.3234086],[114.1672864,22.3232688]]},"id":"way/102149730"},{"type":"Feature","properties":{"@id":"way/102368461","highway":"secondary","lanes":3,"name":"南昌街 Nam Cheong Street","name:en":"Nam Cheong Street","name:zh":"南昌街","oneway":"yes","surface":"concrete"},"geometry":{"type":"LineString","coordinates":[[114.1618688,22.327478],[114.1618001,22.3274007],[114.1617739,22.3273712],[114.1614499,22.3270103],[114.1612676,22.3268034],[114.1611637,22.3266855],[114.1611354,22.3266532],[114.1610643,22.3265839],[114.160983,22.3264943],[114.1608726,22.3263733],[114.1608549,22.326351],[114.1608333,22.3263141]]},"id":"way/102368461"},{"type":"Feature","properties":{"@id":"way/102422597","abutters":"retail","designation":"小販認可區 Hawker permitted place","designation:en":"Hawker permitted place","designation:wikidata":"Q10263158","designation:zh":"小販認可區","highway":"pedestrian","kerb:both":"raised","lanes":1,"marketplace":"yes","motor_vehicle":"yes","name":"廣東道 Canton Road","name:en":"Canton Road","name:zh":"廣東道","oneway":"yes","sidewalk":"both","surface":"concrete"},"geometry":{"type":"LineString","coordinates":[[114.1675667,22.3171723],[114.1674153,22.31794],[114.1673294,22.3183396],[114.167243,22.3187513],[114.1672303,22.3187994]]},"id":"way/102422597"},{"type":"Feature","properties":{"@id":"way/102422598","highway":"tertiary","name":"山東街 Shantung Street","name:en":"Shantung Street","name:zh":"山東街","oneway":"yes","surface":"concrete"},"geometry":{"type":"LineString","coordinates":[[114.1675731,22.3171443],[114.1675005,22.3171274],[114.1673166,22.3170868],[114.1670452,22.3170336],[114.1666748,22.3169537],[114.166568,22.3169347],[114.1663805,22.3169072]]},"id":"way/102422598"},{"type":"Feature","properties":{"@id":"way/102441822","abutters":"retail","fixme":"Street market?","fixme:amenity":"marketplace","highway":"residential","name":"廣東道 Canton Road","name:en":"Canton Road","name:zh":"廣東道","oneway":"yes","surface":"concrete"},"geometry":{"type":"LineString","coordinates":[[114.1681879,22.3141569],[114.1680169,22.3149736]]},"id":"way/102441822"},{"type":"Feature","properties":{"@id":"way/102441823","highway":"residential","lanes":1,"name":"長沙街 Changsha Street","name:en":"Changsha Street","name:zh":"長沙街","oneway":"yes","surface":"concrete"},"geometry":{"type":"LineString","coordinates":[[114.1693881,22.3159607],[114.1688016,22.3158614]]},"id":"way/102441823"},{"type":"Feature","properties":{"@id":"way/102441826","highway":"residential","name":"廣東道 Canton Road","name:en":"Canton Road","name:zh":"廣東道","oneway":"yes"},"geometry":{"type":"LineString","coordinates":[[114.1680169,22.3149736],[114.168008,22.3150455],[114.1677849,22.3161068],[114.1677705,22.3161776],[114.1677487,22.3162824],[114.1675921,22.3170395],[114.1675731,22.3171443]]},"id":"way/102441826"},{"type":"Feature","properties":{"@id":"way/102441829","abutters":"retail","fixme":"Street market?","fixme:amenity":"marketplace","highway":"residential","name":"廣東道 Canton Road","name:en":"Canton Road","name:zh":"廣東道","oneway":"yes","surface":"concrete"},"geometry":{"type":"LineString","coordinates":[[114.1681879,22.3141569],[114.1683196,22.3135053]]},"id":"way/102441829"},{"type":"Feature","properties":{"@id":"way/102454129","highway":"secondary","lanes":3,"name":"上海街 Shanghai Street","name:en":"Shanghai Street","name:zh":"上海街","oneway":"yes","surface":"concrete"},"geometry":{"type":"LineString","coordinates":[[114.1694498,22.3127358],[114.1694694,22.3126389],[114.1695574,22.3122173],[114.1696559,22.3117159],[114.1697451,22.3112265],[114.1698294,22.3107556]]},"id":"way/102454129"},{"type":"Feature","properties":{"@id":"way/102454138","highway":"pedestrian","lit":"yes","name":"雲南里 Yunnan Lane","name:en":"Yunnan Lane","name:zh":"雲南里","surface":"paving_stones"},"geometry":{"type":"LineString","coordinates":[[114.1699029,22.3117561],[114.1698965,22.311793],[114.1698236,22.3121526],[114.1697965,22.3122614]]},"id":"way/102454138"},{"type":"Feature","properties":{"@id":"way/102506140","carriageway":"single","highway":"secondary","lanes":3,"name":"上海街 Shanghai Street","name:en":"Shanghai Street","name:zh":"上海街","oneway":"yes","sidewalk":"both","surface":"concrete"},"geometry":{"type":"LineString","coordinates":[[114.169953,22.3100905],[114.1699833,22.309938],[114.1700657,22.3095241]]},"id":"way/102506140"},{"type":"Feature","properties":{"@id":"way/102640414","highway":"residential","lanes":1,"name":"南京街 Nanking Street","name:en":"Nanking Street","name:zh":"南京街","oneway":"yes","surface":"concrete"},"geometry":{"type":"LineString","coordinates":[[114.1681615,22.3064738],[114.1686107,22.3063771]]},"id":"way/102640414"},{"type":"Feature","properties":{"@id":"way/102640418","highway":"residential","lanes":1,"name":"甘肅街 Kansu Street","name:en":"Kansu Street","name:zh":"甘肅街","oneway":"yes","surface":"asphalt"},"geometry":{"type":"LineString","coordinates":[[114.1701439,22.3088662],[114.1701787,22.3088008],[114.1702055,22.3087476],[114.1702317,22.3087223],[114.1702661,22.3087087],[114.1702952,22.3086989],[114.1703273,22.3086899],[114.17058,22.308635],[114.1706253,22.3086396],[114.1706744,22.3086507],[114.1707128,22.3086717],[114.1707383,22.3086933],[114.1707912,22.308768]]},"id":"way/102640418"},{"type":"Feature","properties":{"@id":"way/102640427","abutters":"retail","carriageway":"single","highway":"pedestrian","kerb:both":"raised","lanes":1,"motor_vehicle":"yes","name":"北海街 Pak Hoi Street","name:en":"Pak Hoi Street","name:zh":"北海街","oneway":"yes","sidewalk":"both","surface":"concrete"},"geometry":{"type":"LineString","coordinates":[[114.1699187,22.3080225],[114.1698365,22.3080415]]},"id":"way/102640427"},{"type":"Feature","properties":{"@id":"way/102640430","highway":"unclassified","lanes":1,"name":"寧波街 Ning Po Street","name:en":"Ning Po Street","name:zh":"寧波街","oneway":"yes","surface":"concrete"},"geometry":{"type":"LineString","coordinates":[[114.1696037,22.306798],[114.169196,22.3068913],[114.1687506,22.30699],[114.1683169,22.30709]]},"id":"way/102640430"},{"type":"Feature","properties":{"@id":"way/102640431","highway":"tertiary","lanes":1,"name":"山東街 Shantung Street","name:en":"Shantung Street","name:zh":"山東街","oneway":"yes","surface":"concrete"},"geometry":{"type":"LineString","coordinates":[[114.1709017,22.3177051],[114.1710142,22.3177261],[114.1713768,22.3177941],[114.1714652,22.3178106]]},"id":"way/102640431"},{"type":"Feature","properties":{"@id":"way/102640437","highway":"unclassified","lanes":1,"name":"寧波街 Ning Po Street","name:en":"Ning Po Street","name:zh":"寧波街","oneway":"yes","surface":"asphalt"},"geometry":{"type":"LineString","coordinates":[[114.1704682,22.3066064],[114.1700429,22.3066972]]},"id":"way/102640437"},{"type":"Feature","properties":{"@id":"way/102640439","abutters":"retail","carriageway":"single","highway":"pedestrian","kerb:both":"raised","lanes":1,"motor_vehicle":"yes","name":"北海街 Pak Hoi Street","name:en":"Pak Hoi Street","name:zh":"北海街","oneway":"yes","sidewalk":"both","surface":"concrete"},"geometry":{"type":"LineString","coordinates":[[114.1690771,22.3082153],[114.1691611,22.3081963]]},"id":"way/102640439"},{"type":"Feature","properties":{"@id":"way/102640442","highway":"unclassified","lanes":1,"name":"寧波街 Ning Po Street","name:en":"Ning Po Street","name:zh":"寧波街","oneway":"yes","surface":"asphalt"},"geometry":{"type":"LineString","coordinates":[[114.1700429,22.3066972],[114.1696037,22.306798]]},"id":"way/102640442"},{"type":"Feature","properties":{"@id":"way/102640446","highway":"pedestrian","name":"南京街 Nanking Street","name:en":"Nanking Street","name:zh":"南京街","surface":"paving_stones"},"geometry":{"type":"LineString","coordinates":[[114.1707469,22.3058847],[114.170309,22.3059904],[114.1698992,22.3060851],[114.1694381,22.3061889]]},"id":"way/102640446"},{"type":"Feature","properties":{"@id":"way/102640448","abutters":"retail","carriageway":"single","highway":"unclassified","lanes":1,"name":"北海街 Pak Hoi Street","name:en":"Pak Hoi Street","name:zh":"北海街","oneway":"yes","sidewalk":"both","surface":"concrete"},"geometry":{"type":"LineString","coordinates":[[114.1699187,22.3080225],[114.1703611,22.3079259],[114.1705612,22.3078802],[114.1707831,22.3078243],[114.17125,22.3077248],[114.1713457,22.3077036]]},"id":"way/102640448"},{"type":"Feature","properties":{"@id":"way/102640451","highway":"secondary","lanes":3,"name":"上海街 Shanghai Street","name:en":"Shanghai Street","name:zh":"上海街","oneway":"yes","surface":"concrete"},"geometry":{"type":"LineString","coordinates":[[114.1696037,22.306798],[114.1694381,22.3061889],[114.1693934,22.3060115],[114.1692996,22.3056462],[114.1692699,22.3055],[114.1692486,22.3053975]]},"id":"way/102640451"},{"type":"Feature","properties":{"@id":"way/102640465","highway":"residential","lanes":1,"name":"南京街 Nanking Street","name:en":"Nanking Street","name:zh":"南京街","oneway":"yes","surface":"concrete"},"geometry":{"type":"LineString","coordinates":[[114.1694381,22.3061889],[114.1691871,22.3062476],[114.1690146,22.3062833],[114.1686107,22.3063771]]},"id":"way/102640465"},{"type":"Feature","properties":{"@id":"way/102674713","foot":"no","highway":"primary","lanes":3,"name":"廣東道 Canton Road","name:en":"Canton Road","name:zh":"廣東道","oneway":"yes","surface":"concrete"},"geometry":{"type":"LineString","coordinates":[[114.1668472,22.3058563],[114.1668548,22.305929],[114.1668686,22.3059933]]},"id":"way/102674713"},{"type":"Feature","properties":{"@id":"way/102674737","highway":"primary","lanes":3,"name":"廣東道 Canton Road","name:en":"Canton Road","name:zh":"廣東道","oneway":"yes","surface":"concrete"},"geometry":{"type":"LineString","coordinates":[[114.1670143,22.305827],[114.1670477,22.3057036],[114.1671222,22.3055056]]},"id":"way/102674737"},{"type":"Feature","properties":{"@id":"way/102821053","highway":"residential","lanes":1,"name":"宜昌街 Ichang Street","name:en":"Ichang Street","name:zh":"宜昌街","oneway":"yes","surface":"asphalt"},"geometry":{"type":"LineString","coordinates":[[114.1705585,22.2969686],[114.1711122,22.2970157]]},"id":"way/102821053"},{"type":"Feature","properties":{"@id":"way/102821071","highway":"primary","lanes":4,"name":"廣東道 Canton Road","name:en":"Canton Road","name:zh":"廣東道","oneway":"yes","surface":"asphalt"},"geometry":{"type":"LineString","coordinates":[[114.1679559,22.3017739],[114.1679415,22.3019942],[114.1679584,22.3022662],[114.1680083,22.3025617],[114.1680243,22.3027203],[114.1680214,22.3028369],[114.1680187,22.3029419]]},"id":"way/102821071"},{"type":"Feature","properties":{"@id":"way/102821120","highway":"primary","lanes":1,"name":"廣東道 Canton Road","name:en":"Canton Road","name:zh":"廣東道","oneway":"yes","surface":"asphalt"},"geometry":{"type":"LineString","coordinates":[[114.1687366,22.2997655],[114.1686302,22.2999047],[114.1686029,22.299933],[114.1685349,22.3000009]]},"id":"way/102821120"},{"type":"Feature","properties":{"@id":"way/102826316","highway":"primary","lanes":3,"name":"廣東道 Canton Road","name:en":"Canton Road","name:zh":"廣東道","oneway":"yes","surface":"asphalt"},"geometry":{"type":"LineString","coordinates":[[114.1680149,22.3030252],[114.1679824,22.3031905],[114.1678933,22.3035777],[114.167783,22.3039441],[114.1677222,22.304146],[114.1675837,22.304498],[114.1675001,22.3046387],[114.1674129,22.3047801]]},"id":"way/102826316"},{"type":"Feature","properties":{"@id":"way/102826324","highway":"primary","lanes":3,"name":"廣東道 Canton Road","name:en":"Canton Road","name:zh":"廣東道","oneway":"yes","surface":"asphalt"},"geometry":{"type":"LineString","coordinates":[[114.1681395,22.303033],[114.1681429,22.3029512]]},"id":"way/102826324"},{"type":"Feature","properties":{"@id":"way/103239091","highway":"secondary","lanes":3,"name":"南昌街 Nam Cheong Street","name:en":"Nam Cheong Street","name:zh":"南昌街","oneway":"yes","surface":"concrete"},"geometry":{"type":"LineString","coordinates":[[114.1629997,22.3287372],[114.1627959,22.3285028],[114.1626465,22.3283432],[114.1622994,22.3279505],[114.1622578,22.3279009],[114.1620286,22.327658],[114.1619882,22.3276101],[114.161937,22.3275497]]},"id":"way/103239091"},{"type":"Feature","properties":{"@id":"way/103239092","highway":"residential","lanes":2,"lit":"yes","name":"九江街 Kiu Kiang Street","name:en":"Kiu Kiang Street","name:zh":"九江街","oneway":"yes","sidewalk":"both","surface":"concrete"},"geometry":{"type":"LineString","coordinates":[[114.161683,22.3342988],[114.161292,22.333861]]},"id":"way/103239092"},{"type":"Feature","properties":{"@id":"way/103239104","highway":"residential","name":"九江街 Kiu Kiang Street","name:en":"Kiu Kiang Street","name:zh":"九江街","oneway":"yes","surface":"concrete"},"geometry":{"type":"LineString","coordinates":[[114.1604238,22.3328971],[114.1604312,22.3329218],[114.1604326,22.3329398],[114.1604322,22.3329615]]},"id":"way/103239104"},{"type":"Feature","properties":{"@id":"way/103274845","abutters":"retail","carriageway":"single","highway":"pedestrian","marketplace":"electronics","marketplace:opening_hours":"12:00-21:00","name":"桂林街 Kweilin Street","name:en":"Kweilin Street","name:zh":"桂林街","not:motor_vehicle:conditional":"no @ (12:00-21:00)","oneway":"yes","sidewalk":"both","sidewalk:both:surface":"paving_stones","surface":"asphalt","vehicle":"no","vehicle:conditional":"yes @ (21:00-12:00)"},"geometry":{"type":"LineString","coordinates":[[114.1614186,22.3305474],[114.161164,22.3302715],[114.1611067,22.3302095]]},"id":"way/103274845"},{"type":"Feature","properties":{"@id":"way/103274862","highway":"residential","name":"桂林街 Kweilin Street","name:en":"Kweilin Street","name:zh":"桂林街","surface":"concrete"},"geometry":{"type":"LineString","coordinates":[[114.160059,22.329004],[114.1601096,22.3290601],[114.1604067,22.3294008]]},"id":"way/103274862"},{"type":"Feature","properties":{"@id":"way/103274863","highway":"secondary","lanes":3,"name":"南昌街 Nam Cheong Street","name:en":"Nam Cheong Street","name:zh":"南昌街","oneway":"yes","surface":"concrete"},"geometry":{"type":"LineString","coordinates":[[114.1636523,22.3297699],[114.1637085,22.3298361],[114.1640361,22.3302049]]},"id":"way/103274863"},{"type":"Feature","properties":{"@id":"way/103274864","highway":"residential","lit":"yes","name":"桂林街 Kweilin Street","name:en":"Kweilin Street","name:zh":"桂林街","oneway":"yes","sidewalk":"both","surface":"concrete"},"geometry":{"type":"LineString","coordinates":[[114.1611067,22.3302095],[114.1607575,22.3298009],[114.1604067,22.3294008]]},"id":"way/103274864"},{"type":"Feature","properties":{"@id":"way/103274865","highway":"secondary","lanes":3,"name":"南昌街 Nam Cheong Street","name:en":"Nam Cheong Street","name:zh":"南昌街","oneway":"yes","surface":"concrete"},"geometry":{"type":"LineString","coordinates":[[114.1637314,22.3295541],[114.1636716,22.329492],[114.1633714,22.3291516]]},"id":"way/103274865"},{"type":"Feature","properties":{"@id":"way/103295898","highway":"secondary","lanes":3,"name":"南昌街 Nam Cheong Street","name:en":"Nam Cheong Street","name:zh":"南昌街","oneway":"yes","surface":"concrete"},"geometry":{"type":"LineString","coordinates":[[114.1617745,22.3276787],[114.1618193,22.32773],[114.1621341,22.32807],[114.1624854,22.328455],[114.1626894,22.3286859],[114.1627631,22.3287512],[114.1627996,22.3287982]]},"id":"way/103295898"},{"type":"Feature","properties":{"@id":"way/103372414","highway":"secondary","lanes":3,"name":"南昌街 Nam Cheong Street","name:en":"Nam Cheong Street","name:zh":"南昌街","oneway":"yes","surface":"concrete"},"geometry":{"type":"LineString","coordinates":[[114.164864,22.3310981],[114.1650126,22.3312652],[114.1650335,22.3312862],[114.1650876,22.3313216]]},"id":"way/103372414"},{"type":"Feature","properties":{"@id":"way/103372417","highway":"secondary","lanes":3,"name":"南昌街 Nam Cheong Street","name:en":"Nam Cheong Street","name:zh":"南昌街","oneway":"yes","surface":"concrete"},"geometry":{"type":"LineString","coordinates":[[114.1650119,22.3309771],[114.1649376,22.3308941],[114.1646147,22.3305367],[114.1644223,22.3303232],[114.164207,22.3300844],[114.1638964,22.3297369],[114.1638661,22.3297037],[114.1638178,22.3296403]]},"id":"way/103372417"},{"type":"Feature","properties":{"@id":"way/103372427","highway":"secondary","lanes":3,"name":"南昌街 Nam Cheong Street","name:en":"Nam Cheong Street","name:zh":"南昌街","oneway":"yes","surface":"concrete"},"geometry":{"type":"LineString","coordinates":[[114.1650876,22.3313216],[114.1651544,22.3313629]]},"id":"way/103372427"},{"type":"Feature","properties":{"@id":"way/103372430","highway":"residential","name":"桂林街 Kweilin Street","name:en":"Kweilin Street","name:zh":"桂林街","oneway":"yes","sidewalk":"both","surface":"asphalt"},"geometry":{"type":"LineString","coordinates":[[114.1634919,22.3328673],[114.1631195,22.3324479]]},"id":"way/103372430"},{"type":"Feature","properties":{"@id":"way/103411698","highway":"residential","lanes":1,"lit":"yes","name":"九江街 Kiu Kiang Street","name:en":"Kiu Kiang Street","name:zh":"九江街","oneway":"yes","sidewalk:left":"yes","sidewalk:right":"separate","surface":"concrete"},"geometry":{"type":"LineString","coordinates":[[114.1573622,22.3294386],[114.157696,22.3298175],[114.1577143,22.3298373],[114.1577354,22.3298497]]},"id":"way/103411698"},{"type":"Feature","properties":{"@id":"way/103422574","highway":"secondary","lanes":2,"lanes:backward":1,"lanes:forward":1,"name":"南昌街 Nam Cheong Street","name:en":"Nam Cheong Street","name:zh":"南昌街","surface":"asphalt"},"geometry":{"type":"LineString","coordinates":[[114.1653302,22.3314878],[114.1653027,22.3314553]]},"id":"way/103422574"},{"type":"Feature","properties":{"@id":"way/105307490","highway":"secondary","lanes":4,"lanes:backward":3,"lanes:forward":1,"name":"蕪湖街 Wuhu Street","name:en":"Wuhu Street","name:zh":"蕪湖街","surface":"asphalt"},"geometry":{"type":"LineString","coordinates":[[114.1864641,22.3069684],[114.1864451,22.3069802],[114.1861113,22.3071891],[114.1858997,22.3073215],[114.1856672,22.307467],[114.1854614,22.3075958]]},"id":"way/105307490"},{"type":"Feature","properties":{"@id":"way/105307496","highway":"secondary","lanes":5,"lanes:backward":3,"lanes:forward":2,"name":"蕪湖街 Wuhu Street","name:en":"Wuhu Street","name:zh":"蕪湖街","surface":"asphalt"},"geometry":{"type":"LineString","coordinates":[[114.1854614,22.3075958],[114.185061,22.3078495]]},"id":"way/105307496"},{"type":"Feature","properties":{"@id":"way/105307513","highway":"secondary","lanes":4,"lanes:backward":3,"lanes:forward":1,"name":"蕪湖街 Wuhu Street","name:en":"Wuhu Street","name:zh":"蕪湖街","surface":"asphalt"},"geometry":{"type":"LineString","coordinates":[[114.1867008,22.3068202],[114.1865902,22.3068894]]},"id":"way/105307513"},{"type":"Feature","properties":{"@id":"way/105715031","highway":"tertiary","name":"浙江街 Chi Kiang Street","name:en":"Chi Kiang Street","name:zh":"浙江街","oneway":"yes","source":"Yahoo","surface":"asphalt"},"geometry":{"type":"LineString","coordinates":[[114.1887508,22.315297],[114.1892338,22.3150524],[114.1903301,22.3145109]]},"id":"way/105715031"},{"type":"Feature","properties":{"@id":"way/106436297","highway":"primary","lanes":3,"name":"廣東道 Canton Road","name:en":"Canton Road","name:zh":"廣東道","oneway":"yes","surface":"concrete"},"geometry":{"type":"LineString","coordinates":[[114.1671366,22.3052065],[114.1669382,22.3055433],[114.1668727,22.3057111],[114.1668686,22.3057347],[114.1668472,22.3058563]]},"id":"way/106436297"},{"type":"Feature","properties":{"@id":"way/106436307","highway":"primary","lanes":3,"name":"廣東道 Canton Road","name:en":"Canton Road","name:zh":"廣東道","oneway":"yes","surface":"asphalt"},"geometry":{"type":"LineString","coordinates":[[114.1674129,22.3047801],[114.1673447,22.3048891]]},"id":"way/106436307"},{"type":"Feature","properties":{"@id":"way/111048459","highway":"secondary","lanes":4,"lanes:backward":2,"lanes:forward":2,"name":"南昌街 Nam Cheong Street","name:en":"Nam Cheong Street","name:zh":"南昌街","surface":"concrete"},"geometry":{"type":"LineString","coordinates":[[114.1679954,22.3344371],[114.1678915,22.3343199],[114.1678529,22.3342803],[114.1677894,22.3342152],[114.1675443,22.3339637],[114.1674753,22.3338928],[114.1673733,22.3337805]]},"id":"way/111048459"},{"type":"Feature","properties":{"@id":"way/111048480","highway":"secondary","lanes":2,"lanes:backward":1,"lanes:forward":1,"name":"南昌街 Nam Cheong Street","name:en":"Nam Cheong Street","name:zh":"南昌街","surface":"concrete"},"geometry":{"type":"LineString","coordinates":[[114.1660796,22.339024],[114.1659802,22.3390959]]},"id":"way/111048480"},{"type":"Feature","properties":{"@id":"way/111048492","alt_name":"大窩坪交匯處 Tai Wo Ping Interchange","alt_name:en":"Tai Wo Ping Interchange","alt_name:zh":"大窩坪交匯處","highway":"trunk_link","interchange":"yes","junction":"interchange","junction:name":"大窩坪交匯處 Tai Wo Ping Interchange","junction:name:en":"Tai Wo Ping Interchange","junction:name:zh":"大窩坪交匯處","lanes":1,"name":"南昌街 Nam Cheong Street","name:en":"Nam Cheong Street","name:zh":"南昌街","oneway":"yes","surface":"concrete"},"geometry":{"type":"LineString","coordinates":[[114.1634678,22.3413911],[114.1634266,22.3413721],[114.1633804,22.3413571],[114.1633385,22.3413483],[114.1633047,22.3413442],[114.1632593,22.3413527],[114.1632331,22.3413675],[114.1632083,22.3413891]]},"id":"way/111048492"},{"type":"Feature","properties":{"@id":"way/111048526","highway":"secondary_link","lanes":1,"name":"南昌街 Nam Cheong Street","name:en":"Nam Cheong Street","name:zh":"南昌街","oneway":"yes","surface":"asphalt"},"geometry":{"type":"LineString","coordinates":[[114.1639305,22.3416203],[114.1638496,22.3415835],[114.1637367,22.3415339],[114.1635419,22.341427],[114.1634678,22.3413911]]},"id":"way/111048526"},{"type":"Feature","properties":{"@id":"way/111048533","alt_name":"大窩坪交匯處 Tai Wo Ping Interchange","alt_name:en":"Tai Wo Ping Interchange","alt_name:zh":"大窩坪交匯處","highway":"secondary_link","interchange":"yes","junction":"interchange","junction:name":"大窩坪交匯處 Tai Wo Ping Interchange","junction:name:en":"Tai Wo Ping Interchange","junction:name:zh":"大窩坪交匯處","lanes":1,"name":"南昌街 Nam Cheong Street","name:en":"Nam Cheong Street","name:zh":"南昌街","oneway":"yes","surface":"asphalt","turn":"reverse"},"geometry":{"type":"LineString","coordinates":[[114.1647406,22.3416625],[114.164773,22.341724],[114.1648035,22.3417548],[114.1648415,22.3417771],[114.1648914,22.3417976],[114.1649321,22.3418079],[114.1649775,22.3418079],[114.1650182,22.3418036],[114.1650535,22.3417923],[114.1650697,22.3417816],[114.1650797,22.341775],[114.1651001,22.3417518],[114.1651181,22.3417132]]},"id":"way/111048533"},{"type":"Feature","properties":{"@id":"way/111221961","highway":"footway","name":"北京道 Peking Road","name:en":"Peking Road","name:zh":"北京道"},"geometry":{"type":"LineString","coordinates":[[114.1712246,22.2963569],[114.1711733,22.2963872],[114.1711232,22.2964135]]},"id":"way/111221961"},{"type":"Feature","properties":{"@id":"way/146245850","highway":"secondary","lanes":2,"lanes:backward":1,"lanes:forward":1,"name":"南昌街 Nam Cheong Street","name:en":"Nam Cheong Street","name:zh":"南昌街","surface":"concrete"},"geometry":{"type":"LineString","coordinates":[[114.1660796,22.339024],[114.1661573,22.3389733]]},"id":"way/146245850"},{"type":"Feature","properties":{"@id":"way/148784030","highway":"unclassified","lanes":2,"name":"廈門街 Amoy Street","name:en":"Amoy Street","name:zh":"廈門街","surface":"asphalt"},"geometry":{"type":"LineString","coordinates":[[114.1722291,22.2765124],[114.1722341,22.2764662],[114.1722379,22.2764436],[114.1722395,22.2764346],[114.172259,22.2762656],[114.1722008,22.2761463],[114.1720873,22.2759135]]},"id":"way/148784030"},{"type":"Feature","properties":{"@id":"way/148784099","highway":"unclassified","lanes":2,"maxlength:backward":5,"name":"廈門街 Amoy Street","name:en":"Amoy Street","name:zh":"廈門街","oneway":"no","surface":"concrete"},"geometry":{"type":"LineString","coordinates":[[114.1719236,22.2755786],[114.1718983,22.2754867],[114.1718885,22.2754407]]},"id":"way/148784099"},{"type":"Feature","properties":{"@id":"way/149524418","highway":"unclassified","lanes":1,"name":"廣東道 Canton Road","name:en":"Canton Road","name:zh":"廣東道","oneway":"yes","surface":"asphalt"},"geometry":{"type":"LineString","coordinates":[[114.1682011,22.3041733],[114.1681987,22.3038395],[114.1681936,22.3037711],[114.1681696,22.3037363],[114.1681095,22.3037132],[114.1679723,22.3037146]]},"id":"way/149524418"},{"type":"Feature","properties":{"@id":"way/149524419","highway":"secondary","lanes":2,"name":"廣東道 Canton Road","name:en":"Canton Road","name:zh":"廣東道","oneway":"yes","surface":"concrete","wikidata":"Q1040176"},"geometry":{"type":"LineString","coordinates":[[114.1679763,22.3057946],[114.1681615,22.3064738],[114.1683169,22.30709],[114.1684803,22.3077213],[114.1686347,22.3083098],[114.1688,22.3089798]]},"id":"way/149524419"},{"type":"Feature","properties":{"@id":"way/149524423","highway":"secondary","lanes":2,"name":"甘肅街 Kansu Street","name:en":"Kansu Street","name:zh":"甘肅街","oneway":"yes","surface":"concrete"},"geometry":{"type":"LineString","coordinates":[[114.1712781,22.3084117],[114.1712588,22.3084155],[114.1712269,22.3084214],[114.1711926,22.3084291],[114.1709535,22.3084837],[114.1707754,22.3085259],[114.1707392,22.3085345],[114.1705274,22.3085798],[114.1701865,22.3086558],[114.1700929,22.3086767],[114.1699437,22.3087103],[114.1696936,22.3087773],[114.1695509,22.3088098],[114.1692429,22.3088798],[114.1688,22.3089798]]},"id":"way/149524423"},{"type":"Feature","properties":{"@id":"way/149524445","abutters":"retail","carriageway":"single","highway":"residential","lanes":1,"name":"北海街 Pak Hoi Street","name:en":"Pak Hoi Street","name:zh":"北海街","oneway":"yes","sidewalk":"both","surface":"concrete"},"geometry":{"type":"LineString","coordinates":[[114.1690771,22.3082153],[114.1686347,22.3083098]]},"id":"way/149524445"},{"type":"Feature","properties":{"@id":"way/149524451","highway":"secondary","lanes":3,"name":"上海街 Shanghai Street","name:en":"Shanghai Street","name:zh":"上海街","oneway":"yes","surface":"concrete"},"geometry":{"type":"LineString","coordinates":[[114.1700929,22.3086767],[114.1699187,22.3080225],[114.1697644,22.307413],[114.1696037,22.306798]]},"id":"way/149524451"},{"type":"Feature","properties":{"@id":"way/149524453","highway":"tertiary","lanes":2,"name":"上海街 Shanghai Street","name:en":"Shanghai Street","name:zh":"上海街","oneway":"yes","surface":"concrete"},"geometry":{"type":"LineString","coordinates":[[114.1692486,22.3053975],[114.1692522,22.3053096],[114.1691511,22.3048394],[114.1691954,22.3042367],[114.1692715,22.3031597],[114.1692731,22.3031396],[114.1692752,22.3031125],[114.1692795,22.3030372]]},"id":"way/149524453"},{"type":"Feature","properties":{"@id":"way/149555141","highway":"unclassified","lanes":1,"name":"南京街 Nanking Street","name:en":"Nanking Street","name:zh":"南京街","oneway":"yes","surface":"concrete"},"geometry":{"type":"LineString","coordinates":[[114.1715141,22.3059379],[114.171448,22.3059331],[114.1708578,22.3058972],[114.1708139,22.3059078],[114.17079,22.3059315],[114.1707708,22.3059773]]},"id":"way/149555141"},{"type":"Feature","properties":{"@id":"way/149555143","highway":"residential","lanes":2,"name":"南京街 Nanking Street","name:en":"Nanking Street","name:zh":"南京街","oneway":"yes","surface":"concrete"},"geometry":{"type":"LineString","coordinates":[[114.1716071,22.3061248],[114.1717068,22.3061345],[114.1726348,22.3062227]]},"id":"way/149555143"},{"type":"Feature","properties":{"@id":"way/149555146","highway":"unclassified","lanes":1,"name":"寧波街 Ning Po Street","name:en":"Ning Po Street","name:zh":"寧波街","oneway":"yes","surface":"asphalt"},"geometry":{"type":"LineString","coordinates":[[114.1704682,22.3066064],[114.1709068,22.3065034],[114.1714115,22.3065324],[114.1714572,22.3065345]]},"id":"way/149555146"},{"type":"Feature","properties":{"@id":"way/149555147","highway":"unclassified","lanes":2,"name":"北海街 Pak Hoi Street","name:en":"Pak Hoi Street","name:zh":"北海街","oneway":"yes","surface":"concrete"},"geometry":{"type":"LineString","coordinates":[[114.1723711,22.3079567],[114.1722919,22.3079083],[114.1715509,22.3078352],[114.1714487,22.307827]]},"id":"way/149555147"},{"type":"Feature","properties":{"@id":"way/149555162","highway":"unclassified","lanes":1,"name":"吳松街 Woosung Street","name:en":"Woosung Street","name:zh":"吳松街","oneway":"yes","surface":"concrete"},"geometry":{"type":"LineString","coordinates":[[114.1702033,22.305208],[114.1701165,22.3047837],[114.1701648,22.3042945],[114.170238,22.303246],[114.1702404,22.3032252],[114.1702441,22.3031866],[114.1702498,22.3031142]]},"id":"way/149555162"},{"type":"Feature","properties":{"@id":"way/149555165","highway":"unclassified","lanes":1,"name":"吳松街 Woosung Street","name:en":"Woosung Street","name:zh":"吳松街","oneway":"yes","surface":"concrete"},"geometry":{"type":"LineString","coordinates":[[114.1709535,22.3084837],[114.1707831,22.3078243],[114.170627,22.3072205],[114.1704682,22.3066064],[114.170309,22.3059904],[114.1701366,22.3053236]]},"id":"way/149555165"},{"type":"Feature","properties":{"@id":"way/150771600","highway":"residential","name":"廣東道 Canton Road","name:en":"Canton Road","name:zh":"廣東道","oneway":"yes","surface":"concrete"},"geometry":{"type":"LineString","coordinates":[[114.16624,22.32368],[114.1661681,22.3240331],[114.1661534,22.3241169]]},"id":"way/150771600"},{"type":"Feature","properties":{"@id":"way/150771643","highway":"secondary","lanes":3,"name":"上海街 Shanghai Street","name:en":"Shanghai Street","name:zh":"上海街","oneway":"yes","surface":"concrete"},"geometry":{"type":"LineString","coordinates":[[114.1674764,22.3222112],[114.1675182,22.3220013],[114.1675284,22.3219503],[114.1675376,22.321908],[114.1675586,22.3217986]]},"id":"way/150771643"},{"type":"Feature","properties":{"@id":"way/150801676","highway":"residential","lanes":2,"name":"東莞街 Tung Kun Street","name:en":"Tung Kun Street","name:zh":"東莞街","oneway":"yes","surface":"concrete"},"geometry":{"type":"LineString","coordinates":[[114.169277,22.3111705],[114.1689502,22.3111201],[114.1687887,22.311095],[114.1686434,22.3110688],[114.1677399,22.3109122]]},"id":"way/150801676"},{"type":"Feature","properties":{"@id":"way/151355576","highway":"pedestrian","name":"桂林街 Kweilin Street","name:en":"Kweilin Street","name:zh":"桂林街","surface":"paving_stones"},"geometry":{"type":"LineString","coordinates":[[114.1618812,22.3311367],[114.1619218,22.331182],[114.1620332,22.3313064],[114.1622335,22.33153],[114.1622984,22.3315325],[114.162355,22.3315962]]},"id":"way/151355576"},{"type":"Feature","properties":{"@id":"way/151355582","bicycle":"dismount","bicycle:conditional":"yes @ (sidewalk AND dismount); no @ (carriageway)","change":"no","foot":"use_sidepath","foot:conditional":"yes @ (sidewalk); no @ (carriageway)","highway":"tertiary","lanes":2,"name":"南昌街 Nam Cheong Street","name:en":"Nam Cheong Street","name:zh":"南昌街","surface":"asphalt"},"geometry":{"type":"LineString","coordinates":[[114.1649428,22.3424629],[114.1649406,22.342427],[114.1649537,22.3421645]]},"id":"way/151355582"},{"type":"Feature","properties":{"@id":"way/151355586","highway":"secondary_link","lanes":1,"name":"南昌街 Nam Cheong Street","name:en":"Nam Cheong Street","name:zh":"南昌街","oneway":"yes","surface":"concrete"},"geometry":{"type":"LineString","coordinates":[[114.1649907,22.3410102],[114.1649544,22.3413097],[114.1649403,22.3413737],[114.1649208,22.3414329],[114.1648929,22.3414953],[114.1648503,22.3415646],[114.1647887,22.341623],[114.1647406,22.3416625]]},"id":"way/151355586"},{"type":"Feature","properties":{"@id":"way/151355587","highway":"secondary_link","lanes":1,"name":"南昌街 Nam Cheong Street","name:en":"Nam Cheong Street","name:zh":"南昌街","oneway":"yes","surface":"asphalt"},"geometry":{"type":"LineString","coordinates":[[114.1651181,22.3417132],[114.1651006,22.3416722],[114.1650832,22.3416259],[114.1650738,22.3415849],[114.165068,22.3415418],[114.1650703,22.3414803],[114.1651028,22.3411351]]},"id":"way/151355587"},{"type":"Feature","properties":{"@id":"way/151355593","carriageway":"dual","highway":"secondary","junction":"jughandle","lanes":2,"name":"南昌街 Nam Cheong Street","name:en":"Nam Cheong Street","name:zh":"南昌街","oneway":"yes","surface":"concrete","traffic_signals":"signal","traffic_signals:ref":"K473"},"geometry":{"type":"LineString","coordinates":[[114.1657177,22.3394309],[114.1657801,22.339359],[114.1658022,22.3393335],[114.1659802,22.3390959]]},"id":"way/151355593"},{"type":"Feature","properties":{"@id":"way/151355594","bicycle":"no","bicycle:conditional":"yes @ (sidewalk AND dismount); no @ (carriageway)","carriageway":"transition","foot":"no","foot:conditional":"yes @ (sidewalk); no @ (carriageway)","highway":"tertiary","lanes":1,"name":"南昌街 Nam Cheong Street","name:en":"Nam Cheong Street","name:zh":"南昌街","oneway":"yes","sidewalk":"no","surface":"asphalt"},"geometry":{"type":"LineString","coordinates":[[114.1650374,22.341146],[114.1650879,22.3410321]]},"id":"way/151355594"},{"type":"Feature","properties":{"@id":"way/151355595","highway":"secondary","lanes":3,"name":"南昌街 Nam Cheong Street","name:en":"Nam Cheong Street","name:zh":"南昌街","oneway":"yes","surface":"concrete"},"geometry":{"type":"LineString","coordinates":[[114.1617101,22.3275934],[114.1617745,22.3276787]]},"id":"way/151355595"},{"type":"Feature","properties":{"@id":"way/151355596","carriageway":"dual","highway":"secondary","lanes":2,"name":"南昌街 Nam Cheong Street","name:en":"Nam Cheong Street","name:zh":"南昌街","oneway":"yes","surface":"asphalt","turn":"through"},"geometry":{"type":"LineString","coordinates":[[114.1653513,22.3399673],[114.165401,22.3398735],[114.1654136,22.3398529],[114.1654786,22.3397746]]},"id":"way/151355596"},{"type":"Feature","properties":{"@id":"way/151355597","bicycle":"no","bicycle:conditional":"yes @ (sidewalk AND dismount); no @ (carriageway)","carriageway":"transition","foot":"no","foot:conditional":"yes @ (sidewalk); no @ (carriageway)","highway":"tertiary","lanes":1,"maxlength":10,"maxlength:conditional":"none @ (destination)","motor_vehicle:conditional":"no @ (learner)","name":"南昌街 Nam Cheong Street","name:en":"Nam Cheong Street","name:zh":"南昌街","oneway":"yes","share_taxi":"no","sidewalk":"no","surface":"asphalt"},"geometry":{"type":"LineString","coordinates":[[114.1650324,22.3406654],[114.165051,22.340841]]},"id":"way/151355597"},{"type":"Feature","properties":{"@id":"way/151355598","carriageway":"dual","highway":"secondary","lanes":3,"name":"南昌街 Nam Cheong Street","name:en":"Nam Cheong Street","name:zh":"南昌街","oneway":"yes","surface":"asphalt"},"geometry":{"type":"LineString","coordinates":[[114.1654786,22.3397746],[114.1656648,22.3394933],[114.1657177,22.3394309]]},"id":"way/151355598"},{"type":"Feature","properties":{"@id":"way/151355599","carriageway":"dual","highway":"secondary","lanes":2,"name":"南昌街 Nam Cheong Street","name:en":"Nam Cheong Street","name:zh":"南昌街","oneway":"yes","surface":"asphalt","turn:lanes":"left;through|through"},"geometry":{"type":"LineString","coordinates":[[114.1659802,22.3390959],[114.1658164,22.3392174]]},"id":"way/151355599"},{"type":"Feature","properties":{"@id":"way/151355600","highway":"tertiary","lanes":1,"name":"桂林街 Kweilin Street","name:en":"Kweilin Street","name:zh":"桂林街","oneway":"yes","surface":"concrete"},"geometry":{"type":"LineString","coordinates":[[114.1636108,22.3331191],[114.1636681,22.3330914],[114.1637219,22.3330977],[114.1637681,22.3331324],[114.1638787,22.3332514],[114.16393,22.3333098]]},"id":"way/151355600"},{"type":"Feature","properties":{"@id":"way/151355611","highway":"secondary_link","lanes":1,"name":"南昌街 Nam Cheong Street","name:en":"Nam Cheong Street","name:zh":"南昌街","oneway":"yes","surface":"asphalt"},"geometry":{"type":"LineString","coordinates":[[114.1647406,22.3416625],[114.1646823,22.3416949],[114.1646124,22.3417143],[114.1645191,22.341724],[114.1644375,22.3417261],[114.1643009,22.341715],[114.1641832,22.3416956],[114.1639305,22.3416203]]},"id":"way/151355611"},{"type":"Feature","properties":{"@id":"way/151355642","alt_name":"大窩坪交匯處 Tai Wo Ping Interchange","alt_name:en":"Tai Wo Ping Interchange","alt_name:zh":"大窩坪交匯處","highway":"trunk_link","interchange":"yes","junction":"interchange","junction:name":"大窩坪交匯處 Tai Wo Ping Interchange","junction:name:en":"Tai Wo Ping Interchange","junction:name:zh":"大窩坪交匯處","lanes":1,"name":"南昌街 Nam Cheong Street","name:en":"Nam Cheong Street","name:zh":"南昌街","oneway":"yes","surface":"concrete"},"geometry":{"type":"LineString","coordinates":[[114.1632083,22.3413891],[114.1632084,22.3414062],[114.1632086,22.3414226],[114.1632064,22.3414658],[114.1632086,22.3415426],[114.1632098,22.3416442],[114.163218,22.3417244],[114.163232,22.3417676],[114.1632567,22.3418058],[114.1633046,22.3418528],[114.1633623,22.3418907],[114.163422,22.3419222],[114.163493,22.3419386],[114.1635743,22.3419489],[114.1636877,22.341947],[114.1638044,22.3419532],[114.1641042,22.3419809]]},"id":"way/151355642"},{"type":"Feature","properties":{"@id":"way/151396671","highway":"trunk_link","lanes":2,"name":"蕪湖街 Wuhu Street","name:en":"Wuhu Street","name:zh":"蕪湖街","oneway":"yes","surface":"asphalt"},"geometry":{"type":"LineString","coordinates":[[114.1840071,22.3085059],[114.1838305,22.3086566],[114.1837138,22.3087149],[114.183636,22.308741],[114.1834746,22.308762]]},"id":"way/151396671"},{"type":"Feature","properties":{"@id":"way/151396672","change:forward":"no","change:lanes:backward":"yes|not_right","highway":"secondary","lanes":3,"lanes:backward":2,"lanes:forward":1,"name":"蕪湖街 Wuhu Street","name:en":"Wuhu Street","name:zh":"蕪湖街","surface":"asphalt"},"geometry":{"type":"LineString","coordinates":[[114.1840071,22.3085059],[114.1841002,22.3084466],[114.1841777,22.3083992]]},"id":"way/151396672"},{"type":"Feature","properties":{"@id":"way/151396673","destination":"Hung Hom","highway":"trunk_link","lanes":1,"name":"蕪湖街 Wuhu Street","name:en":"Wuhu Street","name:zh":"蕪湖街","oneway":"yes","surface":"asphalt"},"geometry":{"type":"LineString","coordinates":[[114.1838539,22.3088539],[114.183848,22.3088185],[114.1838466,22.3087695],[114.1838808,22.308674],[114.1840071,22.3085059]]},"id":"way/151396673"},{"type":"Feature","properties":{"@id":"way/152073812","highway":"secondary","lanes":3,"name":"廣東道 Canton Road","name:en":"Canton Road","name:zh":"廣東道","oneway":"yes","surface":"concrete"},"geometry":{"type":"LineString","coordinates":[[114.168839,22.2980021],[114.1689347,22.2974722],[114.1689871,22.2972139],[114.1690126,22.2971045],[114.1691267,22.2966142],[114.1691282,22.2966074],[114.1692388,22.2961483],[114.1692647,22.2960244],[114.1693001,22.2958695],[114.1693541,22.2956243],[114.169372,22.2955419],[114.1694156,22.2953151],[114.1694787,22.2950057],[114.1695619,22.2946287],[114.1695735,22.2945892],[114.1695831,22.2945592],[114.169604,22.2944955]]},"id":"way/152073812"},{"type":"Feature","properties":{"@id":"way/152073849","highway":"unclassified","lanes":1,"name":"北京道 Peking Road","name:en":"Peking Road","name:zh":"北京道","oneway":"yes","surface":"concrete"},"geometry":{"type":"LineString","coordinates":[[114.1703122,22.2962818],[114.1706408,22.2963162],[114.1710328,22.2963514],[114.1710887,22.2963749],[114.1711232,22.2964135]]},"id":"way/152073849"},{"type":"Feature","properties":{"@id":"way/152359929","highway":"residential","lanes":1,"name":"江蘇街 Kiang Su Street","name:en":"Kiang Su Street","name:zh":"江蘇街","oneway":"yes","source":"Yahoo","surface":"asphalt"},"geometry":{"type":"LineString","coordinates":[[114.1869819,22.3163167],[114.1870657,22.3163368],[114.1874627,22.3163337],[114.1875198,22.3163333]]},"id":"way/152359929"},{"type":"Feature","properties":{"@id":"way/152359931","highway":"unclassified","name":"貴州街 Kwei Chow Street","name:en":"Kwei Chow Street","name:zh":"貴州街","oneway":"yes","surface":"asphalt"},"geometry":{"type":"LineString","coordinates":[[114.1920742,22.3171228],[114.1918295,22.3173107],[114.1916013,22.3175007],[114.1912105,22.3178095],[114.1911588,22.3178508],[114.1910872,22.3179068]]},"id":"way/152359931"},{"type":"Feature","properties":{"@id":"way/161049115","bus":"yes","highway":"secondary","lanes":2,"name":"南昌街 Nam Cheong Street","name:en":"Nam Cheong Street","name:zh":"南昌街","oneway":"yes","surface":"concrete","vehicle":"no"},"geometry":{"type":"LineString","coordinates":[[114.1651926,22.3311984],[114.1651632,22.3311577],[114.1651257,22.3311151]]},"id":"way/161049115"},{"type":"Feature","properties":{"@id":"way/161049116","busway":"opposite_lane @ (07:00-00:00)","fixme":"contra-flow bus lane","highway":"secondary","lanes":2,"name":"南昌街 Nam Cheong Street","name:en":"Nam Cheong Street","name:zh":"南昌街","oneway":"yes","oneway:bus":"no","oneway:conditional":"yes @ (07:00-00:00)","surface":"asphalt"},"geometry":{"type":"LineString","coordinates":[[114.166335,22.3326222],[114.1664275,22.3327246],[114.1664845,22.332784],[114.1665404,22.3328432]]},"id":"way/161049116"},{"type":"Feature","properties":{"@id":"way/161049118","busway":"opposite_lane @ (07:00-00:00)","highway":"secondary","lanes":4,"name":"南昌街 Nam Cheong Street","name:en":"Nam Cheong Street","name:zh":"南昌街","oneway":"yes","oneway:bus":"no","oneway:conditional":"no @ (07:00-00:00)","surface":"asphalt"},"geometry":{"type":"LineString","coordinates":[[114.1653302,22.3314878],[114.1656348,22.3318366],[114.165719,22.3319323]]},"id":"way/161049118"},{"type":"Feature","properties":{"@id":"way/161049119","highway":"secondary","lanes":4,"lanes:backward":2,"lanes:forward":2,"name":"南昌街 Nam Cheong Street","name:en":"Nam Cheong Street","name:zh":"南昌街","surface":"asphalt"},"geometry":{"type":"LineString","coordinates":[[114.1673733,22.3337805],[114.167285,22.3336809],[114.1672267,22.3336151],[114.1669206,22.3332697],[114.1666724,22.3329898],[114.1666353,22.3329479],[114.1665867,22.3328933]]},"id":"way/161049119"},{"type":"Feature","properties":{"@id":"way/244581287","highway":"primary","lanes":3,"name":"廣東道 Canton Road","name:en":"Canton Road","name:zh":"廣東道","oneway":"yes","surface":"concrete"},"geometry":{"type":"LineString","coordinates":[[114.1675431,22.3048486],[114.1677206,22.3045351],[114.1677345,22.3044898],[114.1678375,22.304154],[114.1679723,22.3037146]]},"id":"way/244581287"},{"type":"Feature","properties":{"@id":"way/245457934","highway":"secondary","lanes":2,"name":"廣東道 Canton Road","name:en":"Canton Road","name:zh":"廣東道","oneway":"yes","surface":"asphalt"},"geometry":{"type":"LineString","coordinates":[[114.1685585,22.3002122],[114.168544,22.3000598],[114.1685349,22.3000009]]},"id":"way/245457934"},{"type":"Feature","properties":{"@id":"way/254000148","highway":"primary","lanes":3,"name":"廣東道 Canton Road","name:en":"Canton Road","name:zh":"廣東道","oneway":"yes","surface":"concrete"},"geometry":{"type":"LineString","coordinates":[[114.1671222,22.3055056],[114.1672802,22.3052471],[114.167427,22.305033],[114.167474,22.3049564]]},"id":"way/254000148"},{"type":"Feature","properties":{"@id":"way/254563914","highway":"secondary","lanes":2,"name":"南昌街 Nam Cheong Street","name:en":"Nam Cheong Street","name:zh":"南昌街","oneway":"yes","surface":"concrete"},"geometry":{"type":"LineString","coordinates":[[114.1605112,22.3262644],[114.1606144,22.326384],[114.1607836,22.3265815],[114.1608176,22.3266201],[114.1608954,22.3267034]]},"id":"way/254563914"},{"type":"Feature","properties":{"@id":"way/255230203","highway":"secondary","lanes":2,"name":"廣東道 Canton Road","name:en":"Canton Road","name:zh":"廣東道","oneway":"yes","surface":"concrete"},"geometry":{"type":"LineString","coordinates":[[114.1688,22.3089798],[114.1689234,22.3094339],[114.1689211,22.3095266],[114.169029,22.3099383]]},"id":"way/255230203"},{"type":"Feature","properties":{"@id":"way/255230314","highway":"secondary","lanes":3,"name":"甘肅街 Kansu Street","name:en":"Kansu Street","name:zh":"甘肅街","oneway":"yes","surface":"concrete","wikidata":"Q20017204"},"geometry":{"type":"LineString","coordinates":[[114.1688,22.3089798],[114.1685251,22.3090435]]},"id":"way/255230314"},{"type":"Feature","properties":{"@id":"way/255230668","demolished:highway":"primary_link","name":"甘肅街 Kansu Street","name:en":"Kansu Street","name:zh":"甘肅街","oneway":"yes","proposed:highway":"primary_link","sidewalk":"no","turn:lanes":"through|through;right"},"geometry":{"type":"LineString","coordinates":[[114.1678921,22.3091933],[114.1678296,22.3092584],[114.1678081,22.3092781],[114.1677513,22.3093234],[114.167637,22.3093672]]},"id":"way/255230668"},{"type":"Feature","properties":{"@id":"way/263839971","highway":"secondary","lanes":2,"name":"上海街 Shanghai Street","name:en":"Shanghai Street","name:zh":"上海街","oneway":"yes","surface":"asphalt"},"geometry":{"type":"LineString","coordinates":[[114.1681318,22.3190943],[114.1681617,22.3189444],[114.1681671,22.3189166],[114.1681944,22.3187645],[114.1683323,22.3180954],[114.1684,22.3177594],[114.1684026,22.3177464],[114.1684718,22.317396],[114.1684911,22.3173134],[114.1685151,22.3172035],[114.1686778,22.3164227],[114.1686954,22.3163435],[114.1687158,22.3162476],[114.1688016,22.3158614],[114.1689401,22.3152172],[114.1689561,22.315141],[114.1689771,22.3150435],[114.1691199,22.3143339],[114.1692614,22.3136721],[114.169407,22.3129475],[114.1694133,22.3129161],[114.1694304,22.3128333],[114.1694498,22.3127358]]},"id":"way/263839971"},{"type":"Feature","properties":{"@id":"way/311890783","highway":"tertiary","lanes":2,"name":"山東街 Shantung Street","name:en":"Shantung Street","name:zh":"山東街","oneway":"yes","surface":"concrete"},"geometry":{"type":"LineString","coordinates":[[114.1690734,22.3174155],[114.1690016,22.3174026],[114.1686821,22.3173461],[114.1685953,22.3173312],[114.1684911,22.3173134],[114.1684122,22.3172975],[114.1681495,22.3172491],[114.1680482,22.3172304],[114.1679524,22.3172124],[114.1676655,22.3171608],[114.1675731,22.3171443]]},"id":"way/311890783"},{"type":"Feature","properties":{"@id":"way/316843308","abutters":"retail","designation":"小販認可區 Hawker permitted place","designation:en":"Hawker permitted place","designation:wikidata":"Q10263158","designation:zh":"小販認可區","highway":"pedestrian","kerb:both":"no","lanes":1,"lanes:marked":1,"lanes:unmarked":1,"marketplace":"separate","motor_vehicle":"yes","name":"深圳街 Shamchun Street","name:en":"Shamchun Street","name:zh":"深圳街","oneway":"no","passing_places":"no","sidewalk":"no","surface":"concrete:plates"},"geometry":{"type":"LineString","coordinates":[[114.1661949,22.3195243],[114.1664157,22.3193804]]},"id":"way/316843308"},{"type":"Feature","properties":{"@id":"way/355377701","highway":"primary_link","lanes":1,"name":"廣東道 Canton Road","name:en":"Canton Road","name:zh":"廣東道","oneway":"yes","surface":"asphalt"},"geometry":{"type":"LineString","coordinates":[[114.1683545,22.3005644],[114.1683905,22.3004225],[114.168371,22.3003782],[114.1683019,22.30037],[114.1682,22.3004682]]},"id":"way/355377701"},{"type":"Feature","properties":{"@id":"way/426652682","lanes":1,"name":"廈門街 Amoy Street","name:en":"Amoy Street","name:zh":"廈門街","oneway":"yes","surface":"asphalt","turning_circle":"yes","way:highway":"residential"},"geometry":{"type":"LineString","coordinates":[[114.1719236,22.2755786],[114.1719164,22.2755224],[114.1719153,22.2755032],[114.1719161,22.2754848],[114.1719192,22.2754667],[114.1719246,22.275449],[114.1719246,22.2754408],[114.1719229,22.2754329],[114.1719192,22.2754256],[114.1719139,22.2754192],[114.171907,22.2754142],[114.1718992,22.2754107],[114.1718906,22.275409],[114.1718818,22.2754092]]},"id":"way/426652682"},{"type":"Feature","properties":{"@id":"way/435421059","highway":"residential","name":"江蘇街 Kiang Su Street","name:en":"Kiang Su Street","name:zh":"江蘇街","oneway":"yes","source":"Yahoo","surface":"asphalt"},"geometry":{"type":"LineString","coordinates":[[114.1869819,22.3163167],[114.1864208,22.3163032]]},"id":"way/435421059"},{"type":"Feature","properties":{"@id":"way/435421062","highway":"tertiary","lanes":3,"name":"山東街 Shantung Street","name:en":"Shantung Street","name:zh":"山東街","oneway":"yes","surface":"concrete"},"geometry":{"type":"LineString","coordinates":[[114.1726054,22.3180242],[114.1733569,22.3181748]]},"id":"way/435421062"},{"type":"Feature","properties":{"@id":"way/437031178","highway":"secondary","lanes":2,"name":"南昌街 Nam Cheong Street","name:en":"Nam Cheong Street","name:zh":"南昌街","oneway":"yes","surface":"concrete"},"geometry":{"type":"LineString","coordinates":[[114.1651257,22.3311151],[114.1650385,22.331009],[114.1650119,22.3309771]]},"id":"way/437031178"},{"type":"Feature","properties":{"@id":"way/437031179","highway":"secondary_link","junction":"jughandle","lanes":2,"name":"南昌街 Nam Cheong Street","name:en":"Nam Cheong Street","name:zh":"南昌街","oneway":"yes","sidewalk":"separate","sidewalk:separate":"left","surface":"asphalt","traffic_signals":"signal","traffic_signals:ref":"K473","turn":"left;right"},"geometry":{"type":"LineString","coordinates":[[114.1653229,22.3400471],[114.1654785,22.3399521],[114.1655101,22.3399436],[114.1656807,22.3398913]]},"id":"way/437031179"},{"type":"Feature","properties":{"@id":"way/441107658","carriageway":"single","highway":"secondary","lanes":4,"name":"上海街 Shanghai Street","name:en":"Shanghai Street","name:zh":"上海街","oneway":"yes","sidewalk":"both","surface":"concrete"},"geometry":{"type":"LineString","coordinates":[[114.1677922,22.3206261],[114.1678601,22.3203865],[114.1679272,22.3200803],[114.1679367,22.3200391],[114.1681014,22.3192403],[114.1681066,22.3192151],[114.1681318,22.3190943]]},"id":"way/441107658"},{"type":"Feature","properties":{"@id":"way/441937732","carriageway":"single","highway":"secondary","lanes":3,"name":"上海街 Shanghai Street","name:en":"Shanghai Street","name:zh":"上海街","oneway":"yes","sidewalk":"both","surface":"concrete"},"geometry":{"type":"LineString","coordinates":[[114.1698294,22.3107556],[114.1698457,22.310668],[114.169953,22.3100905]]},"id":"way/441937732"},{"type":"Feature","properties":{"@id":"way/443996446","bicycle":"no","change":"no","embankment":"yes","foot":"no","highway":"tertiary","incline":"down","lanes":2,"name":"南昌街 Nam Cheong Street","name:en":"Nam Cheong Street","name:zh":"南昌街","sidewalk":"no","surface":"asphalt"},"geometry":{"type":"LineString","coordinates":[[114.1649834,22.3417201],[114.1650258,22.341287],[114.1650374,22.341146]]},"id":"way/443996446"},{"type":"Feature","properties":{"@id":"way/446690717","footway":"sidewalk","highway":"footway","name":"南昌街 Nam Cheong Street","name:en":"Nam Cheong Street","name:zh":"南昌街"},"geometry":{"type":"LineString","coordinates":[[114.1653014,22.3404115],[114.1653212,22.3403405],[114.1653286,22.3401848],[114.1653661,22.3401179],[114.1654382,22.3400655],[114.165535,22.3400269],[114.1655653,22.3400242]]},"id":"way/446690717"},{"type":"Feature","properties":{"@id":"way/449337016","highway":"unclassified","name":"貴州街 Kwei Chow Street","name:en":"Kwei Chow Street","name:zh":"貴州街","oneway":"yes"},"geometry":{"type":"LineString","coordinates":[[114.1924173,22.3168552],[114.1923578,22.3169017],[114.1920742,22.3171228]]},"id":"way/449337016"},{"type":"Feature","properties":{"@id":"way/480374141","highway":"tertiary","lanes":2,"name":"浙江街 Chi Kiang Street","name:en":"Chi Kiang Street","name:zh":"浙江街","start_date":"2017-09-07"},"geometry":{"type":"LineString","coordinates":[[114.1904626,22.3123582],[114.1904843,22.3124155],[114.1905021,22.3124627],[114.19052,22.31251],[114.19061,22.31269],[114.1907504,22.3128738],[114.1908923,22.3130232],[114.19101,22.3131258],[114.19121,22.3133],[114.191288,22.313373],[114.191346,22.313442],[114.191394,22.313528],[114.191414,22.313578],[114.191429,22.31363],[114.191438,22.313684],[114.19144,22.31374],[114.191435,22.313806],[114.19142,22.31387],[114.19139,22.313953],[114.191349,22.314032],[114.191292,22.3141],[114.191242,22.314142],[114.19119,22.314175],[114.191099,22.314219],[114.19102,22.31425],[114.1903711,22.3144954],[114.1903301,22.3145109]]},"id":"way/480374141"},{"type":"Feature","properties":{"@id":"way/484587213","highway":"secondary","lanes":3,"name":"南昌街 Nam Cheong Street","name:en":"Nam Cheong Street","name:zh":"南昌街","oneway":"yes","surface":"concrete"},"geometry":{"type":"LineString","coordinates":[[114.161937,22.3275497],[114.1618688,22.327478]]},"id":"way/484587213"},{"type":"Feature","properties":{"@id":"way/484816489","highway":"secondary","lanes":2,"name":"南昌街 Nam Cheong Street","name:en":"Nam Cheong Street","name:zh":"南昌街","oneway":"yes","surface":"asphalt","turn:lanes":"left;through|through"},"geometry":{"type":"LineString","coordinates":[[114.1651576,22.3406762],[114.1651764,22.3405315],[114.1652012,22.3404447],[114.1652756,22.3401764],[114.1653229,22.3400471]]},"id":"way/484816489"},{"type":"Feature","properties":{"@id":"way/484816490","carriageway":"dual","highway":"secondary","lanes":2,"name":"南昌街 Nam Cheong Street","name:en":"Nam Cheong Street","name:zh":"南昌街","oneway":"yes","sidewalk":"separate","sidewalk:separate":"left","surface":"asphalt"},"geometry":{"type":"LineString","coordinates":[[114.1653714,22.3396613],[114.1653033,22.3397512],[114.1652262,22.3399255],[114.1650677,22.3404206],[114.1650451,22.3404971]]},"id":"way/484816490"},{"type":"Feature","properties":{"@id":"way/485774644","highway":"secondary","lanes":4,"lanes:backward":2,"lanes:forward":2,"name":"南昌街 Nam Cheong Street","name:en":"Nam Cheong Street","name:zh":"南昌街","surface":"concrete"},"geometry":{"type":"LineString","coordinates":[[114.1687792,22.3354231],[114.1683303,22.3349001],[114.1682084,22.3347458]]},"id":"way/485774644"},{"type":"Feature","properties":{"@id":"way/492704915","highway":"secondary","lanes":3,"name":"上海街 Shanghai Street","name:en":"Shanghai Street","name:zh":"上海街","oneway":"yes","surface":"concrete"},"geometry":{"type":"LineString","coordinates":[[114.1700657,22.3095241],[114.1700744,22.3094806],[114.1701738,22.3089813],[114.1701439,22.3088662],[114.1701175,22.3087583],[114.1700929,22.3086767]]},"id":"way/492704915"},{"type":"Feature","properties":{"@id":"way/493765386","highway":"secondary","lanes":4,"lanes:backward":2,"lanes:forward":2,"name":"南昌街 Nam Cheong Street","name:en":"Nam Cheong Street","name:zh":"南昌街","surface":"concrete"},"geometry":{"type":"LineString","coordinates":[[114.1691646,22.3367816],[114.1691174,22.3365409],[114.1690793,22.3363496]]},"id":"way/493765386"},{"type":"Feature","properties":{"@id":"way/493765387","highway":"secondary","lanes":3,"lanes:backward":2,"lanes:forward":1,"name":"南昌街 Nam Cheong Street","name:en":"Nam Cheong Street","name:zh":"南昌街","surface":"concrete"},"geometry":{"type":"LineString","coordinates":[[114.1690793,22.3363496],[114.1690521,22.3362198],[114.1689792,22.3358775],[114.168949,22.3357495],[114.1689079,22.335625],[114.1688714,22.335558],[114.1687792,22.3354231]]},"id":"way/493765387"},{"type":"Feature","properties":{"@id":"way/493976816","busway":"opposite_lane @ (07:00-00:00)","highway":"secondary","lanes":3,"name":"南昌街 Nam Cheong Street","name:en":"Nam Cheong Street","name:zh":"南昌街","oneway":"yes","oneway:bus":"no","oneway:conditional":"no @ (07:00-00:00)","surface":"asphalt"},"geometry":{"type":"LineString","coordinates":[[114.165719,22.3319323],[114.1657973,22.3320272],[114.1660989,22.332361],[114.1662297,22.3325057],[114.166335,22.3326222]]},"id":"way/493976816"},{"type":"Feature","properties":{"@id":"way/494485692","highway":"secondary","lanes":2,"name":"南昌街 Nam Cheong Street","name:en":"Nam Cheong Street","name:zh":"南昌街","oneway":"yes","surface":"concrete"},"geometry":{"type":"LineString","coordinates":[[114.1608114,22.3262233],[114.1608058,22.3261443],[114.1608067,22.3260418]]},"id":"way/494485692"},{"type":"Feature","properties":{"@id":"way/494493977","highway":"residential","lit":"yes","name":"九江街 Kiu Kiang Street","name:en":"Kiu Kiang Street","name:zh":"九江街","oneway":"yes","sidewalk":"both","surface":"concrete"},"geometry":{"type":"LineString","coordinates":[[114.161292,22.333861],[114.160885,22.3334174],[114.1605465,22.3330379],[114.1605207,22.3330285],[114.1605033,22.3330248],[114.1604798,22.333022]]},"id":"way/494493977"},{"type":"Feature","properties":{"@id":"way/494512917","highway":"tertiary","lanes":3,"name":"山東街 Shantung Street","name:en":"Shantung Street","name:zh":"山東街","oneway":"yes","surface":"concrete"},"geometry":{"type":"LineString","coordinates":[[114.1714652,22.3178106],[114.1720243,22.3179153],[114.1726054,22.3180242]]},"id":"way/494512917"},{"type":"Feature","properties":{"@id":"way/494691402","highway":"secondary","lanes":2,"name":"南昌街 Nam Cheong Street","name:en":"Nam Cheong Street","name:zh":"南昌街","oneway":"yes","surface":"concrete"},"geometry":{"type":"LineString","coordinates":[[114.1627996,22.3287982],[114.1628411,22.3288542]]},"id":"way/494691402"},{"type":"Feature","properties":{"@id":"way/494691404","highway":"secondary","lanes":3,"name":"南昌街 Nam Cheong Street","name:en":"Nam Cheong Street","name:zh":"南昌街","oneway":"yes","surface":"concrete"},"geometry":{"type":"LineString","coordinates":[[114.1628411,22.3288542],[114.163104,22.329151],[114.1631664,22.3292034],[114.1632509,22.3293055],[114.1632787,22.3293485],[114.1634998,22.3295944],[114.1635217,22.3296196],[114.1635753,22.3296807]]},"id":"way/494691404"},{"type":"Feature","properties":{"@id":"way/494691405","highway":"secondary","lanes":3,"name":"南昌街 Nam Cheong Street","name:en":"Nam Cheong Street","name:zh":"南昌街","oneway":"yes","surface":"concrete"},"geometry":{"type":"LineString","coordinates":[[114.1638178,22.3296403],[114.1637314,22.3295541]]},"id":"way/494691405"},{"type":"Feature","properties":{"@id":"way/494731936","highway":"secondary","lanes":2,"name":"南昌街 Nam Cheong Street","name:en":"Nam Cheong Street","name:zh":"南昌街","oneway":"yes","surface":"concrete"},"geometry":{"type":"LineString","coordinates":[[114.1640361,22.3302049],[114.1642381,22.3304327],[114.1644008,22.3306125],[114.1644363,22.3306517],[114.1647405,22.3309872],[114.1648032,22.3310623],[114.164864,22.3310981]]},"id":"way/494731936"},{"type":"Feature","properties":{"@id":"way/494733968","highway":"secondary","lanes":2,"name":"南昌街 Nam Cheong Street","name:en":"Nam Cheong Street","name:zh":"南昌街","oneway":"yes","surface":"concrete"},"geometry":{"type":"LineString","coordinates":[[114.1633714,22.3291516],[114.1633199,22.3290932]]},"id":"way/494733968"},{"type":"Feature","properties":{"@id":"way/494733969","highway":"secondary","lanes":3,"name":"南昌街 Nam Cheong Street","name:en":"Nam Cheong Street","name:zh":"南昌街","oneway":"yes","surface":"concrete"},"geometry":{"type":"LineString","coordinates":[[114.1633199,22.3290932],[114.1630876,22.3288368],[114.1629997,22.3287372]]},"id":"way/494733969"},{"type":"Feature","properties":{"@id":"way/524185215","bus":"yes","highway":"secondary","lanes":2,"name":"南昌街 Nam Cheong Street","name:en":"Nam Cheong Street","name:zh":"南昌街","oneway":"yes","surface":"concrete","vehicle":"no"},"geometry":{"type":"LineString","coordinates":[[114.1652114,22.3312955],[114.1651926,22.3311984]]},"id":"way/524185215"},{"type":"Feature","properties":{"@id":"way/524185217","highway":"secondary","lanes":3,"name":"南昌街 Nam Cheong Street","name:en":"Nam Cheong Street","name:zh":"南昌街","oneway":"yes","surface":"concrete"},"geometry":{"type":"LineString","coordinates":[[114.1651544,22.3313629],[114.1652175,22.3314048],[114.1652581,22.3314341],[114.1653027,22.3314553]]},"id":"way/524185217"},{"type":"Feature","properties":{"@id":"way/524200172","busway":"opposite_lane","highway":"secondary","lanes":2,"name":"南昌街 Nam Cheong Street","name:en":"Nam Cheong Street","name:zh":"南昌街","oneway":"yes","surface":"asphalt"},"geometry":{"type":"LineString","coordinates":[[114.1665404,22.3328432],[114.1665867,22.3328933]]},"id":"way/524200172"},{"type":"Feature","properties":{"@id":"way/524505756","highway":"secondary","lanes":4,"lanes:backward":3,"lanes:forward":1,"name":"蕪湖街 Wuhu Street","name:en":"Wuhu Street","name:zh":"蕪湖街","surface":"asphalt"},"geometry":{"type":"LineString","coordinates":[[114.1865902,22.3068894],[114.1864641,22.3069684]]},"id":"way/524505756"},{"type":"Feature","properties":{"@id":"way/524510342","highway":"primary","lanes":3,"name":"廣東道 Canton Road","name:en":"Canton Road","name:zh":"廣東道","oneway":"yes","surface":"concrete"},"geometry":{"type":"LineString","coordinates":[[114.167474,22.3049564],[114.1675431,22.3048486]]},"id":"way/524510342"},{"type":"Feature","properties":{"@id":"way/547281953","highway":"primary","lanes":3,"name":"廣東道 Canton Road","name:en":"Canton Road","name:zh":"廣東道","oneway":"yes","surface":"asphalt"},"geometry":{"type":"LineString","coordinates":[[114.1681429,22.3029512],[114.1681133,22.3025486],[114.1681097,22.3025215],[114.1680747,22.3022551],[114.168055,22.3018876],[114.1680737,22.301718],[114.1680767,22.3017018],[114.1681186,22.3014781],[114.1682151,22.3010758],[114.1682859,22.3007808],[114.1683545,22.3005644],[114.1684706,22.3003514],[114.1685585,22.3002122]]},"id":"way/547281953"},{"type":"Feature","properties":{"@id":"way/564217668","highway":"secondary","lanes":3,"name":"廣東道 Canton Road","name:en":"Canton Road","name:zh":"廣東道","oneway":"yes","surface":"concrete"},"geometry":{"type":"LineString","coordinates":[[114.168499,22.2996527],[114.1685675,22.299312],[114.168839,22.2980021]]},"id":"way/564217668"},{"type":"Feature","properties":{"@id":"way/569303833","footway":"sidewalk","highway":"footway","name":"廣東道 Canton Road","name:en":"Canton Road","name:zh":"廣東道"},"geometry":{"type":"LineString","coordinates":[[114.1673762,22.3045529],[114.1674018,22.304531],[114.1675151,22.3044327],[114.1676213,22.3041446],[114.1677416,22.3037664],[114.1678566,22.3033342],[114.1679115,22.3031164],[114.1679026,22.3030951]]},"id":"way/569303833"},{"type":"Feature","properties":{"@id":"way/577879367","carriageway":"dual","highway":"secondary","lanes":3,"name":"南昌街 Nam Cheong Street","name:en":"Nam Cheong Street","name:zh":"南昌街","oneway":"yes","surface":"asphalt","turn:lanes":"left;through|through;right|right"},"geometry":{"type":"LineString","coordinates":[[114.1656499,22.339337],[114.1654775,22.3395067],[114.1654271,22.339575],[114.1653714,22.3396613]]},"id":"way/577879367"},{"type":"Feature","properties":{"@id":"way/618182464","highway":"trunk_link","lanes":1,"name":"南昌街 Nam Cheong Street","name:en":"Nam Cheong Street","name:zh":"南昌街","oneway":"yes","surface":"asphalt"},"geometry":{"type":"LineString","coordinates":[[114.1652368,22.341814],[114.1651926,22.3417856],[114.1651622,22.3417631],[114.1651436,22.3417464],[114.1651181,22.3417132]]},"id":"way/618182464"},{"type":"Feature","properties":{"@id":"way/618182466","alt_name":"大窩坪交匯處 Tai Wo Ping Interchange","alt_name:en":"Tai Wo Ping Interchange","alt_name:zh":"大窩坪交匯處","highway":"trunk_link","interchange":"yes","junction":"interchange","junction:name":"大窩坪交匯處 Tai Wo Ping Interchange","junction:name:en":"Tai Wo Ping Interchange","junction:name:zh":"大窩坪交匯處","lanes":1,"name":"南昌街 Nam Cheong Street","name:en":"Nam Cheong Street","name:zh":"南昌街","oneway":"yes","surface":"asphalt"},"geometry":{"type":"LineString","coordinates":[[114.1653105,22.3418452],[114.1652368,22.341814]]},"id":"way/618182466"},{"type":"Feature","properties":{"@id":"way/636302493","highway":"primary","lanes":4,"name":"廣東道 Canton Road","name:en":"Canton Road","name:zh":"廣東道","oneway":"yes","surface":"asphalt"},"geometry":{"type":"LineString","coordinates":[[114.1680187,22.3029419],[114.1680149,22.3030252]]},"id":"way/636302493"},{"type":"Feature","properties":{"@id":"way/636444590","highway":"secondary","lanes":3,"name":"南昌街 Nam Cheong Street","name:en":"Nam Cheong Street","name:zh":"南昌街","oneway":"yes","surface":"concrete"},"geometry":{"type":"LineString","coordinates":[[114.1635753,22.3296807],[114.1636523,22.3297699]]},"id":"way/636444590"},{"type":"Feature","properties":{"@id":"way/639815016","highway":"tertiary","lanes":2,"name":"浙江街 Chi Kiang Street","name:en":"Chi Kiang Street","name:zh":"浙江街","oneway":"yes"},"geometry":{"type":"LineString","coordinates":[[114.1904113,22.3122219],[114.1904308,22.3123018],[114.1904626,22.3123582]]},"id":"way/639815016"},{"type":"Feature","properties":{"@id":"way/639815017","highway":"tertiary","lanes":2,"name":"浙江街 Chi Kiang Street","name:en":"Chi Kiang Street","name:zh":"浙江街","oneway":"yes"},"geometry":{"type":"LineString","coordinates":[[114.1904626,22.3123582],[114.19049,22.3122901],[114.190503,22.3122048]]},"id":"way/639815017"},{"type":"Feature","properties":{"@id":"way/644820316","footway":"sidewalk","highway":"footway","name":"廣東道 Canton Road","name:en":"Canton Road","name:zh":"廣東道"},"geometry":{"type":"LineString","coordinates":[[114.1684421,22.3127149],[114.1684453,22.312723],[114.1684483,22.3127338],[114.1684461,22.3127493],[114.1684408,22.3127706],[114.1684376,22.3127835],[114.1684299,22.3128068]]},"id":"way/644820316"},{"type":"Feature","properties":{"@id":"way/658136843","highway":"residential","lit":"yes","name":"桂林街 Kweilin Street","name:en":"Kweilin Street","name:zh":"桂林街","oneway":"yes","sidewalk":"both","surface":"concrete"},"geometry":{"type":"LineString","coordinates":[[114.162355,22.3315962],[114.1627185,22.3319894],[114.1631195,22.3324479]]},"id":"way/658136843"},{"type":"Feature","properties":{"@id":"way/683711572","highway":"secondary","lanes":3,"name":"浙江街 Chi Kiang Street","name:en":"Chi Kiang Street","name:zh":"浙江街","oneway":"yes","source":"Yahoo","surface":"asphalt"},"geometry":{"type":"LineString","coordinates":[[114.1877005,22.3157206],[114.1877252,22.3157329],[114.1877537,22.3157369],[114.1877989,22.3157338],[114.1878368,22.3157229],[114.1882639,22.315528],[114.1885759,22.3153825],[114.1886582,22.3153442],[114.1887508,22.315297]]},"id":"way/683711572"},{"type":"Feature","properties":{"@id":"way/710624695","highway":"secondary","lanes":3,"name":"甘肅街 Kansu Street","name:en":"Kansu Street","name:zh":"甘肅街","oneway":"yes","surface":"concrete","turn:lanes":"through;left|through;right;right"},"geometry":{"type":"LineString","coordinates":[[114.1685251,22.3090435],[114.1682848,22.3091118],[114.1680372,22.3091652],[114.1680043,22.3091713],[114.1678921,22.3091933]]},"id":"way/710624695"},{"type":"Feature","properties":{"@id":"way/713587138","footway":"sidewalk","highway":"footway","name":"深圳街 Shamchun Street","name:en":"Shamchun Street","name:zh":"深圳街"},"geometry":{"type":"LineString","coordinates":[[114.1663979,22.3193583],[114.1664392,22.3193305],[114.1666737,22.3191786],[114.1667107,22.3189815]]},"id":"way/713587138"},{"type":"Feature","properties":{"@id":"way/743546699","lanes":1,"name":"廈門街 Amoy Street","name:en":"Amoy Street","name:zh":"廈門街","oneway":"yes","surface":"asphalt","turning_circle":"yes","way:highway":"residential"},"geometry":{"type":"LineString","coordinates":[[114.1718818,22.2754092],[114.171873,22.2754114],[114.1718649,22.2754155],[114.1718582,22.2754214],[114.1718532,22.2754285],[114.1718502,22.2754366],[114.1718495,22.2754451],[114.171851,22.2754536],[114.1718546,22.2754614],[114.1719236,22.2755786]]},"id":"way/743546699"},{"type":"Feature","properties":{"@id":"way/747035090","footway":"sidewalk","highway":"footway","name":"上海街 Shanghai Street","name:en":"Shanghai Street","name:zh":"上海街"},"geometry":{"type":"LineString","coordinates":[[114.1674003,22.3230774],[114.1673911,22.3230735],[114.1674349,22.3228563]]},"id":"way/747035090"},{"type":"Feature","properties":{"@id":"way/757833660","footway":"sidewalk","highway":"footway","name":"北京道 Peking Road","name:en":"Peking Road","name:zh":"北京道","wikidata":"Q7161055"},"geometry":{"type":"LineString","coordinates":[[114.1721062,22.2964255],[114.1721344,22.296427],[114.1721585,22.2964285],[114.1721677,22.2964243]]},"id":"way/757833660"},{"type":"Feature","properties":{"@id":"way/757833664","footway":"sidewalk","highway":"footway","name":"北京道 Peking Road","name:en":"Peking Road","name:zh":"北京道","wikidata":"Q7161055"},"geometry":{"type":"LineString","coordinates":[[114.1720965,22.2965246],[114.1721258,22.2965267],[114.1721517,22.2965292]]},"id":"way/757833664"},{"type":"Feature","properties":{"@id":"way/770879175","highway":"unclassified","name":"九江街 Kiu Kiang Street","name:en":"Kiu Kiang Street","name:zh":"九江街","oneway":"yes","surface":"concrete"},"geometry":{"type":"LineString","coordinates":[[114.1604238,22.3328971],[114.1604517,22.3329101],[114.1604688,22.3329144],[114.1604865,22.3329169]]},"id":"way/770879175"},{"type":"Feature","properties":{"@id":"way/770879176","highway":"residential","name":"九江街 Kiu Kiang Street","name:en":"Kiu Kiang Street","name:zh":"九江街","oneway":"yes","surface":"concrete"},"geometry":{"type":"LineString","coordinates":[[114.1605465,22.3330379],[114.1605422,22.333014],[114.1605402,22.3329944],[114.1605408,22.3329718]]},"id":"way/770879176"},{"type":"Feature","properties":{"@id":"way/775650745","highway":"secondary","lanes":2,"lanes:backward":1,"lanes:forward":1,"name":"南昌街 Nam Cheong Street","name:en":"Nam Cheong Street","name:zh":"南昌街","surface":"concrete"},"geometry":{"type":"LineString","coordinates":[[114.1661573,22.3389733],[114.1662499,22.3389234],[114.1663444,22.3388879],[114.1664404,22.338865],[114.1665718,22.3388309],[114.1668345,22.3387727]]},"id":"way/775650745"},{"type":"Feature","properties":{"@id":"way/776240918","barrier":"kerb","kerb":"raised","name":"上海街 Shanghai Street","name:en":"Shanghai Street","name:zh":"上海街"},"geometry":{"type":"LineString","coordinates":[[114.1673748,22.3231115],[114.1673718,22.3231041],[114.1673731,22.3230926]]},"id":"way/776240918"},{"type":"Feature","properties":{"@id":"way/776240920","barrier":"kerb","kerb":"raised","name":"上海街 Shanghai Street","name:en":"Shanghai Street","name:zh":"上海街"},"geometry":{"type":"LineString","coordinates":[[114.1672742,22.3230796],[114.1672594,22.3231531]]},"id":"way/776240920"},{"type":"Feature","properties":{"@id":"way/776240926","footway":"sidewalk","highway":"footway","name":"上海街 Shanghai Street","name:en":"Shanghai Street","name:zh":"上海街"},"geometry":{"type":"LineString","coordinates":[[114.1674683,22.3226587],[114.1674579,22.3227173]]},"id":"way/776240926"},{"type":"Feature","properties":{"@id":"way/781684611","footway":"sidewalk","highway":"footway","name":"南昌街 Nam Cheong Street","name:en":"Nam Cheong Street","name:zh":"南昌街","surface":"concrete"},"geometry":{"type":"LineString","coordinates":[[114.1605063,22.3263554],[114.1605194,22.3263594],[114.1605307,22.3263686],[114.160573,22.3264179],[114.1607794,22.3266486],[114.1607956,22.3266667],[114.1607963,22.3266729],[114.160797,22.3266788]]},"id":"way/781684611"},{"type":"Feature","properties":{"@id":"way/781684627","footway":"sidewalk","highway":"footway","name":"南昌街 Nam Cheong Street","name:en":"Nam Cheong Street","name:zh":"南昌街"},"geometry":{"type":"LineString","coordinates":[[114.1608818,22.3262967],[114.1608791,22.3263017],[114.1608828,22.3263088],[114.1608958,22.326321],[114.1609068,22.3263331],[114.1609201,22.3263473],[114.1610258,22.32646],[114.1610423,22.3264775],[114.1610492,22.3264796],[114.1610545,22.3264813]]},"id":"way/781684627"},{"type":"Feature","properties":{"@id":"way/781684628","highway":"secondary","lanes":3,"name":"南昌街 Nam Cheong Street","name:en":"Nam Cheong Street","name:zh":"南昌街","oneway":"yes","surface":"concrete"},"geometry":{"type":"LineString","coordinates":[[114.1608333,22.3263141],[114.1608164,22.3262555],[114.1608114,22.3262233]]},"id":"way/781684628"},{"type":"Feature","properties":{"@id":"way/782385739","highway":"residential","lanes":2,"lit":"yes","name":"桂林街 Kweilin Street","name:en":"Kweilin Street","name:zh":"桂林街","not:psv":"no","oneway":"yes","share_taxi":"no","sidewalk":"both","surface":"concrete"},"geometry":{"type":"LineString","coordinates":[[114.1591683,22.3280228],[114.1595635,22.328474]]},"id":"way/782385739"},{"type":"Feature","properties":{"@id":"way/782385740","highway":"residential","lanes":2,"lit":"yes","name":"桂林街 Kweilin Street","name:en":"Kweilin Street","name:zh":"桂林街","not:psv":"no","oneway":"yes","sidewalk":"both","surface":"concrete"},"geometry":{"type":"LineString","coordinates":[[114.1595635,22.328474],[114.159893,22.3288431],[114.1599187,22.3288733],[114.1599591,22.3289216]]},"id":"way/782385740"},{"type":"Feature","properties":{"@id":"way/783793798","highway":"secondary","lanes":3,"name":"上海街 Shanghai Street","name:en":"Shanghai Street","name:zh":"上海街","oneway":"yes","surface":"concrete"},"geometry":{"type":"LineString","coordinates":[[114.1673638,22.3227763],[114.1674369,22.3224091],[114.1674764,22.3222112]]},"id":"way/783793798"},{"type":"Feature","properties":{"@id":"way/783793802","highway":"secondary","lanes":3,"name":"上海街 Shanghai Street","name:en":"Shanghai Street","name:zh":"上海街","oneway":"yes","surface":"concrete"},"geometry":{"type":"LineString","coordinates":[[114.1672864,22.3232688],[114.1673152,22.3231334],[114.1673302,22.3230612],[114.1673638,22.3227763]]},"id":"way/783793802"},{"type":"Feature","properties":{"@id":"way/808444738","footway":"sidewalk","highway":"footway","name":"廣東道 Canton Road","name:en":"Canton Road","name:zh":"廣東道"},"geometry":{"type":"LineString","coordinates":[[114.1672696,22.3056377],[114.1672557,22.305605],[114.1672646,22.3055526],[114.167344,22.305407],[114.1673321,22.3053952],[114.1673306,22.3053869],[114.1673299,22.3053831]]},"id":"way/808444738"},{"type":"Feature","properties":{"@id":"way/808444764","footway":"sidewalk","highway":"footway","name":"廣東道 Canton Road","name:en":"Canton Road","name:zh":"廣東道"},"geometry":{"type":"LineString","coordinates":[[114.1670892,22.3049564],[114.1671029,22.3050677],[114.1670841,22.3051955],[114.1670593,22.3052415],[114.1670325,22.3052861],[114.1669346,22.3053779],[114.1668702,22.3055126],[114.1668025,22.3057005],[114.166782,22.3057852],[114.1667683,22.3058097]]},"id":"way/808444764"},{"type":"Feature","properties":{"@id":"way/809637331","carriageway":"dual","highway":"secondary","lanes":2,"name":"南昌街 Nam Cheong Street","name:en":"Nam Cheong Street","name:zh":"南昌街","oneway":"yes","surface":"asphalt","turn":"through"},"geometry":{"type":"LineString","coordinates":[[114.1658164,22.3392174],[114.1657343,22.3392649],[114.1657101,22.3392854],[114.1656499,22.339337]]},"id":"way/809637331"},{"type":"Feature","properties":{"@id":"way/809637710","footway":"sidewalk","highway":"footway","name":"南昌街 Nam Cheong Street","name:en":"Nam Cheong Street","name:zh":"南昌街"},"geometry":{"type":"LineString","coordinates":[[114.1658446,22.3393672],[114.1658823,22.3392691],[114.1660008,22.3391514],[114.1661071,22.3390808],[114.1662161,22.3390058]]},"id":"way/809637710"},{"type":"Feature","properties":{"@id":"way/809638235","footway":"sidewalk","highway":"footway","name":"南昌街 Nam Cheong Street","name:en":"Nam Cheong Street","name:zh":"南昌街"},"geometry":{"type":"LineString","coordinates":[[114.1658297,22.3394114],[114.1658354,22.339391],[114.1658446,22.3393672]]},"id":"way/809638235"},{"type":"Feature","properties":{"@id":"way/813424893","carriageway":"dual","highway":"secondary","lanes":2,"name":"南昌街 Nam Cheong Street","name:en":"Nam Cheong Street","name:zh":"南昌街","oneway":"yes","surface":"asphalt"},"geometry":{"type":"LineString","coordinates":[[114.1650451,22.3404971],[114.1650324,22.3406654]]},"id":"way/813424893"},{"type":"Feature","properties":{"@id":"way/813424896","footway":"sidewalk","highway":"footway","name":"南昌街 Nam Cheong Street","name:en":"Nam Cheong Street","name:zh":"南昌街"},"geometry":{"type":"LineString","coordinates":[[114.1652729,22.3396784],[114.1652669,22.3397042],[114.1652586,22.3397289],[114.1652461,22.3397527],[114.1652393,22.3397881],[114.1651329,22.3400826],[114.1650177,22.3401093],[114.1650006,22.3401812],[114.1649769,22.3402808],[114.1649706,22.3403074],[114.164941,22.3404325],[114.1649264,22.340463]]},"id":"way/813424896"},{"type":"Feature","properties":{"@id":"way/813424911","highway":"secondary","lanes":2,"name":"南昌街 Nam Cheong Street","name:en":"Nam Cheong Street","name:zh":"南昌街","oneway":"yes","surface":"asphalt","turn":"through"},"geometry":{"type":"LineString","coordinates":[[114.1653229,22.3400471],[114.1653513,22.3399673]]},"id":"way/813424911"},{"type":"Feature","properties":{"@id":"way/815851234","highway":"tertiary","name":"浙江街 Chi Kiang Street","name:en":"Chi Kiang Street","name:zh":"浙江街","oneway":"yes","surface":"asphalt"},"geometry":{"type":"LineString","coordinates":[[114.1875158,22.3154544],[114.1874981,22.3154715],[114.1874819,22.3154772],[114.1874565,22.3154798],[114.1869798,22.3154851]]},"id":"way/815851234"},{"type":"Feature","properties":{"@id":"way/817560626","highway":"secondary","lanes":3,"lanes:backward":2,"lanes:forward":1,"name":"蕪湖街 Wuhu Street","name:en":"Wuhu Street","name:zh":"蕪湖街","surface":"asphalt"},"geometry":{"type":"LineString","coordinates":[[114.185061,22.3078495],[114.1850318,22.3078664],[114.1849863,22.3078948]]},"id":"way/817560626"},{"type":"Feature","properties":{"@id":"way/817585439","change:forward":"no","change:lanes:backward":"yes|not_right","highway":"secondary","lanes":3,"lanes:backward":2,"lanes:forward":1,"name":"蕪湖街 Wuhu Street","name:en":"Wuhu Street","name:zh":"蕪湖街","surface":"asphalt"},"geometry":{"type":"LineString","coordinates":[[114.1841777,22.3083992],[114.184214,22.3083765]]},"id":"way/817585439"},{"type":"Feature","properties":{"@id":"way/817585446","highway":"secondary","lanes":3,"lanes:backward":2,"lanes:forward":1,"name":"蕪湖街 Wuhu Street","name:en":"Wuhu Street","name:zh":"蕪湖街","surface":"asphalt"},"geometry":{"type":"LineString","coordinates":[[114.184214,22.3083765],[114.1842459,22.3083565],[114.1844888,22.3082045],[114.184507,22.3081931]]},"id":"way/817585446"},{"type":"Feature","properties":{"@id":"way/819463035","footway":"sidewalk","highway":"footway","name":"貴州街 Kwei Chow Street","name:en":"Kwei Chow Street","name:zh":"貴州街"},"geometry":{"type":"LineString","coordinates":[[114.1920744,22.317204],[114.1920578,22.31721],[114.1916776,22.3174994],[114.1916721,22.3175112]]},"id":"way/819463035"},{"type":"Feature","properties":{"@id":"way/819463046","footway":"sidewalk","highway":"footway","name":"貴州街 Kwei Chow Street","name:en":"Kwei Chow Street","name:zh":"貴州街"},"geometry":{"type":"LineString","coordinates":[[114.1916099,22.3175735],[114.1915915,22.3175806],[114.1913146,22.3178317],[114.191303,22.3178567]]},"id":"way/819463046"},{"type":"Feature","properties":{"@id":"way/819463050","footway":"sidewalk","highway":"footway","name":"貴州街 Kwei Chow Street","name:en":"Kwei Chow Street","name:zh":"貴州街"},"geometry":{"type":"LineString","coordinates":[[114.1925175,22.3168762],[114.1924411,22.3168918],[114.1921565,22.317124],[114.1921474,22.3171367]]},"id":"way/819463050"},{"type":"Feature","properties":{"@id":"way/832141433","highway":"primary","lanes":1,"name":"廣東道 Canton Road","name:en":"Canton Road","name:zh":"廣東道","oneway":"yes","surface":"asphalt"},"geometry":{"type":"LineString","coordinates":[[114.1680967,22.3008211],[114.1680541,22.3010539],[114.1679772,22.3014733],[114.1679559,22.3017739]]},"id":"way/832141433"},{"type":"Feature","properties":{"@id":"way/832141434","highway":"secondary","lanes":2,"name":"廣東道 Canton Road","name:en":"Canton Road","name:zh":"廣東道","oneway":"yes","surface":"asphalt"},"geometry":{"type":"LineString","coordinates":[[114.1685349,22.3000009],[114.1685141,22.2999059],[114.1685028,22.2998439],[114.1684929,22.2997897],[114.168499,22.2996527]]},"id":"way/832141434"},{"type":"Feature","properties":{"@id":"way/833662231","highway":"secondary","lanes":3,"lanes:backward":2,"lanes:forward":1,"name":"蕪湖街 Wuhu Street","name:en":"Wuhu Street","name:zh":"蕪湖街","surface":"asphalt"},"geometry":{"type":"LineString","coordinates":[[114.1849863,22.3078948],[114.1846309,22.3081161],[114.1845447,22.3081697],[114.184507,22.3081931]]},"id":"way/833662231"},{"type":"Feature","properties":{"@id":"way/844368141","carriageway":"transition","destination":"Hung Hom","highway":"trunk_link","lanes":1,"name":"蕪湖街 Wuhu Street","name:en":"Wuhu Street","name:zh":"蕪湖街","oneway":"yes","surface":"asphalt"},"geometry":{"type":"LineString","coordinates":[[114.1838815,22.3089984],[114.1838539,22.3088539]]},"id":"way/844368141"},{"type":"Feature","properties":{"@id":"way/847191776","highway":"secondary","lanes":3,"name":"上海街 Shanghai Street","name:en":"Shanghai Street","name:zh":"上海街","oneway":"yes","surface":"concrete"},"geometry":{"type":"LineString","coordinates":[[114.1675586,22.3217986],[114.1677797,22.3206889],[114.1677922,22.3206261]]},"id":"way/847191776"},{"type":"Feature","properties":{"@id":"way/862434786","highway":"unclassified","lanes":2,"name":"廈門街 Amoy Street","name:en":"Amoy Street","name:zh":"廈門街","surface":"asphalt"},"geometry":{"type":"LineString","coordinates":[[114.1720873,22.2759135],[114.1720738,22.2758859]]},"id":"way/862434786"},{"type":"Feature","properties":{"@id":"way/862434793","highway":"unclassified","lanes":1,"name":"廈門街 Amoy Street","name:en":"Amoy Street","name:zh":"廈門街","oneway":"yes","surface":"concrete"},"geometry":{"type":"LineString","coordinates":[[114.1718885,22.2754407],[114.1718818,22.2754092],[114.171879,22.275399],[114.1718744,22.2753894],[114.1718682,22.2753806],[114.1718606,22.2753729],[114.1718517,22.2753663],[114.1718418,22.2753612],[114.1718311,22.2753576],[114.1718215,22.2753545],[114.1718123,22.2753503],[114.1718039,22.275345],[114.1717962,22.2753388],[114.1717895,22.2753317],[114.1717838,22.2753239],[114.171666,22.2751109]]},"id":"way/862434793"},{"type":"Feature","properties":{"@id":"way/862434794","footway":"sidewalk","highway":"footway","name":"廈門街 Amoy Street","name:en":"Amoy Street","name:zh":"廈門街"},"geometry":{"type":"LineString","coordinates":[[114.1718755,22.2753248],[114.1717769,22.2752129],[114.1717719,22.2751519]]},"id":"way/862434794"},{"type":"Feature","properties":{"@id":"way/862434796","footway":"sidewalk","highway":"footway","name":"廈門街 Amoy Street","name:en":"Amoy Street","name:zh":"廈門街"},"geometry":{"type":"LineString","coordinates":[[114.1722936,22.276381],[114.1722903,22.2763613],[114.1723029,22.2762583],[114.1722422,22.2761272],[114.172217,22.2760729],[114.1721352,22.2759118],[114.1721296,22.2758688],[114.1720262,22.2756605],[114.171975,22.2755283]]},"id":"way/862434796"},{"type":"Feature","properties":{"@id":"way/862434798","covered":"yes","footway":"sidewalk","highway":"footway","name":"廈門街 Amoy Street","name:en":"Amoy Street","name:zh":"廈門街"},"geometry":{"type":"LineString","coordinates":[[114.171975,22.2755283],[114.1719513,22.2754061],[114.1718755,22.2753248]]},"id":"way/862434798"},{"type":"Feature","properties":{"@id":"way/862434799","highway":"unclassified","lanes":2,"name":"廈門街 Amoy Street","name:en":"Amoy Street","name:zh":"廈門街","parking:lane:left:parallel":"lay_by","surface":"asphalt"},"geometry":{"type":"LineString","coordinates":[[114.1720738,22.2758859],[114.1719236,22.2755786]]},"id":"way/862434799"},{"type":"Feature","properties":{"@id":"way/864155270","bicycle":"no","bicycle:conditional":"yes @ (sidewalk AND dismount); no @ (carriageway)","carriageway:right":"transition","foot":"no","foot:conditional":"yes @ (sidewalk); no @ (carriageway)","highway":"tertiary","lanes":1,"maxlength":10,"maxlength:conditional":"none @ (destination)","motor_vehicle:conditional":"no @ (learner)","name":"南昌街 Nam Cheong Street","name:en":"Nam Cheong Street","name:zh":"南昌街","oneway":"yes","share_taxi":"no","sidewalk":"no","surface":"asphalt"},"geometry":{"type":"LineString","coordinates":[[114.1650461,22.3409149],[114.1650389,22.3410221]]},"id":"way/864155270"},{"type":"Feature","properties":{"@id":"way/864155271","carriageway:right":"transition","highway":"secondary","lanes":2,"name":"南昌街 Nam Cheong Street","name:en":"Nam Cheong Street","name:zh":"南昌街","oneway":"yes","surface":"asphalt","turn:lanes":"left;through|through"},"geometry":{"type":"LineString","coordinates":[[114.1651348,22.3408511],[114.1651576,22.3406762]]},"id":"way/864155271"},{"type":"Feature","properties":{"@id":"way/864155272","carriageway:right":"transition","highway":"secondary_link","lanes":1,"name":"南昌街 Nam Cheong Street","name:en":"Nam Cheong Street","name:zh":"南昌街","oneway":"yes","surface":"concrete"},"geometry":{"type":"LineString","coordinates":[[114.1649999,22.3409],[114.1649907,22.3410102]]},"id":"way/864155272"},{"type":"Feature","properties":{"@id":"way/864155273","carriageway":"dual","highway":"secondary","lanes":2,"name":"南昌街 Nam Cheong Street","name:en":"Nam Cheong Street","name:zh":"南昌街","oneway":"yes","surface":"asphalt","turn:lanes":"left;through|through"},"geometry":{"type":"LineString","coordinates":[[114.1651268,22.3409129],[114.1651348,22.3408511]]},"id":"way/864155273"},{"type":"Feature","properties":{"@id":"way/864155274","bicycle":"no","bicycle:conditional":"yes @ (sidewalk AND dismount); no @ (carriageway)","carriageway":"transition","foot":"no","foot:conditional":"yes @ (sidewalk); no @ (carriageway)","highway":"tertiary","lanes":1,"name":"南昌街 Nam Cheong Street","name:en":"Nam Cheong Street","name:zh":"南昌街","oneway":"yes","sidewalk":"no","surface":"asphalt"},"geometry":{"type":"LineString","coordinates":[[114.1650879,22.3410321],[114.1651268,22.3409129]]},"id":"way/864155274"},{"type":"Feature","properties":{"@id":"way/864155275","bicycle":"no","bicycle:conditional":"yes @ (sidewalk AND dismount); no @ (carriageway)","carriageway":"transition","foot":"no","foot:conditional":"yes @ (sidewalk); no @ (carriageway)","highway":"tertiary","lanes":1,"maxlength":10,"maxlength:conditional":"none @ (destination)","motor_vehicle:conditional":"no @ (learner)","name":"南昌街 Nam Cheong Street","name:en":"Nam Cheong Street","name:zh":"南昌街","oneway":"yes","share_taxi":"no","sidewalk":"no","surface":"asphalt"},"geometry":{"type":"LineString","coordinates":[[114.1650389,22.3410221],[114.1650374,22.341146]]},"id":"way/864155275"},{"type":"Feature","properties":{"@id":"way/864155276","carriageway":"transition","highway":"secondary_link","lanes":1,"name":"南昌街 Nam Cheong Street","name:en":"Nam Cheong Street","name:zh":"南昌街","oneway":"yes","placement":"transition","surface":"asphalt"},"geometry":{"type":"LineString","coordinates":[[114.1651028,22.3411351],[114.1651268,22.3409129]]},"id":"way/864155276"},{"type":"Feature","properties":{"@id":"way/864155277","bicycle":"no","bicycle:conditional":"yes @ (sidewalk AND dismount); no @ (carriageway)","carriageway":"dual","foot":"no","foot:conditional":"yes @ (sidewalk); no @ (carriageway)","highway":"tertiary","lanes":1,"maxlength":10,"maxlength:conditional":"none @ (destination)","motor_vehicle:conditional":"no @ (learner)","name":"南昌街 Nam Cheong Street","name:en":"Nam Cheong Street","name:zh":"南昌街","oneway":"yes","share_taxi":"no","sidewalk":"no","surface":"asphalt"},"geometry":{"type":"LineString","coordinates":[[114.165051,22.340841],[114.1650461,22.3409149]]},"id":"way/864155277"},{"type":"Feature","properties":{"@id":"way/864155278","carriageway:right":"transition","highway":"secondary_link","lanes":1,"name":"南昌街 Nam Cheong Street","name:en":"Nam Cheong Street","name:zh":"南昌街","oneway":"yes","surface":"concrete"},"geometry":{"type":"LineString","coordinates":[[114.1650038,22.3408406],[114.1649999,22.3409]]},"id":"way/864155278"},{"type":"Feature","properties":{"@id":"way/864155279","carriageway":"transition","highway":"secondary_link","lanes":1,"name":"南昌街 Nam Cheong Street","name:en":"Nam Cheong Street","name:zh":"南昌街","oneway":"yes","placement":"transition","surface":"concrete"},"geometry":{"type":"LineString","coordinates":[[114.1650324,22.3406654],[114.1650038,22.3408406]]},"id":"way/864155279"},{"type":"Feature","properties":{"@id":"way/864155281","alt_name":"大窩坪交匯處 Tai Wo Ping Interchange","alt_name:en":"Tai Wo Ping Interchange","alt_name:zh":"大窩坪交匯處","carriageway":"transition","highway":"trunk_link","interchange":"yes","junction":"interchange","junction:name":"大窩坪交匯處 Tai Wo Ping Interchange","junction:name:en":"Tai Wo Ping Interchange","junction:name:zh":"大窩坪交匯處","lanes":1,"name":"南昌街 Nam Cheong Street","name:en":"Nam Cheong Street","name:zh":"南昌街","oneway":"yes","placement":"transition","surface":"concrete"},"geometry":{"type":"LineString","coordinates":[[114.1641042,22.3419809],[114.1643036,22.3419915],[114.1644314,22.3419896],[114.1645206,22.3419869]]},"id":"way/864155281"},{"type":"Feature","properties":{"@id":"way/864155284","bridge":"yes","footway":"sidewalk","highway":"footway","layer":1,"name":"南昌街 Nam Cheong Street","name:en":"Nam Cheong Street","name:zh":"南昌街"},"geometry":{"type":"LineString","coordinates":[[114.1649025,22.3422945],[114.1649145,22.342164]]},"id":"way/864155284"},{"type":"Feature","properties":{"@id":"way/864155285","bridge":"yes","highway":"footway","horse":"no","layer":1,"lit":"yes","name":"南昌街 Nam Cheong Street","name:en":"Nam Cheong Street","name:zh":"南昌街","surface":"paved"},"geometry":{"type":"LineString","coordinates":[[114.1649523,22.3416104],[114.164945,22.3417216],[114.1649145,22.342164]]},"id":"way/864155285"},{"type":"Feature","properties":{"@id":"way/881945189","footway":"sidewalk","highway":"footway","name":"上海街 Shanghai Street","name:en":"Shanghai Street","name:zh":"上海街"},"geometry":{"type":"LineString","coordinates":[[114.169363,22.3128837],[114.16937,22.3128941],[114.16937,22.3129139],[114.1692294,22.3136157],[114.1692141,22.3136634],[114.1692004,22.3137174]]},"id":"way/881945189"},{"type":"Feature","properties":{"@id":"way/881965023","highway":"unclassified","name":"九江街 Kiu Kiang Street","name:en":"Kiu Kiang Street","name:zh":"九江街","oneway":"yes","surface":"concrete"},"geometry":{"type":"LineString","coordinates":[[114.1600841,22.3325256],[114.1601473,22.3325968],[114.1604238,22.3328971]]},"id":"way/881965023"},{"type":"Feature","properties":{"@id":"way/888279998","construction":"footway","construction:footway":"sidewalk","construction:highway":"footway","demolished:footway":"sidewalk","demolished:highway":"footway","highway":"construction","name":"甘肅街 Kansu Street","name:en":"Kansu Street","name:zh":"甘肅街"},"geometry":{"type":"LineString","coordinates":[[114.1680769,22.3090809],[114.1680125,22.3090902],[114.1680031,22.3090908],[114.1679863,22.3090905],[114.1679649,22.3090884],[114.1679558,22.3090843],[114.1679471,22.3090775]]},"id":"way/888279998"},{"type":"Feature","properties":{"@id":"way/903397845","colour":"red","highway":"pedestrian","name":"桂林街 Kweilin Street","name:en":"Kweilin Street","name:zh":"桂林街","sidewalk":"no","surface":"paving_stones","traffic_calming":"table"},"geometry":{"type":"LineString","coordinates":[[114.1614714,22.3306046],[114.1614963,22.3306444]]},"id":"way/903397845"},{"type":"Feature","properties":{"@id":"way/903397847","abutters":"retail","carriageway":"single","colour":"red","highway":"pedestrian","marketplace":"electronics","marketplace:opening_hours":"12:00-21:00","name":"桂林街 Kweilin Street","name:en":"Kweilin Street","name:zh":"桂林街","not:motor_vehicle:conditional":"no @ (12:00-21:00)","oneway":"yes","sidewalk":"both","surface":"paving_stones","traffic_calming":"table","vehicle":"no","vehicle:conditional":"yes @ (21:00-12:00)"},"geometry":{"type":"LineString","coordinates":[[114.1614714,22.3306046],[114.1614186,22.3305474]]},"id":"way/903397847"},{"type":"Feature","properties":{"@id":"way/918730078","highway":"pedestrian","kerb:both":"yes","lanes":1,"motor_vehicle":"permissive","name":"廣東道 Canton Road","name:en":"Canton Road","name:zh":"廣東道","oneway":"yes","sidewalk":"both","surface":"concrete"},"geometry":{"type":"LineString","coordinates":[[114.1675731,22.3171443],[114.1675684,22.3171638],[114.1675667,22.3171723]]},"id":"way/918730078"},{"type":"Feature","properties":{"@id":"way/918730079","highway":"pedestrian","kerb:both":"yes","lanes":1,"motor_vehicle":"permissive","name":"廣東道 Canton Road","name:en":"Canton Road","name:zh":"廣東道","oneway":"yes","sidewalk":"both","surface":"concrete"},"geometry":{"type":"LineString","coordinates":[[114.1672303,22.3187994],[114.1672262,22.318815],[114.1671994,22.3189163]]},"id":"way/918730079"},{"type":"Feature","properties":{"@id":"way/918730080","highway":"pedestrian","kerb:both":"yes","lanes":2,"motor_vehicle":"permissive","name":"廣東道 Canton Road","name:en":"Canton Road","name:zh":"廣東道","oneway":"yes","sidewalk":"both","surface":"concrete"},"geometry":{"type":"LineString","coordinates":[[114.1669158,22.3203437],[114.1669004,22.3204196]]},"id":"way/918730080"},{"type":"Feature","properties":{"@id":"way/918730081","highway":"pedestrian","kerb:both":"yes","lanes":2,"motor_vehicle":"permissive","name":"廣東道 Canton Road","name:en":"Canton Road","name:zh":"廣東道","oneway":"yes","sidewalk":"both","surface":"concrete"},"geometry":{"type":"LineString","coordinates":[[114.1671937,22.3189942],[114.167181,22.3190553]]},"id":"way/918730081"},{"type":"Feature","properties":{"@id":"way/947251220","footway":"sidewalk","highway":"footway","name":"廣東道 Canton Road","name:en":"Canton Road","name:zh":"廣東道"},"geometry":{"type":"LineString","coordinates":[[114.1685268,22.3128558],[114.1685389,22.3128012],[114.1685429,22.3127819],[114.1685465,22.3127658],[114.168551,22.312747],[114.1685531,22.3127405],[114.1685571,22.3127339]]},"id":"way/947251220"},{"type":"Feature","properties":{"@id":"way/947251239","highway":"footway","name":"上海街 Shanghai Street","name:en":"Shanghai Street","name:zh":"上海街"},"geometry":{"type":"LineString","coordinates":[[114.1694914,22.3129048],[114.1694806,22.3129113],[114.1694648,22.3129249],[114.1694602,22.312943],[114.1693196,22.3136362]]},"id":"way/947251239"},{"type":"Feature","properties":{"@id":"way/947251241","footway":"sidewalk","highway":"footway","name":"上海街 Shanghai Street","name:en":"Shanghai Street","name:zh":"上海街"},"geometry":{"type":"LineString","coordinates":[[114.1694112,22.3125865],[114.1693999,22.312624],[114.1693962,22.3126449],[114.1693885,22.3126535]]},"id":"way/947251241"},{"type":"Feature","properties":{"@id":"way/947251244","footway":"sidewalk","highway":"footway","name":"上海街 Shanghai Street","name:en":"Shanghai Street","name:zh":"上海街"},"geometry":{"type":"LineString","coordinates":[[114.1695356,22.3126008],[114.1695245,22.3126495],[114.1695318,22.3126645],[114.16954,22.3126736]]},"id":"way/947251244"},{"type":"Feature","properties":{"@id":"way/970635267","abutters":"retail","designation":"小販認可區 Hawker permitted place","designation:en":"Hawker permitted place","designation:wikidata":"Q10263158","designation:zh":"小販認可區","highway":"pedestrian","lanes":1,"lanes:marked":1,"lanes:unmarked":2,"marketplace":"separate","motor_vehicle":"yes","name":"深圳街 Shamchun Street","name:en":"Shamchun Street","name:zh":"深圳街","oneway":"no","passing_places":"yes","sidewalk":"both","surface":"concrete:plates"},"geometry":{"type":"LineString","coordinates":[[114.1667058,22.3191649],[114.1667429,22.3189877],[114.1667584,22.3189135]]},"id":"way/970635267"},{"type":"Feature","properties":{"@id":"way/970635268","abutters":"retail","designation":"小販認可區 Hawker permitted place","designation:en":"Hawker permitted place","designation:wikidata":"Q10263158","designation:zh":"小販認可區","highway":"pedestrian","lanes":1,"lanes:marked":1,"lanes:unmarked":2,"marketplace":"separate","motor_vehicle":"yes","name":"深圳街 Shamchun Street","name:en":"Shamchun Street","name:zh":"深圳街","oneway":"no","passing_places":"yes","sidewalk":"right","surface":"concrete:plates"},"geometry":{"type":"LineString","coordinates":[[114.1664576,22.319355],[114.1666975,22.3191998]]},"id":"way/970635268"},{"type":"Feature","properties":{"@id":"way/970635269","abutters":"retail","designation":"小販認可區 Hawker permitted place","designation:en":"Hawker permitted place","designation:wikidata":"Q10263158","designation:zh":"小販認可區","highway":"pedestrian","lanes":1,"lanes:marked":1,"lanes:unmarked":2,"marketplace":"separate","motor_vehicle":"yes","name":"深圳街 Shamchun Street","name:en":"Shamchun Street","name:zh":"深圳街","oneway":"no","passing_places":"yes","sidewalk":"right","surface":"concrete:plates"},"geometry":{"type":"LineString","coordinates":[[114.1664157,22.3193804],[114.1664576,22.319355]]},"id":"way/970635269"},{"type":"Feature","properties":{"@id":"way/970635272","abutters":"retail","designation":"小販認可區 Hawker permitted place","designation:en":"Hawker permitted place","designation:wikidata":"Q10263158","designation:zh":"小販認可區","highway":"pedestrian","lanes":1,"lanes:marked":1,"lanes:unmarked":2,"marketplace":"separate","motor_vehicle":"yes","name":"深圳街 Shamchun Street","name:en":"Shamchun Street","name:zh":"深圳街","oneway":"no","passing_places":"yes","sidewalk":"both","surface":"concrete:plates"},"geometry":{"type":"LineString","coordinates":[[114.1661577,22.3195783],[114.1661685,22.3195517],[114.1661949,22.3195243]]},"id":"way/970635272"},{"type":"Feature","properties":{"@id":"way/970635273","footway":"sidewalk","highway":"footway","name":"深圳街 Shamchun Street","name:en":"Shamchun Street","name:zh":"深圳街"},"geometry":{"type":"LineString","coordinates":[[114.1660784,22.3195959],[114.1661736,22.319504]]},"id":"way/970635273"},{"type":"Feature","properties":{"@id":"way/970639522","abutters":"retail","carriageway":"single","designation":"小販認可區 Hawker permitted place","designation:en":"Hawker permitted place","designation:wikidata":"Q10263158","designation:zh":"小販認可區","highway":"pedestrian","kerb:both":"raised","lanes":1,"marketplace":"separate","motor_vehicle":"yes","name":"北海街 Pak Hoi Street","name:en":"Pak Hoi Street","name:zh":"北海街","oneway":"yes","sidewalk":"both","surface":"concrete"},"geometry":{"type":"LineString","coordinates":[[114.1698365,22.3080415],[114.1695826,22.3081003]]},"id":"way/970639522"},{"type":"Feature","properties":{"@id":"way/970639523","abutters":"retail","carriageway":"single","designation":"小販認可區 Hawker permitted place","designation:en":"Hawker permitted place","designation:wikidata":"Q10263158","designation:zh":"小販認可區","highway":"pedestrian","kerb:both":"raised","lanes":1,"marketplace":"separate","motor_vehicle":"yes","name":"北海街 Pak Hoi Street","name:en":"Pak Hoi Street","name:zh":"北海街","oneway":"yes","sidewalk":"both","surface":"concrete"},"geometry":{"type":"LineString","coordinates":[[114.1691611,22.3081963],[114.1694268,22.3081361]]},"id":"way/970639523"},{"type":"Feature","properties":{"@id":"way/970639524","abutters":"retail","carriageway":"single","highway":"pedestrian","kerb:both":"raised","lanes":1,"motor_vehicle":"yes","name":"北海街 Pak Hoi Street","name:en":"Pak Hoi Street","name:zh":"北海街","oneway":"yes","sidewalk":"both","surface":"concrete"},"geometry":{"type":"LineString","coordinates":[[114.1695826,22.3081003],[114.1695261,22.3081136]]},"id":"way/970639524"},{"type":"Feature","properties":{"@id":"way/970639525","abutters":"retail","carriageway":"single","highway":"pedestrian","kerb:both":"raised","lanes":1,"motor_vehicle":"yes","name":"北海街 Pak Hoi Street","name:en":"Pak Hoi Street","name:zh":"北海街","oneway":"yes","sidewalk":"both","surface":"concrete"},"geometry":{"type":"LineString","coordinates":[[114.1694268,22.3081361],[114.1695261,22.3081136]]},"id":"way/970639525"},{"type":"Feature","properties":{"@id":"way/970658243","footway":"sidewalk","highway":"footway","name":"上海街 Shanghai Street","name:en":"Shanghai Street","name:zh":"上海街"},"geometry":{"type":"LineString","coordinates":[[114.1680302,22.3192374],[114.1680367,22.3192076],[114.1680335,22.3191875]]},"id":"way/970658243"},{"type":"Feature","properties":{"@id":"way/970658244","footway":"sidewalk","highway":"footway","name":"上海街 Shanghai Street","name:en":"Shanghai Street","name:zh":"上海街"},"geometry":{"type":"LineString","coordinates":[[114.1681235,22.3188475],[114.1681049,22.3189359],[114.168101,22.3189547],[114.1680922,22.3189718]]},"id":"way/970658244"},{"type":"Feature","properties":{"@id":"way/970658249","footway":"sidewalk","highway":"footway","name":"廣東道 Canton Road","name:en":"Canton Road","name:zh":"廣東道"},"geometry":{"type":"LineString","coordinates":[[114.167083,22.3198367],[114.167079,22.3198299],[114.1672345,22.3190858],[114.1672371,22.3190757]]},"id":"way/970658249"},{"type":"Feature","properties":{"@id":"way/987256900","footway":"sidewalk","highway":"footway","name":"上海街 Shanghai Street","name:en":"Shanghai Street","name:zh":"上海街"},"geometry":{"type":"LineString","coordinates":[[114.1700158,22.3100487],[114.1700121,22.3100324],[114.1700158,22.3100092],[114.1700277,22.3099452],[114.1701019,22.3095463]]},"id":"way/987256900"},{"type":"Feature","properties":{"@id":"way/1012348005","highway":"secondary","lanes":4,"lanes:backward":2,"lanes:forward":2,"name":"南昌街 Nam Cheong Street","name:en":"Nam Cheong Street","name:zh":"南昌街","surface":"concrete"},"geometry":{"type":"LineString","coordinates":[[114.1682084,22.3347458],[114.1680882,22.3346046],[114.1680522,22.334543],[114.1679954,22.3344371]]},"id":"way/1012348005"},{"type":"Feature","properties":{"@id":"way/1014977866","highway":"secondary","lanes":2,"lanes:backward":1,"lanes:forward":1,"name":"南昌街 Nam Cheong Street","name:en":"Nam Cheong Street","name:zh":"南昌街","surface":"concrete"},"geometry":{"type":"LineString","coordinates":[[114.1691986,22.3380375],[114.1692322,22.3379862],[114.1692809,22.3378784],[114.1693136,22.3377417],[114.169323,22.3376389],[114.1693186,22.3375536],[114.169308,22.3374859],[114.1692676,22.3373053],[114.1692093,22.3370088],[114.1691646,22.3367816]]},"id":"way/1014977866"},{"type":"Feature","properties":{"@id":"way/1014977867","highway":"secondary","lanes":2,"lanes:backward":1,"lanes:forward":1,"name":"南昌街 Nam Cheong Street","name:en":"Nam Cheong Street","name:zh":"南昌街","surface":"concrete"},"geometry":{"type":"LineString","coordinates":[[114.1671029,22.3387075],[114.1674451,22.3386425],[114.1675778,22.3386202],[114.1676399,22.3386098],[114.1681963,22.338558],[114.1683985,22.338529],[114.1685043,22.3385024],[114.1685328,22.3384917]]},"id":"way/1014977867"},{"type":"Feature","properties":{"@id":"way/1014977868","highway":"secondary","lanes":2,"lanes:backward":1,"lanes:forward":1,"name":"南昌街 Nam Cheong Street","name:en":"Nam Cheong Street","name:zh":"南昌街","surface":"concrete"},"geometry":{"type":"LineString","coordinates":[[114.1685328,22.3384917],[114.1687142,22.338424],[114.1687756,22.3383975],[114.1689612,22.3382931],[114.1690666,22.3382016],[114.1691584,22.3380989],[114.1691986,22.3380375]]},"id":"way/1014977868"},{"type":"Feature","properties":{"@id":"way/1014977870","highway":"secondary","lanes":2,"lanes:backward":1,"lanes:forward":1,"name":"南昌街 Nam Cheong Street","name:en":"Nam Cheong Street","name:zh":"南昌街","surface":"concrete"},"geometry":{"type":"LineString","coordinates":[[114.1668345,22.3387727],[114.1671029,22.3387075]]},"id":"way/1014977870"},{"type":"Feature","properties":{"@id":"way/1025729518","footway":"sidewalk","highway":"footway","name":"深圳街 Shamchun Street","name:en":"Shamchun Street","name:zh":"深圳街"},"geometry":{"type":"LineString","coordinates":[[114.1667632,22.3190017],[114.1667651,22.3189907]]},"id":"way/1025729518"},{"type":"Feature","properties":{"@id":"way/1025729525","footway":"sidewalk","highway":"footway","name":"上海街 Shanghai Street","name:en":"Shanghai Street","name:zh":"上海街"},"geometry":{"type":"LineString","coordinates":[[114.1681569,22.3192632],[114.1681675,22.319227],[114.1681723,22.3192104]]},"id":"way/1025729525"},{"type":"Feature","properties":{"@id":"way/1025729534","footway":"sidewalk","highway":"footway","name":"廣東道 Canton Road","name:en":"Canton Road","name:zh":"廣東道"},"geometry":{"type":"LineString","coordinates":[[114.1671023,22.3191302],[114.167118,22.3190585]]},"id":"way/1025729534"},{"type":"Feature","properties":{"@id":"way/1025729539","footway":"sidewalk","highway":"footway","name":"上海街 Shanghai Street","name:en":"Shanghai Street","name:zh":"上海街"},"geometry":{"type":"LineString","coordinates":[[114.1682388,22.3188655],[114.1682206,22.3189528],[114.1682106,22.3190008]]},"id":"way/1025729539"},{"type":"Feature","properties":{"@id":"way/1063897217","highway":"primary","lanes":1,"name":"廣東道 Canton Road","name:en":"Canton Road","name:zh":"廣東道","oneway":"yes","surface":"asphalt"},"geometry":{"type":"LineString","coordinates":[[114.1685349,22.3000009],[114.16847,22.3000463],[114.1683891,22.300113],[114.168249,22.300372],[114.1682,22.3004682],[114.1681597,22.3005816],[114.1681204,22.3006921],[114.1680967,22.3008211]]},"id":"way/1063897217"},{"type":"Feature","properties":{"@id":"way/1079223252","highway":"primary","lanes":3,"name":"廣東道 Canton Road","name:en":"Canton Road","name:zh":"廣東道","oneway":"yes","surface":"concrete"},"geometry":{"type":"LineString","coordinates":[[114.1673447,22.3048891],[114.1672928,22.3049697],[114.1671366,22.3052065]]},"id":"way/1079223252"}]}