{"type":"FeatureCollection","features":[{"type":"Feature","properties":{"@id":"way/28069332","name":"汕頭街 Swatow Street","name:en":"Swatow Street","name:zh":"汕頭街","surface":"concrete","heading":"<strong>Chinese From the Past</strong>","description":"Old romanisation system for Chinese place name transliterations, now known as Shantou"},"geometry":{"type":"LineString","coordinates":[[114.1719332,22.2763997],[114.1719436,22.276318],[114.1719381,22.2762922],[114.1716702,22.2757363],[114.1715129,22.2754281]]},"id":"way/28069332"},{"type":"Feature","properties":{"@id":"way/30075004","name":"九江街 Kiu Kiang Street","name:en":"Kiu Kiang Street","name:zh":"九江街","oneway":"yes","surface":"concrete","heading":"<strong>Chinese From the Past</strong>","description":"Old romanisation system for Chinese place name transliterations, now known as Jiujiang"},"geometry":{"type":"LineString","coordinates":[[114.1573622,22.3294386],[114.1573048,22.3294161],[114.1569483,22.3290147]]},"id":"way/30075004"},{"type":"Feature","properties":{"@id":"way/30151133","lanes":1,"name":"深圳街 Shamchun Street","name:en":"Shamchun Street","name:zh":"深圳街","oneway":"yes","surface":"concrete","heading":"<strong>Chinese From the Past</strong>","description":"Old romanisation system for Chinese place name transliterations, now known as Shenzhen"},"geometry":{"type":"LineString","coordinates":[[114.166776,22.3188372],[114.1667986,22.3187388],[114.1668151,22.3186669],[114.1669084,22.3182637]]},"id":"way/30151133"},{"type":"Feature","properties":{"@id":"way/30151148","name":"深圳街 Shamchun Street","name:en":"Shamchun Street","name:zh":"深圳街","oneway":"no","passing_places":"yes","sidewalk":"both","surface":"concrete:plates","heading":"<strong>Chinese From the Past</strong>","description":"Old romanisation system for Chinese place name transliterations, now known as Shenzhen"},"geometry":{"type":"LineString","coordinates":[[114.1666975,22.3191998],[114.1667058,22.3191649]]},"id":"way/30151148"},{"type":"Feature","properties":{"@id":"way/30151446","lanes":2,"lit":"yes","name":"九江街 Kiu Kiang Street","name:en":"Kiu Kiang Street","name:zh":"九江街","oneway":"yes","sidewalk":"both","surface":"concrete","heading":"<strong>Chinese From the Past</strong>","description":"Old romanisation system for Chinese place name transliterations, now known as Jiujiang"},"geometry":{"type":"LineString","coordinates":[[114.161683,22.3342988],[114.162066,22.3347529]]},"id":"way/30151446"},{"type":"Feature","properties":{"@id":"way/32663877","highway":"unclassified","name":"乙明邨街 Jat Min Chuen Street","name:en":"Jat Min Chuen Street","name:zh":"乙明邨街","heading":"<strong>Chinese From Elsewhere</strong>","description":"Hakka romanisation was used rather than Cantonese romanisation"},"geometry":{"type":"LineString","coordinates":[[114.1903965,22.3755244],[114.1904502,22.3755938]]},"id":"way/32663877"},{"type":"Feature","properties":{"@id":"way/37663945","bicycle":"no","foot":"no","highway":"primary","lanes":2,"name":"廣東道 Canton Road","name:en":"Canton Road","name:zh":"廣東道","oneway":"yes","surface":"asphalt","heading":"<strong>Chinese From the Past</strong>","description":"Old romanisation system for Chinese place name transliterations, now known as Guangdong"},"geometry":{"type":"LineString","coordinates":[[114.1681065,22.301113],[114.1680696,22.3012369]]},"id":"way/37663945"},{"type":"Feature","properties":{"@id":"way/40744449","highway":"primary","lanes":4,"name":"廣東道 Canton Road","name:en":"Canton Road","name:zh":"廣東道","oneway":"yes","surface":"asphalt","heading":"<strong>Chinese From the Past</strong>","description":"Old romanisation system for Chinese place name transliterations, now known as Guangdong"},"geometry":{"type":"LineString","coordinates":[[114.1679723,22.3037146],[114.1681041,22.3031775],[114.1681395,22.303033]]},"id":"way/40744449"},{"type":"Feature","properties":{"@id":"way/85200998","name":"四川街 Sze Chuen Street","name:en":"Sze Chuen Street","name:zh":"四川街","surface":"asphalt","heading":"<strong>Chinese From the Past</strong>","description":"Old romanisation system for Chinese place name transliterations, now known as Sichuan"},"geometry":{"type":"LineString","coordinates":[[114.1886998,22.3164011],[114.1882799,22.316587]]},"id":"way/85200998"},{"type":"Feature","properties":{"@id":"way/85201014","highway":"unclassified","name":"貴州街 Kwei Chow Street","name:en":"Kwei Chow Street","name:zh":"貴州街","oneway":"yes","sidewalk":"both","heading":"<strong>Chinese From the Past</strong>","description":"Old romanisation system for Chinese place name transliterations, now known as Guizhou"},"geometry":{"type":"LineString","coordinates":[[114.1926092,22.3166592],[114.1928661,22.3164474],[114.1930157,22.3163241],[114.1930486,22.3162955],[114.1930693,22.3162534],[114.1930653,22.3162105],[114.1930506,22.3161615]]},"id":"way/85201014"},{"type":"Feature","properties":{"@id":"way/85201044","highway":"tertiary","name":"浙江街 Chi Kiang Street","name:en":"Chi Kiang Street","name:zh":"浙江街","heading":"<strong>Chinese From the Past</strong>","description":"Old romanisation system for Chinese place name transliterations, now known as Zhejiang"},"geometry":{"type":"LineString","coordinates":[[114.1869798,22.3154851],[114.1864221,22.3154891]]},"id":"way/85201044"},{"type":"Feature","properties":{"@id":"way/85201052","name":"四川街 Sze Chuen Street","name:en":"Sze Chuen Street","name:zh":"四川街","oneway":"yes","surface":"asphalt","heading":"<strong>Chinese From the Past</strong>","description":"Old romanisation system for Chinese place name transliterations, now known as Sichuan"},"geometry":{"type":"LineString","coordinates":[[114.1882799,22.316587],[114.1882138,22.3166163],[114.1880676,22.316681]]},"id":"way/85201052"},{"type":"Feature","properties":{"@id":"way/85320687","lanes":2,"name":"江西街 Kiang Hsi Street","name:en":"Kiang Hsi Street","name:zh":"江西街","oneway":"yes","surface":"asphalt","heading":"<strong>Chinese From the Past</strong>","description":"Old romanisation system for Chinese place name transliterations, now known as Jiangxi"},"geometry":{"type":"LineString","coordinates":[[114.186841,22.3144632],[114.1873017,22.3143702],[114.1873738,22.3143558]]},"id":"way/85320687"},{"type":"Feature","properties":{"@id":"way/85320728","lanes":1,"name":"山西街 Shansi Street","name:en":"Shansi Street","name:zh":"山西街","oneway":"yes","surface":"asphalt","heading":"<strong>Chinese From the Past</strong>","description":"Old romanisation system for Chinese place name transliterations, now known as Shanxi"},"geometry":{"type":"LineString","coordinates":[[114.1864679,22.3135261],[114.1868788,22.313308]]},"id":"way/85320728"},{"type":"Feature","properties":{"@id":"way/85320790","lit":"yes","name":"黃埔街 Whampoa Street","name:en":"Whampoa Street","name:zh":"黃埔街","sidewalk":"both","surface":"asphalt","heading":"<strong>Chinese From the Past</strong>","description":"Old romanisation system for Chinese place name transliterations, now known as Huangpu"},"geometry":{"type":"LineString","coordinates":[[114.1848737,22.3064708],[114.1844332,22.3058847]]},"id":"way/85320790"},{"type":"Feature","properties":{"@id":"way/85988268","lanes":2,"name":"桂林街 Kweilin Street","name:en":"Kweilin Street","name:zh":"桂林街","not:psv":"no","oneway":"yes","surface":"concrete","heading":"<strong>Chinese From the Past</strong>","description":"Old romanisation system for Chinese place name transliterations, now known as Guilin"},"geometry":{"type":"LineString","coordinates":[[114.1587839,22.3275985],[114.1589527,22.3277844],[114.1591683,22.3280228]]},"id":"way/85988268"},{"type":"Feature","properties":{"@id":"way/85988275","highway":"pedestrian","kerb:both":"no","lane_markings":"no","lanes":1,"lanes:marked":1,"lanes:unmarked":1,"name":"桂林街 Kweilin Street","name:en":"Kweilin Street","name:zh":"桂林街","oneway":"no","passing_places":"yes","sidewalk":"no","heading":"<strong>Chinese From the Past</strong>","description":"Old romanisation system for Chinese place name transliterations, now known as Guilin"},"geometry":{"type":"LineString","coordinates":[[114.1614963,22.3306444],[114.1615125,22.3306715],[114.1615898,22.3307677],[114.1616093,22.3308332],[114.1616586,22.3308882],[114.1617609,22.3310024],[114.1617727,22.3310155],[114.1618067,22.3310522]]},"id":"way/85988275"},{"type":"Feature","properties":{"@id":"way/88514669","highway":"steps","name":"汕頭街 Swatow Street","name:en":"Swatow Street","name:zh":"汕頭街","heading":"<strong>Chinese From the Past</strong>","description":"Old romanisation system for Chinese place name transliterations, now known as Shantou"},"geometry":{"type":"LineString","coordinates":[[114.1715129,22.2754281],[114.1714601,22.2753173],[114.1714243,22.2752422]]},"id":"way/88514669"},{"type":"Feature","properties":{"@id":"way/95489060","highway":"tertiary","lanes":2,"name":"山東街 Shantung Street","name:en":"Shantung Street","name:zh":"山東街","oneway":"yes","surface":"concrete","heading":"<strong>Chinese From the Past</strong>","description":"Old romanisation system for Chinese place name transliterations, now known as Shandong"},"geometry":{"type":"LineString","coordinates":[[114.1697992,22.3175012],[114.1698663,22.3175139],[114.1698939,22.3175191],[114.1702528,22.317587],[114.1702989,22.3175962],[114.170358,22.3176083],[114.1704442,22.3176241],[114.1707924,22.317685],[114.1709017,22.3177051]]},"id":"way/95489060"},{"type":"Feature","properties":{"@id":"way/99517984","highway":"tertiary","lanes":2,"name":"山東街 Shantung Street","name:en":"Shantung Street","name:zh":"山東街","oneway":"yes","surface":"concrete","heading":"<strong>Chinese From the Past</strong>","description":"Old romanisation system for Chinese place name transliterations, now known as Shandong"},"geometry":{"type":"LineString","coordinates":[[114.1696741,22.3175182],[114.1696129,22.3175085],[114.1695845,22.317504],[114.1691434,22.3174282],[114.1690734,22.3174155]]},"id":"way/99517984"},{"type":"Feature","properties":{"@id":"way/100126234","lanes":2,"name":"北京道 Peking Road","name:en":"Peking Road","name:zh":"北京道","oneway":"yes","surface":"concrete","heading":"<strong>Chinese From the Past</strong>","description":"Old romanisation system for Chinese place name transliterations, now known as Beijing"},"geometry":{"type":"LineString","coordinates":[[114.1692388,22.2961483],[114.1695728,22.2961889],[114.1700748,22.2962499],[114.1701112,22.2962543],[114.1702053,22.2962681]]},"id":"way/100126234"},{"type":"Feature","properties":{"@id":"way/100220087","lanes":2,"name":"北京道 Peking Road","name:en":"Peking Road","name:zh":"北京道","oneway":"yes","surface":"concrete","wikidata":"Q7161055","heading":"<strong>Chinese From the Past</strong>","description":"Old romanisation system for Chinese place name transliterations, now known as Beijing"},"geometry":{"type":"LineString","coordinates":[[114.1721995,22.296485],[114.1721306,22.2964785],[114.1716404,22.2964293],[114.1712719,22.2963912],[114.1712415,22.2963725],[114.1712246,22.2963569]]},"id":"way/100220087"},{"type":"Feature","properties":{"@id":"way/100507099","abutters":"retail","designation":"小販認可區 Hawker permitted place","designation:en":"Hawker permitted place","designation:wikidata":"Q10263158","designation:zh":"小販認可區","highway":"pedestrian","kerb:both":"raised","lanes":2,"marketplace":"yes","motor_vehicle":"permissive","name":"廣東道 Canton Road","name:en":"Canton Road","name:zh":"廣東道","oneway":"yes","sidewalk":"both","surface":"concrete","heading":"<strong>Chinese From the Past</strong>","description":"Old romanisation system for Chinese place name transliterations, now known as Guangdong"},"geometry":{"type":"LineString","coordinates":[[114.167181,22.3190553],[114.1671788,22.3190679],[114.1670114,22.3198717],[114.1669158,22.3203437]]},"id":"way/100507099"},{"type":"Feature","properties":{"@id":"way/101176341","highway":"unclassified","name":"廣東道 Canton Road","name:en":"Canton Road","name:zh":"廣東道","heading":"<strong>Chinese From the Past</strong>","description":"Old romanisation system for Chinese place name transliterations, now known as Guangdong"},"geometry":{"type":"LineString","coordinates":[[114.1668762,22.3204991],[114.1666323,22.3216322]]},"id":"way/101176341"},{"type":"Feature","properties":{"@id":"way/101176344","carriageway":"single","highway":"unclassified","name":"廣東道 Canton Road","name:en":"Canton Road","name:zh":"廣東道","oneway":"yes","sidewalk":"both","heading":"<strong>Chinese From the Past</strong>","description":"Old romanisation system for Chinese place name transliterations, now known as Guangdong"},"geometry":{"type":"LineString","coordinates":[[114.1684974,22.3126662],[114.1684796,22.3127555],[114.1683196,22.3135053]]},"id":"way/101176344"},{"type":"Feature","properties":{"@id":"way/101176348","highway":"unclassified","name":"廣東道 Canton Road","name:en":"Canton Road","name:zh":"廣東道","oneway":"yes","surface":"concrete","heading":"<strong>Chinese From the Past</strong>","description":"Old romanisation system for Chinese place name transliterations, now known as Guangdong"},"geometry":{"type":"LineString","coordinates":[[114.1666323,22.3216322],[114.1664288,22.3226105],[114.166228,22.3235753]]},"id":"way/101176348"},{"type":"Feature","properties":{"@id":"way/101476147","highway":"service","name":"廣東道 Canton Road","name:en":"Canton Road","name:zh":"廣東道","oneway":"yes","surface":"concrete","heading":"<strong>Chinese From the Past</strong>","description":"Old romanisation system for Chinese place name transliterations, now known as Guangdong"},"geometry":{"type":"LineString","coordinates":[[114.1687887,22.311095],[114.1687829,22.3111273],[114.1687798,22.3111447],[114.1686605,22.3117357]]},"id":"way/101476147"},{"type":"Feature","properties":{"@id":"way/101476154","highway":"secondary","name":"甘肅街 Kansu Street","name:en":"Kansu Street","name:zh":"甘肅街","oneway":"yes","heading":"<strong>Chinese From the Past</strong>","description":"Old romanisation system for Chinese place name transliterations, now known as Gansu"},"geometry":{"type":"LineString","coordinates":[[114.1678921,22.3091933],[114.1678157,22.3091781],[114.1677466,22.3091733],[114.1677193,22.3091734],[114.1676623,22.3091699]]},"id":"way/101476154"},{"type":"Feature","properties":{"@id":"way/102149730","highway":"secondary","lanes":2,"name":"上海街 Shanghai Street","name:en":"Shanghai Street","name:zh":"上海街","oneway":"yes","surface":"concrete","heading":"<strong>Chinese From Elsewhere</strong>","description":"Mandarin pinyin was used rather than Cantonese romanisation"},"geometry":{"type":"LineString","coordinates":[[114.167289,22.3234086],[114.1672864,22.3232688]]},"id":"way/102149730"},{"type":"Feature","properties":{"@id":"way/102422597","abutters":"retail","designation":"小販認可區 Hawker permitted place","designation:en":"Hawker permitted place","designation:wikidata":"Q10263158","designation:zh":"小販認可區","highway":"pedestrian","kerb:both":"raised","lanes":1,"marketplace":"yes","motor_vehicle":"yes","name":"廣東道 Canton Road","name:en":"Canton Road","name:zh":"廣東道","oneway":"yes","sidewalk":"both","surface":"concrete","heading":"<strong>Chinese From the Past</strong>","description":"Old romanisation system for Chinese place name transliterations, now known as Guangdong"},"geometry":{"type":"LineString","coordinates":[[114.1675667,22.3171723],[114.1674153,22.31794],[114.1673294,22.3183396],[114.167243,22.3187513],[114.1672303,22.3187994]]},"id":"way/102422597"},{"type":"Feature","properties":{"@id":"way/102422598","highway":"tertiary","name":"山東街 Shantung Street","name:en":"Shantung Street","name:zh":"山東街","oneway":"yes","surface":"concrete","heading":"<strong>Chinese From the Past</strong>","description":"Old romanisation system for Chinese place name transliterations, now known as Shandong"},"geometry":{"type":"LineString","coordinates":[[114.1675731,22.3171443],[114.1675005,22.3171274],[114.1673166,22.3170868],[114.1670452,22.3170336],[114.1666748,22.3169537],[114.166568,22.3169347],[114.1663805,22.3169072]]},"id":"way/102422598"},{"type":"Feature","properties":{"@id":"way/102441822","abutters":"retail","fixme":"Street market?","fixme:amenity":"marketplace","name":"廣東道 Canton Road","name:en":"Canton Road","name:zh":"廣東道","oneway":"yes","surface":"concrete","heading":"<strong>Chinese From the Past</strong>","description":"Old romanisation system for Chinese place name transliterations, now known as Guangdong"},"geometry":{"type":"LineString","coordinates":[[114.1681879,22.3141569],[114.1680169,22.3149736]]},"id":"way/102441822"},{"type":"Feature","properties":{"@id":"way/102441823","lanes":1,"name":"長沙街 Changsha Street","name:en":"Changsha Street","name:zh":"長沙街","oneway":"yes","surface":"concrete"},"geometry":{"type":"LineString","coordinates":[[114.1693881,22.3159607],[114.1688016,22.3158614]]},"id":"way/102441823"},{"type":"Feature","properties":{"@id":"way/102441826","name":"廣東道 Canton Road","name:en":"Canton Road","name:zh":"廣東道","oneway":"yes","heading":"<strong>Chinese From the Past</strong>","description":"Old romanisation system for Chinese place name transliterations, now known as Guangdong"},"geometry":{"type":"LineString","coordinates":[[114.1680169,22.3149736],[114.168008,22.3150455],[114.1677849,22.3161068],[114.1677705,22.3161776],[114.1677487,22.3162824],[114.1675921,22.3170395],[114.1675731,22.3171443]]},"id":"way/102441826"},{"type":"Feature","properties":{"@id":"way/102441829","abutters":"retail","fixme":"Street market?","fixme:amenity":"marketplace","name":"廣東道 Canton Road","name:en":"Canton Road","name:zh":"廣東道","oneway":"yes","surface":"concrete","heading":"<strong>Chinese From the Past</strong>","description":"Old romanisation system for Chinese place name transliterations, now known as Guangdong"},"geometry":{"type":"LineString","coordinates":[[114.1681879,22.3141569],[114.1683196,22.3135053]]},"id":"way/102441829"},{"type":"Feature","properties":{"@id":"way/102454129","highway":"secondary","lanes":3,"name":"上海街 Shanghai Street","name:en":"Shanghai Street","name:zh":"上海街","oneway":"yes","surface":"concrete","heading":"<strong>Chinese From Elsewhere</strong>","description":"Mandarin pinyin was used rather than Cantonese romanisation"},"geometry":{"type":"LineString","coordinates":[[114.1694498,22.3127358],[114.1694694,22.3126389],[114.1695574,22.3122173],[114.1696559,22.3117159],[114.1697451,22.3112265],[114.1698294,22.3107556]]},"id":"way/102454129"},{"type":"Feature","properties":{"@id":"way/102454138","highway":"pedestrian","lit":"yes","name":"雲南里 Yunnan Lane","name:en":"Yunnan Lane","name:zh":"雲南里","surface":"paving_stones","heading":"<strong>Chinese From Elsewhere</strong>","description":"Mandarin pinyin was used rather than Cantonese romanisation"},"geometry":{"type":"LineString","coordinates":[[114.1699029,22.3117561],[114.1698965,22.311793],[114.1698236,22.3121526],[114.1697965,22.3122614]]},"id":"way/102454138"},{"type":"Feature","properties":{"@id":"way/102506140","carriageway":"single","highway":"secondary","lanes":3,"name":"上海街 Shanghai Street","name:en":"Shanghai Street","name:zh":"上海街","oneway":"yes","sidewalk":"both","surface":"concrete","heading":"<strong>Chinese From Elsewhere</strong>","description":"Mandarin pinyin was used rather than Cantonese romanisation"},"geometry":{"type":"LineString","coordinates":[[114.169953,22.3100905],[114.1699833,22.309938],[114.1700657,22.3095241]]},"id":"way/102506140"},{"type":"Feature","properties":{"@id":"way/102640414","lanes":1,"name":"南京街 Nanking Street","name:en":"Nanking Street","name:zh":"南京街","oneway":"yes","surface":"concrete","heading":"<strong>Chinese From the Past</strong>","description":"Old romanisation system for Chinese place name transliterations, now known as Nanjing"},"geometry":{"type":"LineString","coordinates":[[114.1681615,22.3064738],[114.1686107,22.3063771]]},"id":"way/102640414"},{"type":"Feature","properties":{"@id":"way/102640418","lanes":1,"name":"甘肅街 Kansu Street","name:en":"Kansu Street","name:zh":"甘肅街","oneway":"yes","surface":"asphalt","heading":"<strong>Chinese From the Past</strong>","description":"Old romanisation system for Chinese place name transliterations, now known as Gansu"},"geometry":{"type":"LineString","coordinates":[[114.1701439,22.3088662],[114.1701787,22.3088008],[114.1702055,22.3087476],[114.1702317,22.3087223],[114.1702661,22.3087087],[114.1702952,22.3086989],[114.1703273,22.3086899],[114.17058,22.308635],[114.1706253,22.3086396],[114.1706744,22.3086507],[114.1707128,22.3086717],[114.1707383,22.3086933],[114.1707912,22.308768]]},"id":"way/102640418"},{"type":"Feature","properties":{"@id":"way/102640430","highway":"unclassified","lanes":1,"name":"寧波街 Ning Po Street","name:en":"Ning Po Street","name:zh":"寧波街","oneway":"yes","surface":"concrete","heading":"<strong>Chinese From the Past</strong>","description":"Old romanisation system for Chinese place name transliterations, now known as Ningbo"},"geometry":{"type":"LineString","coordinates":[[114.1696037,22.306798],[114.169196,22.3068913],[114.1687506,22.30699],[114.1683169,22.30709]]},"id":"way/102640430"},{"type":"Feature","properties":{"@id":"way/102640431","highway":"tertiary","lanes":1,"name":"山東街 Shantung Street","name:en":"Shantung Street","name:zh":"山東街","oneway":"yes","surface":"concrete","heading":"<strong>Chinese From the Past</strong>","description":"Old romanisation system for Chinese place name transliterations, now known as Shandong"},"geometry":{"type":"LineString","coordinates":[[114.1709017,22.3177051],[114.1710142,22.3177261],[114.1713768,22.3177941],[114.1714652,22.3178106]]},"id":"way/102640431"},{"type":"Feature","properties":{"@id":"way/102640437","highway":"unclassified","lanes":1,"name":"寧波街 Ning Po Street","name:en":"Ning Po Street","name:zh":"寧波街","oneway":"yes","surface":"asphalt","heading":"<strong>Chinese From the Past</strong>","description":"Old romanisation system for Chinese place name transliterations, now known as Ningbo"},"geometry":{"type":"LineString","coordinates":[[114.1704682,22.3066064],[114.1700429,22.3066972]]},"id":"way/102640437"},{"type":"Feature","properties":{"@id":"way/102640442","highway":"unclassified","lanes":1,"name":"寧波街 Ning Po Street","name:en":"Ning Po Street","name:zh":"寧波街","oneway":"yes","surface":"asphalt","heading":"<strong>Chinese From the Past</strong>","description":"Old romanisation system for Chinese place name transliterations, now known as Ningbo"},"geometry":{"type":"LineString","coordinates":[[114.1700429,22.3066972],[114.1696037,22.306798]]},"id":"way/102640442"},{"type":"Feature","properties":{"@id":"way/102640446","highway":"pedestrian","name":"南京街 Nanking Street","name:en":"Nanking Street","name:zh":"南京街","surface":"paving_stones","heading":"<strong>Chinese From the Past</strong>","description":"Old romanisation system for Chinese place name transliterations, now known as Nanjing"},"geometry":{"type":"LineString","coordinates":[[114.1707469,22.3058847],[114.170309,22.3059904],[114.1698992,22.3060851],[114.1694381,22.3061889]]},"id":"way/102640446"},{"type":"Feature","properties":{"@id":"way/102640451","highway":"secondary","lanes":3,"name":"上海街 Shanghai Street","name:en":"Shanghai Street","name:zh":"上海街","oneway":"yes","surface":"concrete","heading":"<strong>Chinese From Elsewhere</strong>","description":"Mandarin pinyin was used rather than Cantonese romanisation"},"geometry":{"type":"LineString","coordinates":[[114.1696037,22.306798],[114.1694381,22.3061889],[114.1693934,22.3060115],[114.1692996,22.3056462],[114.1692699,22.3055],[114.1692486,22.3053975]]},"id":"way/102640451"},{"type":"Feature","properties":{"@id":"way/102640465","lanes":1,"name":"南京街 Nanking Street","name:en":"Nanking Street","name:zh":"南京街","oneway":"yes","surface":"concrete","heading":"<strong>Chinese From the Past</strong>","description":"Old romanisation system for Chinese place name transliterations, now known as nanjing"},"geometry":{"type":"LineString","coordinates":[[114.1694381,22.3061889],[114.1691871,22.3062476],[114.1690146,22.3062833],[114.1686107,22.3063771]]},"id":"way/102640465"},{"type":"Feature","properties":{"@id":"way/102674713","foot":"no","highway":"primary","lanes":3,"name":"廣東道 Canton Road","name:en":"Canton Road","name:zh":"廣東道","oneway":"yes","surface":"concrete","heading":"<strong>Chinese From the Past</strong>","description":"Old romanisation system for Chinese place name transliterations, now known as Guangdong"},"geometry":{"type":"LineString","coordinates":[[114.1668472,22.3058563],[114.1668548,22.305929],[114.1668686,22.3059933]]},"id":"way/102674713"},{"type":"Feature","properties":{"@id":"way/102674737","highway":"primary","lanes":3,"name":"廣東道 Canton Road","name:en":"Canton Road","name:zh":"廣東道","oneway":"yes","surface":"concrete","heading":"<strong>Chinese From the Past</strong>","description":"Old romanisation system for Chinese place name transliterations, now known as Guangdong"},"geometry":{"type":"LineString","coordinates":[[114.1670143,22.305827],[114.1670477,22.3057036],[114.1671222,22.3055056]]},"id":"way/102674737"},{"type":"Feature","properties":{"@id":"way/102821053","lanes":1,"name":"宜昌街 Ichang Street","name:en":"Ichang Street","name:zh":"宜昌街","oneway":"yes","surface":"asphalt","heading":"<strong>Chinese From the Past</strong>","description":"Old romanisation system for Chinese place name transliterations, now known as Yichang"},"geometry":{"type":"LineString","coordinates":[[114.1705585,22.2969686],[114.1711122,22.2970157]]},"id":"way/102821053"},{"type":"Feature","properties":{"@id":"way/102821071","highway":"primary","lanes":4,"name":"廣東道 Canton Road","name:en":"Canton Road","name:zh":"廣東道","oneway":"yes","sidewalk":"left","surface":"asphalt","heading":"<strong>Chinese From the Past</strong>","description":"Old romanisation system for Chinese place name transliterations, now known as Guangdong"},"geometry":{"type":"LineString","coordinates":[[114.1680195,22.3013485],[114.1679681,22.3017845],[114.1679415,22.3019942],[114.1679584,22.3022662],[114.1680083,22.3025617],[114.1680243,22.3027203],[114.1680214,22.3028369],[114.1680187,22.3029419]]},"id":"way/102821071"},{"type":"Feature","properties":{"@id":"way/102821120","highway":"secondary","lanes":1,"name":"廣東道 Canton Road","name:en":"Canton Road","name:zh":"廣東道","oneway":"yes","sidewalk":"no","surface":"asphalt","heading":"<strong>Chinese From the Past</strong>","description":"Old romanisation system for Chinese place name transliterations, now known as Guangdong"},"geometry":{"type":"LineString","coordinates":[[114.1687366,22.2997655],[114.1686302,22.2999047],[114.1686029,22.299933],[114.1685349,22.3000009]]},"id":"way/102821120"},{"type":"Feature","properties":{"@id":"way/102826316","highway":"primary","lanes":3,"name":"廣東道 Canton Road","name:en":"Canton Road","name:zh":"廣東道","oneway":"yes","surface":"asphalt","heading":"<strong>Chinese From the Past</strong>","description":"Old romanisation system for Chinese place name transliterations, now known as Guangdong"},"geometry":{"type":"LineString","coordinates":[[114.1680149,22.3030252],[114.1679824,22.3031905],[114.1678933,22.3035777],[114.167783,22.3039441],[114.1677222,22.304146],[114.1675837,22.304498],[114.1675001,22.3046387],[114.1674129,22.3047801]]},"id":"way/102826316"},{"type":"Feature","properties":{"@id":"way/102826324","highway":"primary","lanes":3,"name":"廣東道 Canton Road","name:en":"Canton Road","name:zh":"廣東道","oneway":"yes","surface":"asphalt","heading":"<strong>Chinese From the Past</strong>","description":"Old romanisation system for Chinese place name transliterations, now known as Guangdong"},"geometry":{"type":"LineString","coordinates":[[114.1681395,22.303033],[114.1681429,22.3029512]]},"id":"way/102826324"},{"type":"Feature","properties":{"@id":"way/103239092","lanes":2,"lit":"yes","name":"九江街 Kiu Kiang Street","name:en":"Kiu Kiang Street","name:zh":"九江街","oneway":"yes","sidewalk":"both","surface":"concrete","heading":"<strong>Chinese From the Past</strong>","description":"Old romanisation system for Chinese place name transliterations, now known as Jiujiang"},"geometry":{"type":"LineString","coordinates":[[114.161683,22.3342988],[114.161292,22.333861]]},"id":"way/103239092"},{"type":"Feature","properties":{"@id":"way/103239104","name":"九江街 Kiu Kiang Street","name:en":"Kiu Kiang Street","name:zh":"九江街","oneway":"yes","surface":"concrete","heading":"<strong>Chinese From the Past</strong>","description":"Old romanisation system for Chinese place name transliterations, now known as Jiujiang"},"geometry":{"type":"LineString","coordinates":[[114.1604238,22.3328971],[114.1604312,22.3329218],[114.1604326,22.3329398],[114.1604322,22.3329615]]},"id":"way/103239104"},{"type":"Feature","properties":{"@id":"way/103274845","abutters":"retail","carriageway":"single","highway":"pedestrian","marketplace":"electronics","marketplace:opening_hours":"12:00-21:00","name":"桂林街 Kweilin Street","name:en":"Kweilin Street","name:zh":"桂林街","not:motor_vehicle:conditional":"no @ (12:00-21:00)","oneway":"yes","sidewalk":"both","sidewalk:both:surface":"paving_stones","surface":"asphalt","vehicle":"no","vehicle:conditional":"yes @ (21:00-12:00)","heading":"<strong>Chinese From the Past</strong>","description":"Old romanisation system for Chinese place name transliterations, now known as Guilin"},"geometry":{"type":"LineString","coordinates":[[114.1614186,22.3305474],[114.161164,22.3302715],[114.1611067,22.3302095]]},"id":"way/103274845"},{"type":"Feature","properties":{"@id":"way/103274862","name":"桂林街 Kweilin Street","name:en":"Kweilin Street","name:zh":"桂林街","surface":"concrete","heading":"<strong>Chinese From the Past</strong>","description":"Old romanisation system for Chinese place name transliterations, now known as Jiujiang"},"geometry":{"type":"LineString","coordinates":[[114.160059,22.329004],[114.1601096,22.3290601],[114.1604067,22.3294008]]},"id":"way/103274862"},{"type":"Feature","properties":{"@id":"way/103274864","lit":"yes","name":"桂林街 Kweilin Street","name:en":"Kweilin Street","name:zh":"桂林街","oneway":"yes","sidewalk":"both","surface":"concrete","heading":"<strong>Chinese From the Past</strong>","description":"Old romanisation system for Chinese place name transliterations, now known as Jiujiang"},"geometry":{"type":"LineString","coordinates":[[114.1611067,22.3302095],[114.1607575,22.3298009],[114.1604067,22.3294008]]},"id":"way/103274864"},{"type":"Feature","properties":{"@id":"way/103372430","name":"桂林街 Kweilin Street","name:en":"Kweilin Street","name:zh":"桂林街","oneway":"yes","sidewalk":"both","surface":"asphalt","heading":"<strong>Chinese From the Past</strong>","description":"Old romanisation system for Chinese place name transliterations, now known as Jiujiang"},"geometry":{"type":"LineString","coordinates":[[114.1634919,22.3328673],[114.1631195,22.3324479]]},"id":"way/103372430"},{"type":"Feature","properties":{"@id":"way/103411698","lanes":1,"lit":"yes","name":"九江街 Kiu Kiang Street","name:en":"Kiu Kiang Street","name:zh":"九江街","oneway":"yes","sidewalk:left":"yes","sidewalk:right":"separate","surface":"concrete","heading":"<strong>Chinese From the Past</strong>","description":"Old romanisation system for Chinese place name transliterations, now known as Jiujiang"},"geometry":{"type":"LineString","coordinates":[[114.1573622,22.3294386],[114.157696,22.3298175],[114.1577143,22.3298373],[114.1577354,22.3298497]]},"id":"way/103411698"},{"type":"Feature","properties":{"@id":"way/105307490","highway":"secondary","lanes":4,"lanes:backward":3,"lanes:forward":1,"name":"蕪湖街 Wuhu Street","name:en":"Wuhu Street","name:zh":"蕪湖街","surface":"asphalt","heading":"<strong>Chinese From Elsewhere</strong>","description":"Mandarin pinyin was used rather than Cantonese romanisation"},"geometry":{"type":"LineString","coordinates":[[114.1864641,22.3069684],[114.1864451,22.3069802],[114.1861113,22.3071891],[114.1858997,22.3073215],[114.1856672,22.307467],[114.1854614,22.3075958]]},"id":"way/105307490"},{"type":"Feature","properties":{"@id":"way/105307496","highway":"secondary","lanes":5,"lanes:backward":3,"lanes:forward":2,"name":"蕪湖街 Wuhu Street","name:en":"Wuhu Street","name:zh":"蕪湖街","surface":"asphalt","heading":"<strong>Chinese From Elsewhere</strong>","description":"Mandarin pinyin was used rather than Cantonese romanisation"},"geometry":{"type":"LineString","coordinates":[[114.1854614,22.3075958],[114.185061,22.3078495]]},"id":"way/105307496"},{"type":"Feature","properties":{"@id":"way/105307513","highway":"secondary","lanes":4,"lanes:backward":3,"lanes:forward":1,"name":"蕪湖街 Wuhu Street","name:en":"Wuhu Street","name:zh":"蕪湖街","surface":"asphalt","heading":"<strong>Chinese From Elsewhere</strong>","description":"Mandarin pinyin was used rather than Cantonese romanisation"},"geometry":{"type":"LineString","coordinates":[[114.1867008,22.3068202],[114.1865902,22.3068894]]},"id":"way/105307513"},{"type":"Feature","properties":{"@id":"way/105715031","highway":"tertiary","name":"浙江街 Chi Kiang Street","name:en":"Chi Kiang Street","name:zh":"浙江街","oneway":"yes","source":"Yahoo","surface":"asphalt","heading":"<strong>Chinese From the Past</strong>","description":"Old romanisation system for Chinese place name transliterations, now known as Zhejiang"},"geometry":{"type":"LineString","coordinates":[[114.1887508,22.315297],[114.1892338,22.3150524],[114.1903301,22.3145109]]},"id":"way/105715031"},{"type":"Feature","properties":{"@id":"way/106436297","highway":"primary","lanes":3,"name":"廣東道 Canton Road","name:en":"Canton Road","name:zh":"廣東道","oneway":"yes","surface":"concrete","heading":"<strong>Chinese From the Past</strong>","description":"Old romanisation system for Chinese place name transliterations, now known as Guangdong"},"geometry":{"type":"LineString","coordinates":[[114.1671366,22.3052065],[114.1669382,22.3055433],[114.1668727,22.3057111],[114.1668686,22.3057347],[114.1668472,22.3058563]]},"id":"way/106436297"},{"type":"Feature","properties":{"@id":"way/106436307","highway":"primary","lanes":3,"name":"廣東道 Canton Road","name:en":"Canton Road","name:zh":"廣東道","oneway":"yes","surface":"asphalt","heading":"<strong>Chinese From the Past</strong>","description":"Old romanisation system for Chinese place name transliterations, now known as Guangdong"},"geometry":{"type":"LineString","coordinates":[[114.1674129,22.3047801],[114.1673447,22.3048891]]},"id":"way/106436307"},{"type":"Feature","properties":{"@id":"way/111221961","highway":"footway","name":"北京道 Peking Road","name:en":"Peking Road","name:zh":"北京道","heading":"<strong>Chinese From the Past</strong>","description":"Old romanisation system for Chinese place name transliterations, now known as Beijing"},"geometry":{"type":"LineString","coordinates":[[114.1712246,22.2963569],[114.1711733,22.2963872],[114.1711232,22.2964135]]},"id":"way/111221961"},{"type":"Feature","properties":{"@id":"way/148784030","highway":"unclassified","lanes":2,"name":"廈門街 Amoy Street","name:en":"Amoy Street","name:zh":"廈門街","surface":"asphalt","heading":"<strong>Chinese From the Past</strong>","description":"Old romanisation system for Chinese place name transliterations, now known as Xiamen"},"geometry":{"type":"LineString","coordinates":[[114.1722291,22.2765124],[114.1722341,22.2764662],[114.1722379,22.2764436],[114.1722395,22.2764346],[114.172259,22.2762656],[114.1722008,22.2761463],[114.1720873,22.2759135]]},"id":"way/148784030"},{"type":"Feature","properties":{"@id":"way/148784099","highway":"unclassified","lanes":2,"maxlength:backward":5,"name":"廈門街 Amoy Street","name:en":"Amoy Street","name:zh":"廈門街","oneway":"no","surface":"concrete","heading":"<strong>Chinese From the Past</strong>","description":"Old romanisation system for Chinese place name transliterations, now known as Xiamen"},"geometry":{"type":"LineString","coordinates":[[114.1719236,22.2755786],[114.1718983,22.2754867],[114.1718885,22.2754407]]},"id":"way/148784099"},{"type":"Feature","properties":{"@id":"way/149524418","highway":"unclassified","lanes":1,"name":"廣東道 Canton Road","name:en":"Canton Road","name:zh":"廣東道","oneway":"yes","surface":"asphalt","heading":"<strong>Chinese From the Past</strong>","description":"Old romanisation system for Chinese place name transliterations, now known as Guangdong"},"geometry":{"type":"LineString","coordinates":[[114.1682011,22.3041733],[114.1681987,22.3038395],[114.1681936,22.3037711],[114.1681696,22.3037363],[114.1681095,22.3037132],[114.1679723,22.3037146]]},"id":"way/149524418"},{"type":"Feature","properties":{"@id":"way/149524419","highway":"secondary","lanes":2,"name":"廣東道 Canton Road","name:en":"Canton Road","name:zh":"廣東道","oneway":"yes","surface":"concrete","wikidata":"Q1040176","heading":"<strong>Chinese From the Past</strong>","description":"Old romanisation system for Chinese place name transliterations, now known as Guangdong"},"geometry":{"type":"LineString","coordinates":[[114.1679763,22.3057946],[114.1681615,22.3064738],[114.1683169,22.30709],[114.1684803,22.3077213],[114.1686347,22.3083098],[114.1688,22.3089798]]},"id":"way/149524419"},{"type":"Feature","properties":{"@id":"way/149524423","highway":"secondary","lanes":2,"name":"甘肅街 Kansu Street","name:en":"Kansu Street","name:zh":"甘肅街","oneway":"yes","surface":"concrete","heading":"<strong>Chinese From the Past</strong>","description":"Old romanisation system for Chinese place name transliterations, now known as Gangsu"},"geometry":{"type":"LineString","coordinates":[[114.1712781,22.3084117],[114.1712588,22.3084155],[114.1712269,22.3084214],[114.1711926,22.3084291],[114.1709535,22.3084837],[114.1707754,22.3085259],[114.1707392,22.3085345],[114.1705274,22.3085798],[114.1701865,22.3086558],[114.1700929,22.3086767],[114.1699437,22.3087103],[114.1696936,22.3087773],[114.1695509,22.3088098],[114.1692429,22.3088798],[114.1688,22.3089798]]},"id":"way/149524423"},{"type":"Feature","properties":{"@id":"way/149524451","highway":"secondary","lanes":3,"name":"上海街 Shanghai Street","name:en":"Shanghai Street","name:zh":"上海街","oneway":"yes","surface":"concrete","heading":"<strong>Chinese From Elsewhere</strong>","description":"Mandarin pinyin was used rather than Cantonese romanisation"},"geometry":{"type":"LineString","coordinates":[[114.1700929,22.3086767],[114.1699187,22.3080225],[114.1697644,22.307413],[114.1696037,22.306798]]},"id":"way/149524451"},{"type":"Feature","properties":{"@id":"way/149524453","highway":"tertiary","lanes":2,"name":"上海街 Shanghai Street","name:en":"Shanghai Street","name:zh":"上海街","oneway":"yes","surface":"concrete","heading":"<strong>Chinese From Elsewhere</strong>","description":"Mandarin pinyin was used rather than Cantonese romanisation"},"geometry":{"type":"LineString","coordinates":[[114.1692486,22.3053975],[114.1692522,22.3053096],[114.1691511,22.3048394],[114.1691954,22.3042367],[114.1692715,22.3031597],[114.1692731,22.3031396],[114.1692752,22.3031125],[114.1692795,22.3030372]]},"id":"way/149524453"},{"type":"Feature","properties":{"@id":"way/149555141","highway":"unclassified","lanes":1,"name":"南京街 Nanking Street","name:en":"Nanking Street","name:zh":"南京街","oneway":"yes","surface":"concrete","heading":"<strong>Chinese From the Past</strong>","description":"Old romanisation system for Chinese place name transliterations, now known as Nanjing"},"geometry":{"type":"LineString","coordinates":[[114.1715141,22.3059379],[114.171448,22.3059331],[114.1708578,22.3058972],[114.1708139,22.3059078],[114.17079,22.3059315],[114.1707708,22.3059773]]},"id":"way/149555141"},{"type":"Feature","properties":{"@id":"way/149555143","lanes":2,"name":"南京街 Nanking Street","name:en":"Nanking Street","name:zh":"南京街","oneway":"yes","surface":"concrete","heading":"<strong>Chinese From the Past</strong>","description":"Old romanisation system for Chinese place name transliterations, now known as Nanjing"},"geometry":{"type":"LineString","coordinates":[[114.1716071,22.3061248],[114.1717068,22.3061345],[114.1726348,22.3062227]]},"id":"way/149555143"},{"type":"Feature","properties":{"@id":"way/149555146","highway":"unclassified","lanes":1,"name":"寧波街 Ning Po Street","name:en":"Ning Po Street","name:zh":"寧波街","oneway":"yes","surface":"asphalt","heading":"<strong>Chinese From the Past</strong>","description":"Old romanisation system for Chinese place name transliterations, now known as Ningbo"},"geometry":{"type":"LineString","coordinates":[[114.1704682,22.3066064],[114.1709068,22.3065034],[114.1714115,22.3065324],[114.1714572,22.3065345]]},"id":"way/149555146"},{"type":"Feature","properties":{"@id":"way/149555162","highway":"unclassified","lanes":1,"name":"吳松街 Woosung Street","name:en":"Woosung Street","name:zh":"吳松街","oneway":"yes","surface":"concrete","heading":"<strong>Chinese From the Past</strong>","description":"Old romanisation system for Chinese place name transliterations, now known as Wusong"},"geometry":{"type":"LineString","coordinates":[[114.1702033,22.305208],[114.1701165,22.3047837],[114.1701648,22.3042945],[114.170238,22.303246],[114.1702404,22.3032252],[114.1702441,22.3031866],[114.1702498,22.3031142]]},"id":"way/149555162"},{"type":"Feature","properties":{"@id":"way/149555165","highway":"unclassified","lanes":1,"name":"吳松街 Woosung Street","name:en":"Woosung Street","name:zh":"吳松街","oneway":"yes","surface":"concrete","heading":"<strong>Chinese From the Past</strong>","description":"Old romanisation system for Chinese place name transliterations, now known as Wusong"},"geometry":{"type":"LineString","coordinates":[[114.1709535,22.3084837],[114.1707831,22.3078243],[114.170627,22.3072205],[114.1704682,22.3066064],[114.170309,22.3059904],[114.1701366,22.3053236]]},"id":"way/149555165"},{"type":"Feature","properties":{"@id":"way/150771600","name":"廣東道 Canton Road","name:en":"Canton Road","name:zh":"廣東道","oneway":"yes","surface":"concrete","heading":"<strong>Chinese From the Past</strong>","description":"Old romanisation system for Chinese place name transliterations, now known as Guangdong"},"geometry":{"type":"LineString","coordinates":[[114.16624,22.32368],[114.1661681,22.3240331],[114.1661534,22.3241169]]},"id":"way/150771600"},{"type":"Feature","properties":{"@id":"way/150771643","highway":"secondary","lanes":3,"name":"上海街 Shanghai Street","name:en":"Shanghai Street","name:zh":"上海街","oneway":"yes","surface":"concrete","heading":"<strong>Chinese From Elsewhere</strong>","description":"Mandarin pinyin was used rather than Cantonese romanisation"},"geometry":{"type":"LineString","coordinates":[[114.1674764,22.3222112],[114.1675182,22.3220013],[114.1675284,22.3219503],[114.1675376,22.321908],[114.1675586,22.3217986]]},"id":"way/150771643"},{"type":"Feature","properties":{"@id":"way/150801676","lanes":2,"name":"東莞街 Tung Kun Street","name:en":"Tung Kun Street","name:zh":"東莞街","oneway":"yes","surface":"concrete","heading":"<strong>Chinese From the Past</strong>","description":"Old romanisation system for Chinese place name transliterations, now known as Dongguan"},"geometry":{"type":"LineString","coordinates":[[114.169277,22.3111705],[114.1689502,22.3111201],[114.1687887,22.311095],[114.1686434,22.3110688],[114.1677399,22.3109122]]},"id":"way/150801676"},{"type":"Feature","properties":{"@id":"way/151355576","highway":"pedestrian","kerb:both":"no","lane_markings":"no","lanes":1,"lanes:marked":1,"lanes:unmarked":1,"name":"桂林街 Kweilin Street","name:en":"Kweilin Street","name:zh":"桂林街","oneway":"no","passing_places":"yes","sidewalk":"no","surface":"paving_stones","heading":"<strong>Chinese From the Past</strong>","description":"Old romanisation system for Chinese place name transliterations, now known as Jiujiang"},"geometry":{"type":"LineString","coordinates":[[114.1618812,22.3311367],[114.161906,22.3311628],[114.1619146,22.3311724],[114.1620332,22.3313064],[114.1622134,22.3315064],[114.162244,22.3315158],[114.1622984,22.3315325],[114.162355,22.3315962]]},"id":"way/151355576"},{"type":"Feature","properties":{"@id":"way/151355600","highway":"tertiary","lanes":1,"name":"桂林街 Kweilin Street","name:en":"Kweilin Street","name:zh":"桂林街","oneway":"yes","surface":"concrete","heading":"<strong>Chinese From the Past</strong>","description":"Old romanisation system for Chinese place name transliterations, now known as Jiujiang"},"geometry":{"type":"LineString","coordinates":[[114.1636108,22.3331191],[114.1636681,22.3330914],[114.1637219,22.3330977],[114.1637681,22.3331324],[114.1638787,22.3332514],[114.16393,22.3333098]]},"id":"way/151355600"},{"type":"Feature","properties":{"@id":"way/151396666","lit":"yes","name":"黃埔街 Whampoa Street","name:en":"Whampoa Street","name:zh":"黃埔街","oneway":"yes","sidewalk":"left","surface":"asphalt","heading":"<strong>Chinese From the Past</strong>","description":"Old romanisation system for Chinese place name transliterations, now known as Huangpu"},"geometry":{"type":"LineString","coordinates":[[114.1853471,22.3071007],[114.1848737,22.3064708]]},"id":"way/151396666"},{"type":"Feature","properties":{"@id":"way/151396671","highway":"trunk_link","lanes":2,"name":"蕪湖街 Wuhu Street","name:en":"Wuhu Street","name:zh":"蕪湖街","oneway":"yes","surface":"asphalt","heading":"<strong>Chinese From Elsewhere</strong>","description":"Mandarin pinyin was used rather than Cantonese romanisation"},"geometry":{"type":"LineString","coordinates":[[114.1840071,22.3085059],[114.1838305,22.3086566],[114.1837138,22.3087149],[114.183636,22.308741],[114.1834746,22.308762]]},"id":"way/151396671"},{"type":"Feature","properties":{"@id":"way/151396672","change:forward":"no","change:lanes:backward":"yes|not_right","highway":"secondary","lanes":3,"lanes:backward":2,"lanes:forward":1,"name":"蕪湖街 Wuhu Street","name:en":"Wuhu Street","name:zh":"蕪湖街","surface":"asphalt","heading":"<strong>Chinese From Elsewhere</strong>","description":"Mandarin pinyin was used rather than Cantonese romanisation"},"geometry":{"type":"LineString","coordinates":[[114.1840071,22.3085059],[114.1841002,22.3084466],[114.1841777,22.3083992]]},"id":"way/151396672"},{"type":"Feature","properties":{"@id":"way/151396673","destination":"Hung Hom","highway":"trunk_link","lanes":1,"name":"蕪湖街 Wuhu Street","name:en":"Wuhu Street","name:zh":"蕪湖街","oneway":"yes","surface":"asphalt","heading":"<strong>Chinese From Elsewhere</strong>","description":"Mandarin pinyin was used rather than Cantonese romanisation"},"geometry":{"type":"LineString","coordinates":[[114.1838539,22.3088539],[114.183848,22.3088185],[114.1838466,22.3087695],[114.1838808,22.308674],[114.1840071,22.3085059]]},"id":"way/151396673"},{"type":"Feature","properties":{"@id":"way/152073812","carriageway":"single","highway":"secondary","lanes":3,"name":"廣東道 Canton Road","name:en":"Canton Road","name:zh":"廣東道","oneway":"yes","sidewalk":"both","surface":"concrete","heading":"<strong>Chinese From the Past</strong>","description":"Old romanisation system for Chinese place name transliterations, now known as Guangdong"},"geometry":{"type":"LineString","coordinates":[[114.168839,22.2980021],[114.1689347,22.2974722],[114.1689871,22.2972139],[114.1690126,22.2971045],[114.1691267,22.2966142],[114.1691282,22.2966074],[114.1692388,22.2961483],[114.1692647,22.2960244],[114.1693001,22.2958695],[114.1693541,22.2956243],[114.169372,22.2955419],[114.1694156,22.2953151],[114.1694787,22.2950057],[114.1695619,22.2946287],[114.1695735,22.2945892],[114.1695831,22.2945592],[114.169604,22.2944955]]},"id":"way/152073812"},{"type":"Feature","properties":{"@id":"way/152073849","highway":"unclassified","lanes":1,"name":"北京道 Peking Road","name:en":"Peking Road","name:zh":"北京道","oneway":"yes","surface":"concrete","heading":"<strong>Chinese From the Past</strong>","description":"Old romanisation system for Chinese place name transliterations, now known as Beijing"},"geometry":{"type":"LineString","coordinates":[[114.1703122,22.2962818],[114.1706408,22.2963162],[114.1710328,22.2963514],[114.1710887,22.2963749],[114.1711232,22.2964135]]},"id":"way/152073849"},{"type":"Feature","properties":{"@id":"way/152359929","lanes":1,"name":"江蘇街 Kiang Su Street","name:en":"Kiang Su Street","name:zh":"江蘇街","oneway":"yes","source":"Yahoo","surface":"asphalt","heading":"<strong>Chinese From the Past</strong>","description":"Old romanisation system for Chinese place name transliterations, now known as Jiangsu"},"geometry":{"type":"LineString","coordinates":[[114.1869819,22.3163167],[114.1870657,22.3163368],[114.1874627,22.3163337],[114.1875198,22.3163333]]},"id":"way/152359929"},{"type":"Feature","properties":{"@id":"way/152359931","highway":"unclassified","name":"貴州街 Kwei Chow Street","name:en":"Kwei Chow Street","name:zh":"貴州街","oneway":"yes","surface":"asphalt","heading":"<strong>Chinese From the Past</strong>","description":"Old romanisation system for Chinese place name transliterations, now known as Guizhou"},"geometry":{"type":"LineString","coordinates":[[114.1920742,22.3171228],[114.1918295,22.3173107],[114.1916013,22.3175007],[114.1912105,22.3178095],[114.1911588,22.3178508],[114.1910872,22.3179068]]},"id":"way/152359931"},{"type":"Feature","properties":{"@id":"way/203845948","highway":"unclassified","name":"乙明邨街 Jat Min Chuen Street","name:en":"Jat Min Chuen Street","name:zh":"乙明邨街","heading":"<strong>Chinese From Elsewhere</strong>","description":"Hakka romanisation was used rather than Cantonese romanisation"},"geometry":{"type":"LineString","coordinates":[[114.1904502,22.3755938],[114.1905226,22.3756695],[114.1905722,22.3757116],[114.1906098,22.3757414],[114.1908847,22.3758543],[114.1914008,22.3760528],[114.1917187,22.3761752],[114.191971,22.3762722],[114.1920514,22.3762871],[114.1921306,22.3762858],[114.1921775,22.3762759],[114.1922298,22.3762523],[114.1922875,22.3762114],[114.1923183,22.3761804],[114.1924169,22.3760606],[114.1925199,22.3758498],[114.192547,22.3757998]]},"id":"way/203845948"},{"type":"Feature","properties":{"@id":"way/203845949","highway":"unclassified","name":"乙明邨街 Jat Min Chuen Street","name:en":"Jat Min Chuen Street","name:zh":"乙明邨街","heading":"<strong>Chinese From Elsewhere</strong>","description":"Hakka romanisation was used rather than Cantonese romanisation"},"geometry":{"type":"LineString","coordinates":[[114.192547,22.3757998],[114.1925825,22.375738]]},"id":"way/203845949"},{"type":"Feature","properties":{"@id":"way/244581287","highway":"primary","lanes":3,"name":"廣東道 Canton Road","name:en":"Canton Road","name:zh":"廣東道","oneway":"yes","surface":"concrete","heading":"<strong>Chinese From the Past</strong>","description":"Old romanisation system for Chinese place name transliterations, now known as Guangdong"},"geometry":{"type":"LineString","coordinates":[[114.1675431,22.3048486],[114.1677206,22.3045351],[114.1677345,22.3044898],[114.1678375,22.304154],[114.1679723,22.3037146]]},"id":"way/244581287"},{"type":"Feature","properties":{"@id":"way/245457934","highway":"secondary","lanes":2,"name":"廣東道 Canton Road","name:en":"Canton Road","name:zh":"廣東道","oneway":"yes","surface":"asphalt","heading":"<strong>Chinese From the Past</strong>","description":"Old romanisation system for Chinese place name transliterations, now known as Guangdong"},"geometry":{"type":"LineString","coordinates":[[114.1685585,22.3002122],[114.168544,22.3000598],[114.1685349,22.3000009]]},"id":"way/245457934"},{"type":"Feature","properties":{"@id":"way/254000148","highway":"primary","lanes":3,"name":"廣東道 Canton Road","name:en":"Canton Road","name:zh":"廣東道","oneway":"yes","surface":"concrete","heading":"<strong>Chinese From the Past</strong>","description":"Old romanisation system for Chinese place name transliterations, now known as Guangdong"},"geometry":{"type":"LineString","coordinates":[[114.1671222,22.3055056],[114.1672802,22.3052471],[114.167427,22.305033],[114.167474,22.3049564]]},"id":"way/254000148"},{"type":"Feature","properties":{"@id":"way/255230203","highway":"secondary","lanes":2,"name":"廣東道 Canton Road","name:en":"Canton Road","name:zh":"廣東道","oneway":"yes","surface":"concrete","heading":"<strong>Chinese From the Past</strong>","description":"Old romanisation system for Chinese place name transliterations, now known as Guangdong"},"geometry":{"type":"LineString","coordinates":[[114.1688,22.3089798],[114.1689234,22.3094339],[114.1689211,22.3095266],[114.169029,22.3099383]]},"id":"way/255230203"},{"type":"Feature","properties":{"@id":"way/255230314","highway":"secondary","lanes":3,"name":"甘肅街 Kansu Street","name:en":"Kansu Street","name:zh":"甘肅街","oneway":"yes","surface":"concrete","wikidata":"Q20017204","heading":"<strong>Chinese From the Past</strong>","description":"Old romanisation system for Chinese place name transliterations, now known as Gansu"},"geometry":{"type":"LineString","coordinates":[[114.1688,22.3089798],[114.1685251,22.3090435]]},"id":"way/255230314"},{"type":"Feature","properties":{"@id":"way/255230668","construction":"primary_link","demolished:end_date":2022,"demolished:highway":"primary_link","highway":"construction","name":"甘肅街 Kansu Street","name:en":"Kansu Street","name:zh":"甘肅街","oneway":"yes","sidewalk":"no","turn:lanes":"through|through;right","heading":"<strong>Chinese From the Past</strong>","description":"Old romanisation system for Chinese place name transliterations, now known as Gansu"},"geometry":{"type":"LineString","coordinates":[[114.1678921,22.3091933],[114.1678296,22.3092584],[114.1678081,22.3092781],[114.1677513,22.3093234],[114.167637,22.3093672]]},"id":"way/255230668"},{"type":"Feature","properties":{"@id":"way/263839971","highway":"secondary","lanes":2,"name":"上海街 Shanghai Street","name:en":"Shanghai Street","name:zh":"上海街","oneway":"yes","surface":"asphalt","heading":"<strong>Chinese From Elsewhere</strong>","description":"Mandarin pinyin was used rather than Cantonese romanisation"},"geometry":{"type":"LineString","coordinates":[[114.1681318,22.3190943],[114.1681617,22.3189444],[114.1681671,22.3189166],[114.1681944,22.3187645],[114.1683323,22.3180954],[114.1684,22.3177594],[114.1684026,22.3177464],[114.1684718,22.317396],[114.1684911,22.3173134],[114.1685151,22.3172035],[114.1686778,22.3164227],[114.1686954,22.3163435],[114.1687158,22.3162476],[114.1688016,22.3158614],[114.1689401,22.3152172],[114.1689561,22.315141],[114.1689771,22.3150435],[114.1691199,22.3143339],[114.1692614,22.3136721],[114.169407,22.3129475],[114.1694133,22.3129161],[114.1694304,22.3128333],[114.1694498,22.3127358]]},"id":"way/263839971"},{"type":"Feature","properties":{"@id":"way/298344274","highway":"unclassified","name":"成都道 Chengtu Road","name:en":"Chengtu Road","name:zh":"成都道","oneway":"yes","surface":"concrete","heading":"<strong>Chinese From the Past</strong>","description":"Old romanisation system for Chinese place name transliterations, now known as Chengdu"},"geometry":{"type":"LineString","coordinates":[[114.1547266,22.2496208],[114.1547495,22.2492246]]},"id":"way/298344274"},{"type":"Feature","properties":{"@id":"way/311890783","highway":"tertiary","lanes":2,"name":"山東街 Shantung Street","name:en":"Shantung Street","name:zh":"山東街","oneway":"yes","surface":"concrete","heading":"<strong>Chinese From the Past</strong>","description":"Old romanisation system for Chinese place name transliterations, now known as Shandong"},"geometry":{"type":"LineString","coordinates":[[114.1690734,22.3174155],[114.1690016,22.3174026],[114.1686821,22.3173461],[114.1685953,22.3173312],[114.1684911,22.3173134],[114.1684122,22.3172975],[114.1681495,22.3172491],[114.1680482,22.3172304],[114.1679524,22.3172124],[114.1676655,22.3171608],[114.1675731,22.3171443]]},"id":"way/311890783"},{"type":"Feature","properties":{"@id":"way/316843308","abutters":"retail","designation":"小販認可區 Hawker permitted place","designation:en":"Hawker permitted place","designation:wikidata":"Q10263158","designation:zh":"小販認可區","highway":"pedestrian","kerb:both":"no","lanes":1,"lanes:marked":1,"lanes:unmarked":1,"marketplace":"separate","motor_vehicle":"yes","name":"深圳街 Shamchun Street","name:en":"Shamchun Street","name:zh":"深圳街","oneway":"no","passing_places":"no","sidewalk":"no","surface":"concrete:plates","heading":"<strong>Chinese From the Past</strong>","description":"Old romanisation system for Chinese place name transliterations, now known as Shenzhen"},"geometry":{"type":"LineString","coordinates":[[114.1661949,22.3195243],[114.1664157,22.3193804]]},"id":"way/316843308"},{"type":"Feature","properties":{"@id":"way/355377701","highway":"primary_link","lanes":1,"name":"廣東道 Canton Road","name:en":"Canton Road","name:zh":"廣東道","oneway":"yes","surface":"asphalt","heading":"<strong>Chinese From the Past</strong>","description":"Old romanisation system for Chinese place name transliterations, now known as Guangdong"},"geometry":{"type":"LineString","coordinates":[[114.1684041,22.3004645],[114.1683905,22.3004225],[114.168371,22.3003782],[114.1683019,22.30037],[114.1682348,22.300382]]},"id":"way/355377701"},{"type":"Feature","properties":{"@id":"way/426652682","lanes":1,"name":"廈門街 Amoy Street","name:en":"Amoy Street","name:zh":"廈門街","oneway":"yes","surface":"asphalt","turning_circle":"yes","way:highway":"residential","heading":"<strong>Chinese From the Past</strong>","description":"Old romanisation system for Chinese place name transliterations, now known as Xiamen"},"geometry":{"type":"LineString","coordinates":[[114.1719236,22.2755786],[114.1719164,22.2755224],[114.1719153,22.2755032],[114.1719161,22.2754848],[114.1719192,22.2754667],[114.1719246,22.275449],[114.1719246,22.2754408],[114.1719229,22.2754329],[114.1719192,22.2754256],[114.1719139,22.2754192],[114.171907,22.2754142],[114.1718992,22.2754107],[114.1718906,22.275409],[114.1718818,22.2754092]]},"id":"way/426652682"},{"type":"Feature","properties":{"@id":"way/435421059","name":"江蘇街 Kiang Su Street","name:en":"Kiang Su Street","name:zh":"江蘇街","oneway":"yes","source":"Yahoo","surface":"asphalt","heading":"<strong>Chinese From the Past</strong>","description":"Old romanisation system for Chinese place name transliterations, now known as Jiangsu"},"geometry":{"type":"LineString","coordinates":[[114.1869819,22.3163167],[114.1864208,22.3163032]]},"id":"way/435421059"},{"type":"Feature","properties":{"@id":"way/435421062","highway":"tertiary","lanes":3,"name":"山東街 Shantung Street","name:en":"Shantung Street","name:zh":"山東街","oneway":"yes","surface":"concrete","heading":"<strong>Chinese From the Past</strong>","description":"Old romanisation system for Chinese place name transliterations, now known as Shandong"},"geometry":{"type":"LineString","coordinates":[[114.1726054,22.3180242],[114.1733569,22.3181748]]},"id":"way/435421062"},{"type":"Feature","properties":{"@id":"way/441107658","carriageway":"single","highway":"secondary","lanes":4,"name":"上海街 Shanghai Street","name:en":"Shanghai Street","name:zh":"上海街","oneway":"yes","sidewalk":"both","surface":"concrete","heading":"<strong>Chinese From Elsewhere</strong>","description":"Mandarin pinyin was used rather than Cantonese romanisation"},"geometry":{"type":"LineString","coordinates":[[114.1677922,22.3206261],[114.1678601,22.3203865],[114.1679272,22.3200803],[114.1679367,22.3200391],[114.1681014,22.3192403],[114.1681066,22.3192151],[114.1681318,22.3190943]]},"id":"way/441107658"},{"type":"Feature","properties":{"@id":"way/441937732","carriageway":"single","highway":"secondary","lanes":3,"name":"上海街 Shanghai Street","name:en":"Shanghai Street","name:zh":"上海街","oneway":"yes","sidewalk":"both","surface":"concrete","heading":"<strong>Chinese From Elsewhere</strong>","description":"Mandarin pinyin was used rather than Cantonese romanisation"},"geometry":{"type":"LineString","coordinates":[[114.1698294,22.3107556],[114.1698457,22.310668],[114.169953,22.3100905]]},"id":"way/441937732"},{"type":"Feature","properties":{"@id":"way/449337016","highway":"unclassified","name":"貴州街 Kwei Chow Street","name:en":"Kwei Chow Street","name:zh":"貴州街","oneway":"yes","heading":"<strong>Chinese From the Past</strong>","description":"Old romanisation system for Chinese place name transliterations, now known as Guizhou"},"geometry":{"type":"LineString","coordinates":[[114.1924173,22.3168552],[114.1923578,22.3169017],[114.1920742,22.3171228]]},"id":"way/449337016"},{"type":"Feature","properties":{"@id":"way/480374141","highway":"tertiary","lanes":2,"name":"浙江街 Chi Kiang Street","name:en":"Chi Kiang Street","name:zh":"浙江街","start_date":"2017-09-07","heading":"<strong>Chinese From the Past</strong>","description":"Old romanisation system for Chinese place name transliterations, now known as Zhejiang"},"geometry":{"type":"LineString","coordinates":[[114.1904626,22.3123582],[114.1904843,22.3124155],[114.1905021,22.3124627],[114.19052,22.31251],[114.19061,22.31269],[114.1907504,22.3128738],[114.1908923,22.3130232],[114.19101,22.3131258],[114.19121,22.3133],[114.191288,22.313373],[114.191346,22.313442],[114.191394,22.313528],[114.191414,22.313578],[114.191429,22.31363],[114.191438,22.313684],[114.19144,22.31374],[114.191435,22.313806],[114.19142,22.31387],[114.19139,22.313953],[114.191349,22.314032],[114.191292,22.3141],[114.191242,22.314142],[114.19119,22.314175],[114.191099,22.314219],[114.19102,22.31425],[114.1903711,22.3144954],[114.1903301,22.3145109]]},"id":"way/480374141"},{"type":"Feature","properties":{"@id":"way/490512712","highway":"unclassified","name":"成都道 Chengtu Road","name:en":"Chengtu Road","name:zh":"成都道","oneway":"yes","surface":"concrete","heading":"<strong>Chinese From the Past</strong>","description":"Old romanisation system for Chinese place name transliterations, now known as Chengdu"},"geometry":{"type":"LineString","coordinates":[[114.1548001,22.2481463],[114.1548102,22.2480376],[114.1548112,22.2479819],[114.1548062,22.2479409],[114.1547849,22.2478457],[114.154781,22.2478102],[114.1547824,22.2477794],[114.1547908,22.2477521],[114.1548079,22.2477253],[114.1548626,22.2476658]]},"id":"way/490512712"},{"type":"Feature","properties":{"@id":"way/492704915","highway":"secondary","lanes":3,"name":"上海街 Shanghai Street","name:en":"Shanghai Street","name:zh":"上海街","oneway":"yes","surface":"concrete","heading":"<strong>Chinese From Elsewhere</strong>","description":"Mandarin pinyin was used rather than Cantonese romanisation"},"geometry":{"type":"LineString","coordinates":[[114.1700657,22.3095241],[114.1700744,22.3094806],[114.1701738,22.3089813],[114.1701439,22.3088662],[114.1701175,22.3087583],[114.1700929,22.3086767]]},"id":"way/492704915"},{"type":"Feature","properties":{"@id":"way/494493977","lit":"yes","name":"九江街 Kiu Kiang Street","name:en":"Kiu Kiang Street","name:zh":"九江街","oneway":"yes","sidewalk":"both","surface":"concrete","heading":"<strong>Chinese From the Past</strong>","description":"Old romanisation system for Chinese place name transliterations, now known as Jiujiang"},"geometry":{"type":"LineString","coordinates":[[114.161292,22.333861],[114.160885,22.3334174],[114.1605465,22.3330379],[114.1605207,22.3330285],[114.1605033,22.3330248],[114.1604798,22.333022]]},"id":"way/494493977"},{"type":"Feature","properties":{"@id":"way/494512917","highway":"tertiary","lanes":3,"name":"山東街 Shantung Street","name:en":"Shantung Street","name:zh":"山東街","oneway":"yes","surface":"concrete","heading":"<strong>Chinese From the Past</strong>","description":"Old romanisation system for Chinese place name transliterations, now known as Shandong"},"geometry":{"type":"LineString","coordinates":[[114.1714652,22.3178106],[114.1720243,22.3179153],[114.1726054,22.3180242]]},"id":"way/494512917"},{"type":"Feature","properties":{"@id":"way/524505756","highway":"secondary","lanes":4,"lanes:backward":3,"lanes:forward":1,"name":"蕪湖街 Wuhu Street","name:en":"Wuhu Street","name:zh":"蕪湖街","surface":"asphalt","heading":"<strong>Chinese From Elsewhere</strong>","description":"Mandarin pinyin was used rather than Cantonese romanisation"},"geometry":{"type":"LineString","coordinates":[[114.1865902,22.3068894],[114.1864641,22.3069684]]},"id":"way/524505756"},{"type":"Feature","properties":{"@id":"way/524510342","highway":"primary","lanes":3,"name":"廣東道 Canton Road","name:en":"Canton Road","name:zh":"廣東道","oneway":"yes","surface":"concrete","heading":"<strong>Chinese From the Past</strong>","description":"Old romanisation system for Chinese place name transliterations, now known as Guangdong"},"geometry":{"type":"LineString","coordinates":[[114.167474,22.3049564],[114.1675431,22.3048486]]},"id":"way/524510342"},{"type":"Feature","properties":{"@id":"way/547281953","highway":"primary","lanes":3,"name":"廣東道 Canton Road","name:en":"Canton Road","name:zh":"廣東道","oneway":"yes","sidewalk":"left","surface":"asphalt","description":"Old romanisation system for Chinese place name transliterations, now known as Guangdong"},"geometry":{"type":"LineString","coordinates":[[114.1681429,22.3029512],[114.1681133,22.3025486],[114.1681097,22.3025215],[114.1680747,22.3022551],[114.168055,22.3018876],[114.1680737,22.301718],[114.1680767,22.3017018],[114.1681186,22.3014781],[114.1682151,22.3010758],[114.1682859,22.3007808],[114.1683615,22.3005536],[114.1684041,22.3004645],[114.1684706,22.3003514],[114.1685585,22.3002122]]},"id":"way/547281953"},{"type":"Feature","properties":{"@id":"way/564217668","carriageway":"single","highway":"secondary","lanes":3,"name":"廣東道 Canton Road","name:en":"Canton Road","name:zh":"廣東道","oneway":"yes","sidewalk":"both","surface":"concrete","description":"Old romanisation system for Chinese place name transliterations, now known as Guangdong"},"geometry":{"type":"LineString","coordinates":[[114.168499,22.2996527],[114.1685675,22.299312],[114.168839,22.2980021]]},"id":"way/564217668"},{"type":"Feature","properties":{"@id":"way/636302493","highway":"primary","lanes":4,"name":"廣東道 Canton Road","name:en":"Canton Road","name:zh":"廣東道","oneway":"yes","surface":"asphalt","description":"Old romanisation system for Chinese place name transliterations, now known as Guangdong"},"geometry":{"type":"LineString","coordinates":[[114.1680187,22.3029419],[114.1680149,22.3030252]]},"id":"way/636302493"},{"type":"Feature","properties":{"@id":"way/639815016","highway":"tertiary","lanes":2,"name":"浙江街 Chi Kiang Street","name:en":"Chi Kiang Street","name:zh":"浙江街","oneway":"yes","heading":"<strong>Chinese From the Past</strong>","description":"Old romanisation system for Chinese place name transliterations, now known as Zhejiang"},"geometry":{"type":"LineString","coordinates":[[114.1904113,22.3122219],[114.1904308,22.3123018],[114.1904626,22.3123582]]},"id":"way/639815016"},{"type":"Feature","properties":{"@id":"way/639815017","highway":"tertiary","lanes":2,"name":"浙江街 Chi Kiang Street","name:en":"Chi Kiang Street","name:zh":"浙江街","oneway":"yes","heading":"<strong>Chinese From the Past</strong>","description":"Old romanisation system for Chinese place name transliterations, now known as Zhejiang"},"geometry":{"type":"LineString","coordinates":[[114.1904626,22.3123582],[114.19049,22.3122901],[114.190503,22.3122048]]},"id":"way/639815017"},{"type":"Feature","properties":{"@id":"way/658136843","carriageway":"single","lanes":1,"lit":"yes","name":"桂林街 Kweilin Street","name:en":"Kweilin Street","name:zh":"桂林街","oneway":"yes","sidewalk":"both","surface":"concrete","heading":"<strong>Chinese From the Past</strong>","description":"Old romanisation system for Chinese place name transliterations, now known as Jiujiang"},"geometry":{"type":"LineString","coordinates":[[114.162355,22.3315962],[114.1627185,22.3319894],[114.1631195,22.3324479]]},"id":"way/658136843"},{"type":"Feature","properties":{"@id":"way/672502211","highway":"footway","name":"天寶街 Tien Poa Street","name:en":"Tien Poa Street","name:zh":"天寶街","surface":"concrete","heading":"<strong>Chinese From Elsewhere</strong>","description":"Hakka pinyin was used rather than Cantonese romanisation"},"geometry":{"type":"LineString","coordinates":[[114.1681409,22.2768308],[114.1680708,22.2767389],[114.1680829,22.2767312],[114.168005,22.2766319]]},"id":"way/672502211"},{"type":"Feature","properties":{"@id":"way/672502212","highway":"footway","name":"天寶街 Tien Poa Street","name:en":"Tien Poa Street","name:zh":"天寶街","surface":"concrete","heading":"<strong>Chinese From Elsewhere</strong>","description":"Hakka pinyin was used rather than Cantonese romanisation"},"geometry":{"type":"LineString","coordinates":[[114.1682054,22.2769153],[114.1681631,22.2768598]]},"id":"way/672502212"},{"type":"Feature","properties":{"@id":"way/672502213","highway":"steps","name":"天寶街 Tien Poa Street","name:en":"Tien Poa Street","name:zh":"天寶街","surface":"concrete","heading":"<strong>Chinese From Elsewhere</strong>","description":"Hakka pinyin was used rather than Cantonese romanisation"},"geometry":{"type":"LineString","coordinates":[[114.1681631,22.2768598],[114.1681409,22.2768308]]},"id":"way/672502213"},{"type":"Feature","properties":{"@id":"way/683711572","highway":"secondary","lanes":3,"name":"浙江街 Chi Kiang Street","name:en":"Chi Kiang Street","name:zh":"浙江街","oneway":"yes","source":"Yahoo","surface":"asphalt","heading":"<strong>Chinese From the Past</strong>","description":"Old romanisation system for Chinese place name transliterations, now known as Zhejiang"},"geometry":{"type":"LineString","coordinates":[[114.1877005,22.3157206],[114.1877252,22.3157329],[114.1877537,22.3157369],[114.1877989,22.3157338],[114.1878368,22.3157229],[114.1882639,22.315528],[114.1885759,22.3153825],[114.1886582,22.3153442],[114.1887508,22.315297]]},"id":"way/683711572"},{"type":"Feature","properties":{"@id":"way/710624695","highway":"secondary","lanes":3,"name":"甘肅街 Kansu Street","name:en":"Kansu Street","name:zh":"甘肅街","oneway":"yes","surface":"concrete","turn:lanes":"through;left|through;right;right","heading":"<strong>Chinese From the Past</strong>","description":"Old romanisation system for Chinese place name transliterations, now known as Gansu"},"geometry":{"type":"LineString","coordinates":[[114.1685251,22.3090435],[114.1682848,22.3091118],[114.1680372,22.3091652],[114.1680043,22.3091713],[114.1678921,22.3091933]]},"id":"way/710624695"},{"type":"Feature","properties":{"@id":"way/743546699","lanes":1,"name":"廈門街 Amoy Street","name:en":"Amoy Street","name:zh":"廈門街","oneway":"yes","surface":"asphalt","turning_circle":"yes","way:highway":"residential","heading":"<strong>Chinese From the Past</strong>","description":"Old romanisation system for Chinese place name transliterations, now known as Xiamen"},"geometry":{"type":"LineString","coordinates":[[114.1718818,22.2754092],[114.171873,22.2754114],[114.1718649,22.2754155],[114.1718582,22.2754214],[114.1718532,22.2754285],[114.1718502,22.2754366],[114.1718495,22.2754451],[114.171851,22.2754536],[114.1718546,22.2754614],[114.1719236,22.2755786]]},"id":"way/743546699"},{"type":"Feature","properties":{"@id":"way/770879175","highway":"unclassified","name":"九江街 Kiu Kiang Street","name:en":"Kiu Kiang Street","name:zh":"九江街","oneway":"yes","surface":"concrete","heading":"<strong>Chinese From the Past</strong>","description":"Old romanisation system for Chinese place name transliterations, now known as Jiujiang"},"geometry":{"type":"LineString","coordinates":[[114.1604238,22.3328971],[114.1604517,22.3329101],[114.1604688,22.3329144],[114.1604865,22.3329169]]},"id":"way/770879175"},{"type":"Feature","properties":{"@id":"way/770879176","name":"九江街 Kiu Kiang Street","name:en":"Kiu Kiang Street","name:zh":"九江街","oneway":"yes","surface":"concrete","heading":"<strong>Chinese From the Past</strong>","description":"Old romanisation system for Chinese place name transliterations, now known as Jiujiang"},"geometry":{"type":"LineString","coordinates":[[114.1605465,22.3330379],[114.1605422,22.333014],[114.1605402,22.3329944],[114.1605408,22.3329718]]},"id":"way/770879176"},{"type":"Feature","properties":{"@id":"way/782385739","lanes":2,"lit":"yes","name":"桂林街 Kweilin Street","name:en":"Kweilin Street","name:zh":"桂林街","not:psv":"no","oneway":"yes","share_taxi":"no","sidewalk":"both","surface":"concrete","heading":"<strong>Chinese From the Past</strong>","description":"Old romanisation system for Chinese place name transliterations, now known as Jiujiang"},"geometry":{"type":"LineString","coordinates":[[114.1591683,22.3280228],[114.1595635,22.328474]]},"id":"way/782385739"},{"type":"Feature","properties":{"@id":"way/782385740","lanes":2,"lit":"yes","name":"桂林街 Kweilin Street","name:en":"Kweilin Street","name:zh":"桂林街","not:psv":"no","oneway":"yes","sidewalk":"both","surface":"concrete","heading":"<strong>Chinese From the Past</strong>","description":"Old romanisation system for Chinese place name transliterations, now known as Jiujiang"},"geometry":{"type":"LineString","coordinates":[[114.1595635,22.328474],[114.159893,22.3288431],[114.1599187,22.3288733],[114.1599591,22.3289216]]},"id":"way/782385740"},{"type":"Feature","properties":{"@id":"way/783793798","highway":"secondary","lanes":3,"name":"上海街 Shanghai Street","name:en":"Shanghai Street","name:zh":"上海街","oneway":"yes","surface":"concrete","heading":"<strong>Chinese From Elsewhere</strong>","description":"Mandarin pinyin was used rather than Cantonese romanisation"},"geometry":{"type":"LineString","coordinates":[[114.1673638,22.3227763],[114.1674369,22.3224091],[114.1674764,22.3222112]]},"id":"way/783793798"},{"type":"Feature","properties":{"@id":"way/783793802","highway":"secondary","lanes":3,"name":"上海街 Shanghai Street","name:en":"Shanghai Street","name:zh":"上海街","oneway":"yes","surface":"concrete","heading":"<strong>Chinese From Elsewhere</strong>","description":"Mandarin pinyin was used rather than Cantonese romanisation"},"geometry":{"type":"LineString","coordinates":[[114.1672864,22.3232688],[114.1673152,22.3231334],[114.1673302,22.3230612],[114.1673638,22.3227763]]},"id":"way/783793802"},{"type":"Feature","properties":{"@id":"way/815851234","highway":"tertiary","name":"浙江街 Chi Kiang Street","name:en":"Chi Kiang Street","name:zh":"浙江街","oneway":"yes","surface":"asphalt","heading":"<strong>Chinese From the Past</strong>","description":"Old romanisation system for Chinese place name transliterations, now known as Zhejiang"},"geometry":{"type":"LineString","coordinates":[[114.1875158,22.3154544],[114.1874981,22.3154715],[114.1874819,22.3154772],[114.1874565,22.3154798],[114.1869798,22.3154851]]},"id":"way/815851234"},{"type":"Feature","properties":{"@id":"way/817560626","highway":"secondary","lanes":3,"lanes:backward":2,"lanes:forward":1,"name":"蕪湖街 Wuhu Street","name:en":"Wuhu Street","name:zh":"蕪湖街","surface":"asphalt","heading":"<strong>Chinese From Elsewhere</strong>","description":"Mandarin pinyin was used rather than Cantonese romanisation"},"geometry":{"type":"LineString","coordinates":[[114.185061,22.3078495],[114.1850318,22.3078664],[114.1849863,22.3078948]]},"id":"way/817560626"},{"type":"Feature","properties":{"@id":"way/817585439","change:forward":"no","change:lanes:backward":"yes|not_right","highway":"secondary","lanes":3,"lanes:backward":2,"lanes:forward":1,"name":"蕪湖街 Wuhu Street","name:en":"Wuhu Street","name:zh":"蕪湖街","surface":"asphalt","heading":"<strong>Chinese From Elsewhere</strong>","description":"Mandarin pinyin was used rather than Cantonese romanisation"},"geometry":{"type":"LineString","coordinates":[[114.1841777,22.3083992],[114.184214,22.3083765]]},"id":"way/817585439"},{"type":"Feature","properties":{"@id":"way/817585446","highway":"secondary","lanes":3,"lanes:backward":2,"lanes:forward":1,"name":"蕪湖街 Wuhu Street","name:en":"Wuhu Street","name:zh":"蕪湖街","surface":"asphalt","heading":"<strong>Chinese From Elsewhere</strong>","description":"Mandarin pinyin was used rather than Cantonese romanisation"},"geometry":{"type":"LineString","coordinates":[[114.184214,22.3083765],[114.1842459,22.3083565],[114.1844888,22.3082045],[114.184507,22.3081931]]},"id":"way/817585446"},{"type":"Feature","properties":{"@id":"way/832141433","highway":"secondary","lanes":2,"name":"廣東道 Canton Road","name:en":"Canton Road","name:zh":"廣東道","oneway":"yes","sidewalk":"left","surface":"asphalt","heading":"<strong>Chinese From the Past</strong>","description":"Old romanisation system for Chinese place name transliterations, now known as Guangdong"},"geometry":{"type":"LineString","coordinates":[[114.1680967,22.3008211],[114.1680541,22.3010539],[114.168012,22.301234]]},"id":"way/832141433"},{"type":"Feature","properties":{"@id":"way/832141434","carriageway":"single","highway":"secondary","lanes":2,"name":"廣東道 Canton Road","name:en":"Canton Road","name:zh":"廣東道","oneway":"yes","sidewalk":"right","surface":"asphalt","heading":"<strong>Chinese From the Past</strong>","description":"Old romanisation system for Chinese place name transliterations, now known as Guangdong"},"geometry":{"type":"LineString","coordinates":[[114.1685349,22.3000009],[114.1685141,22.2999059],[114.1685028,22.2998439],[114.1684929,22.2997897],[114.168499,22.2996527]]},"id":"way/832141434"},{"type":"Feature","properties":{"@id":"way/833662231","highway":"secondary","lanes":3,"lanes:backward":2,"lanes:forward":1,"name":"蕪湖街 Wuhu Street","name:en":"Wuhu Street","name:zh":"蕪湖街","surface":"asphalt","heading":"<strong>Chinese From Elsewhere</strong>","description":"Mandarin pinyin was used rather than Cantonese romanisation"},"geometry":{"type":"LineString","coordinates":[[114.1849863,22.3078948],[114.1846309,22.3081161],[114.1845447,22.3081697],[114.184507,22.3081931]]},"id":"way/833662231"},{"type":"Feature","properties":{"@id":"way/844368141","carriageway":"transition","destination":"Hung Hom","highway":"trunk_link","lanes":1,"name":"蕪湖街 Wuhu Street","name:en":"Wuhu Street","name:zh":"蕪湖街","oneway":"yes","surface":"asphalt","heading":"<strong>Chinese From Elsewhere</strong>","description":"Mandarin pinyin was used rather than Cantonese romanisation"},"geometry":{"type":"LineString","coordinates":[[114.1838815,22.3089984],[114.1838539,22.3088539]]},"id":"way/844368141"},{"type":"Feature","properties":{"@id":"way/847191776","highway":"secondary","lanes":3,"name":"上海街 Shanghai Street","name:en":"Shanghai Street","name:zh":"上海街","oneway":"yes","surface":"concrete","heading":"<strong>Chinese From Elsewhere</strong>","description":"Mandarin pinyin was used rather than Cantonese romanisation"},"geometry":{"type":"LineString","coordinates":[[114.1675586,22.3217986],[114.1677797,22.3206889],[114.1677922,22.3206261]]},"id":"way/847191776"},{"type":"Feature","properties":{"@id":"way/850862087","name":"道揚路 Dao Yang Road","name:en":"Dao Yang Road","name:zh":"道揚路","heading":"<strong>Chinese From Elsewhere</strong>","description":"Mandarin pinyin was used rather than Cantonese romanisation"},"geometry":{"type":"LineString","coordinates":[[114.1560397,22.507973],[114.1563398,22.5076095],[114.1567669,22.5070711],[114.1571686,22.5065657],[114.1573732,22.5063083],[114.1573825,22.5062966],[114.1575818,22.506031]]},"id":"way/850862087"},{"type":"Feature","properties":{"@id":"way/862434786","highway":"unclassified","lanes":2,"name":"廈門街 Amoy Street","name:en":"Amoy Street","name:zh":"廈門街","surface":"asphalt","heading":"<strong>Chinese From the Past</strong>","description":"Old romanisation system for Chinese place name transliterations, now known as Xiamen"},"geometry":{"type":"LineString","coordinates":[[114.1720873,22.2759135],[114.1720738,22.2758859]]},"id":"way/862434786"},{"type":"Feature","properties":{"@id":"way/862434793","highway":"unclassified","incline":"up","lanes":1,"name":"廈門街 Amoy Street","name:en":"Amoy Street","name:zh":"廈門街","oneway":"yes","surface":"concrete","heading":"<strong>Chinese From the Past</strong>","description":"Old romanisation system for Chinese place name transliterations, now known as Xiamen"},"geometry":{"type":"LineString","coordinates":[[114.1717838,22.2753239],[114.1717006,22.2751735],[114.1716902,22.2751546],[114.171666,22.2751109]]},"id":"way/862434793"},{"type":"Feature","properties":{"@id":"way/862434799","highway":"unclassified","lanes":2,"name":"廈門街 Amoy Street","name:en":"Amoy Street","name:zh":"廈門街","parking:lane:left:parallel":"lay_by","surface":"asphalt","heading":"<strong>Chinese From the Past</strong>","description":"Old romanisation system for Chinese place name transliterations, now known as Xiamen"},"geometry":{"type":"LineString","coordinates":[[114.1720738,22.2758859],[114.1719236,22.2755786]]},"id":"way/862434799"},{"type":"Feature","properties":{"@id":"way/868666677","highway":"unclassified","name":"成都道 Chengtu Road","name:en":"Chengtu Road","name:zh":"成都道","oneway":"yes","surface":"concrete","heading":"<strong>Chinese From the Past</strong>","description":"Old romanisation system for Chinese place name transliterations, now known as Chengdu"},"geometry":{"type":"LineString","coordinates":[[114.1547495,22.2492246],[114.1547594,22.2490107],[114.1547676,22.2488037],[114.1548001,22.2481463]]},"id":"way/868666677"},{"type":"Feature","properties":{"@id":"way/881965023","highway":"unclassified","name":"九江街 Kiu Kiang Street","name:en":"Kiu Kiang Street","name:zh":"九江街","oneway":"yes","surface":"concrete","heading":"<strong>Chinese From the Past</strong>","description":"Old romanisation system for Chinese place name transliterations, now known as Jiujiang"},"geometry":{"type":"LineString","coordinates":[[114.1600841,22.3325256],[114.1601473,22.3325968],[114.1604238,22.3328971]]},"id":"way/881965023"},{"type":"Feature","properties":{"@id":"way/888279998","construction":"footway","construction:footway":"sidewalk","construction:highway":"footway","demolished:footway":"sidewalk","demolished:highway":"footway","highway":"construction","name":"甘肅街 Kansu Street","name:en":"Kansu Street","name:zh":"甘肅街","heading":"<strong>Chinese From the Past</strong>","description":"Old romanisation system for Chinese place name transliterations, now known as Gansu"},"geometry":{"type":"LineString","coordinates":[[114.1680769,22.3090809],[114.1680125,22.3090902],[114.1680031,22.3090908],[114.1679863,22.3090905],[114.1679649,22.3090884],[114.1679558,22.3090843],[114.1679471,22.3090775]]},"id":"way/888279998"},{"type":"Feature","properties":{"@id":"way/903397845","colour":"red","highway":"pedestrian","name":"桂林街 Kweilin Street","name:en":"Kweilin Street","name:zh":"桂林街","sidewalk":"no","surface":"paving_stones","traffic_calming":"table","heading":"<strong>Chinese From the Past</strong>","description":"Old romanisation system for Chinese place name transliterations, now known as Jiujiang"},"geometry":{"type":"LineString","coordinates":[[114.1614714,22.3306046],[114.1614963,22.3306444]]},"id":"way/903397845"},{"type":"Feature","properties":{"@id":"way/903397847","abutters":"retail","carriageway":"single","colour":"red","highway":"pedestrian","marketplace":"electronics","marketplace:opening_hours":"12:00-21:00","name":"桂林街 Kweilin Street","name:en":"Kweilin Street","name:zh":"桂林街","not:motor_vehicle:conditional":"no @ (12:00-21:00)","oneway":"yes","sidewalk":"both","surface":"paving_stones","traffic_calming":"table","vehicle":"no","vehicle:conditional":"yes @ (21:00-12:00)","heading":"<strong>Chinese From the Past</strong>","description":"Old romanisation system for Chinese place name transliterations, now known as Jiujiang"},"geometry":{"type":"LineString","coordinates":[[114.1614714,22.3306046],[114.1614186,22.3305474]]},"id":"way/903397847"},{"type":"Feature","properties":{"@id":"way/918730078","highway":"pedestrian","kerb:both":"yes","lanes":1,"motor_vehicle":"permissive","name":"廣東道 Canton Road","name:en":"Canton Road","name:zh":"廣東道","oneway":"yes","sidewalk":"both","surface":"concrete","heading":"<strong>Chinese From the Past</strong>","description":"Old romanisation system for Chinese place name transliterations, now known as Guangdong"},"geometry":{"type":"LineString","coordinates":[[114.1675731,22.3171443],[114.1675684,22.3171638],[114.1675667,22.3171723]]},"id":"way/918730078"},{"type":"Feature","properties":{"@id":"way/918730079","highway":"pedestrian","kerb:both":"yes","lanes":1,"motor_vehicle":"permissive","name":"廣東道 Canton Road","name:en":"Canton Road","name:zh":"廣東道","oneway":"yes","sidewalk":"both","surface":"concrete","heading":"<strong>Chinese From the Past</strong>","description":"Old romanisation system for Chinese place name transliterations, now known as Guangdong"},"geometry":{"type":"LineString","coordinates":[[114.1672303,22.3187994],[114.1672262,22.318815],[114.1671994,22.3189163]]},"id":"way/918730079"},{"type":"Feature","properties":{"@id":"way/918730080","highway":"pedestrian","kerb:both":"yes","lanes":2,"motor_vehicle":"permissive","name":"廣東道 Canton Road","name:en":"Canton Road","name:zh":"廣東道","oneway":"yes","sidewalk":"both","surface":"concrete","heading":"<strong>Chinese From the Past</strong>","description":"Old romanisation system for Chinese place name transliterations, now known as Guangdong"},"geometry":{"type":"LineString","coordinates":[[114.1669158,22.3203437],[114.1669004,22.3204196]]},"id":"way/918730080"},{"type":"Feature","properties":{"@id":"way/918730081","highway":"pedestrian","kerb:both":"yes","lanes":2,"motor_vehicle":"permissive","name":"廣東道 Canton Road","name:en":"Canton Road","name:zh":"廣東道","oneway":"yes","sidewalk":"both","surface":"concrete","heading":"<strong>Chinese From the Past</strong>","description":"Old romanisation system for Chinese place name transliterations, now known as Guangdong"},"geometry":{"type":"LineString","coordinates":[[114.1671937,22.3189942],[114.167181,22.3190553]]},"id":"way/918730081"},{"type":"Feature","properties":{"@id":"way/970635267","abutters":"retail","designation":"小販認可區 Hawker permitted place","designation:en":"Hawker permitted place","designation:wikidata":"Q10263158","designation:zh":"小販認可區","highway":"pedestrian","lanes":1,"lanes:marked":1,"lanes:unmarked":2,"marketplace":"separate","motor_vehicle":"yes","name":"深圳街 Shamchun Street","name:en":"Shamchun Street","name:zh":"深圳街","oneway":"no","passing_places":"yes","sidewalk":"both","surface":"concrete:plates","heading":"<strong>Chinese From the Past</strong>","description":"Old romanisation system for Chinese place name transliterations, now known as Shenzhen"},"geometry":{"type":"LineString","coordinates":[[114.1667058,22.3191649],[114.1667429,22.3189877],[114.1667584,22.3189135]]},"id":"way/970635267"},{"type":"Feature","properties":{"@id":"way/970635268","abutters":"retail","designation":"小販認可區 Hawker permitted place","designation:en":"Hawker permitted place","designation:wikidata":"Q10263158","designation:zh":"小販認可區","highway":"pedestrian","lanes":1,"lanes:marked":1,"lanes:unmarked":2,"marketplace":"separate","motor_vehicle":"yes","name":"深圳街 Shamchun Street","name:en":"Shamchun Street","name:zh":"深圳街","oneway":"no","passing_places":"yes","sidewalk":"right","surface":"concrete:plates","heading":"<strong>Chinese From the Past</strong>","description":"Old romanisation system for Chinese place name transliterations, now known as Shenzhen"},"geometry":{"type":"LineString","coordinates":[[114.1664576,22.319355],[114.1666975,22.3191998]]},"id":"way/970635268"},{"type":"Feature","properties":{"@id":"way/970635269","abutters":"retail","designation":"小販認可區 Hawker permitted place","designation:en":"Hawker permitted place","designation:wikidata":"Q10263158","designation:zh":"小販認可區","highway":"pedestrian","lanes":1,"lanes:marked":1,"lanes:unmarked":2,"marketplace":"separate","motor_vehicle":"yes","name":"深圳街 Shamchun Street","name:en":"Shamchun Street","name:zh":"深圳街","oneway":"no","passing_places":"yes","sidewalk":"right","surface":"concrete:plates","heading":"<strong>Chinese From the Past</strong>","description":"Old romanisation system for Chinese place name transliterations, now known as Shenzhen"},"geometry":{"type":"LineString","coordinates":[[114.1664157,22.3193804],[114.1664576,22.319355]]},"id":"way/970635269"},{"type":"Feature","properties":{"@id":"way/970635272","abutters":"retail","designation":"小販認可區 Hawker permitted place","designation:en":"Hawker permitted place","designation:wikidata":"Q10263158","designation:zh":"小販認可區","highway":"pedestrian","lanes":1,"lanes:marked":1,"lanes:unmarked":2,"marketplace":"separate","motor_vehicle":"yes","name":"深圳街 Shamchun Street","name:en":"Shamchun Street","name:zh":"深圳街","oneway":"no","passing_places":"yes","sidewalk":"both","surface":"concrete:plates","heading":"<strong>Chinese From the Past</strong>","description":"Old romanisation system for Chinese place name transliterations, now known as Shenzhen"},"geometry":{"type":"LineString","coordinates":[[114.1661577,22.3195783],[114.1661685,22.3195517],[114.1661949,22.3195243]]},"id":"way/970635272"},{"type":"Feature","properties":{"@id":"way/1063897217","highway":"secondary","lanes":2,"name":"廣東道 Canton Road","name:en":"Canton Road","name:zh":"廣東道","oneway":"yes","sidewalk":"left","surface":"asphalt","heading":"<strong>Chinese From the Past</strong>","description":"Old romanisation system for Chinese place name transliterations, now known as Guangdong"},"geometry":{"type":"LineString","coordinates":[[114.16847,22.3000463],[114.1683891,22.300113],[114.1682812,22.3002979],[114.1682348,22.300382]]},"id":"way/1063897217"},{"type":"Feature","properties":{"@id":"way/1079223252","highway":"primary","lanes":3,"name":"廣東道 Canton Road","name:en":"Canton Road","name:zh":"廣東道","oneway":"yes","surface":"concrete","heading":"<strong>Chinese From the Past</strong>","description":"Old romanisation system for Chinese place name transliterations, now known as Guangdong"},"geometry":{"type":"LineString","coordinates":[[114.1673447,22.3048891],[114.1672928,22.3049697],[114.1671366,22.3052065]]},"id":"way/1079223252"},{"type":"Feature","properties":{"@id":"way/1097999006","highway":"secondary","lanes":2,"name":"廣東道 Canton Road","name:en":"Canton Road","name:zh":"廣東道","oneway":"yes","sidewalk":"left","surface":"asphalt","heading":"<strong>Chinese From the Past</strong>","description":"Old romanisation system for Chinese place name transliterations, now known as Guangdong"},"geometry":{"type":"LineString","coordinates":[[114.1682348,22.300382],[114.1681597,22.3005816],[114.1681204,22.3006921],[114.1680967,22.3008211]]},"id":"way/1097999006"},{"type":"Feature","properties":{"@id":"way/1097999008","highway":"primary","intersection":"yes","junction":"intersection","lanes":2,"name":"廣東道 Canton Road","name:en":"Canton Road","name:zh":"廣東道","oneway":"yes","surface":"asphalt","traffic_signals":"signal","heading":"<strong>Chinese From the Past</strong>","description":"Old romanisation system for Chinese place name transliterations, now known as Guangdong"},"geometry":{"type":"LineString","coordinates":[[114.1685349,22.3000009],[114.16847,22.3000463]]},"id":"way/1097999008"},{"type":"Feature","properties":{"@id":"way/1097999011","bicycle":"no","buffer:left:marking":"chevron","foot":"no","highway":"primary","lanes":2,"marking:left":"dashed_line","name":"廣東道 Canton Road","name:en":"Canton Road","name:zh":"廣東道","oneway":"yes","placement":"transition","separation:left":"no","surface":"asphalt","heading":"<strong>Chinese From the Past</strong>","description":"Old romanisation system for Chinese place name transliterations, now known as Guangdong"},"geometry":{"type":"LineString","coordinates":[[114.1680696,22.3012369],[114.1680195,22.3013485]]},"id":"way/1097999011"},{"type":"Feature","properties":{"@id":"way/1097999012","buffer:right:marking":"chevron","highway":"secondary","lanes":2,"marking:right":"dashed_line","name":"廣東道 Canton Road","name:en":"Canton Road","name:zh":"廣東道","oneway":"yes","placement":"transition","separation:right":"no","sidewalk":"left","surface":"asphalt","heading":"<strong>Chinese From the Past</strong>","description":"Old romanisation system for Chinese place name transliterations, now known as Guangdong"},"geometry":{"type":"LineString","coordinates":[[114.168012,22.301234],[114.1680195,22.3013485]]},"id":"way/1097999012"},{"type":"Feature","properties":{"@id":"way/1098720677","highway":"unclassified","lanes":1,"name":"廈門街 Amoy Street","name:en":"Amoy Street","name:zh":"廈門街","oneway":"yes","surface":"concrete","heading":"<strong>Chinese From the Past</strong>","description":"Old romanisation system for Chinese place name transliterations, now known as Xiamen"},"geometry":{"type":"LineString","coordinates":[[114.1718885,22.2754407],[114.1718818,22.2754092],[114.171879,22.275399],[114.1718744,22.2753894],[114.1718682,22.2753806],[114.1718606,22.2753729],[114.1718517,22.2753663],[114.1718418,22.2753612],[114.1718311,22.2753576],[114.1718215,22.2753545],[114.1718123,22.2753503],[114.1718039,22.275345],[114.1717962,22.2753388],[114.1717895,22.2753317],[114.1717838,22.2753239]]},"id":"way/1098720677"},{"type":"Feature","properties":{"@id":"way/30151290","highway":"residential","lanes":1,"name":"長沙街 Changsha Street","name:en":"Changsha Street","name:zh":"長沙街","oneway":"yes","surface":"concrete","heading":"<strong>Chinese From Elsewhere</strong>","description":"Mandarin pinyin was used rather than Cantonese romanisation"},"geometry":{"type":"LineString","coordinates":[[114.1693881,22.3159607],[114.1698882,22.3160496],[114.1699739,22.3160653]]},"id":"way/30151290"},{"type":"Feature","properties":{"@id":"way/102441823","highway":"residential","lanes":1,"name":"長沙街 Changsha Street","name:en":"Changsha Street","name:zh":"長沙街","oneway":"yes","surface":"concrete","heading":"<strong>Chinese From Elsewhere</strong>","description":"Mandarin pinyin was used rather than Cantonese romanisation"},"geometry":{"type":"LineString","coordinates":[[114.1693881,22.3159607],[114.1688016,22.3158614]]},"id":"way/102441823"}]}